province;section;town;name;address;borough;startBoard;endBoard
2;7;121;ESCUELA ES N°7;29 N°1151;980;7;16
2;7;121;ESC.RECONOCIDA S.E.U SAN JOSE;10 N°545;980;17;19
2;7;121;ESCUELA EDUC.ESPECIAL N°501;27 E/13 Y 14 S/N°;980;20;23
2;7;121;CTRO.EDUC.COMPLEMENTARIO N°802;27 E/2 Y 3 S/N°;980;24;25
2;7;121;COLEG.SAN FRANCISCO DE XABIER;9 N°693;980;26;27
2;7;121;ESCUELA EP N°1;27 N°866;980;28;33
2;7;121;ESCUELA EP N°3;14 Y 28 S/N°;980;34;37
2;7;121;ESCUELA EP N°7;41 Y 102 - B°EL CARMEN;980;38;40
2;7;121;ESCUELA EP N°5;5 N°1287;980;41;46
2;7;121;ESCUELA EP N°4;7 Y 23 N°419;980;50;53
2;7;121;ESCUELA EP N°25;12 E/301 Y 302;980;54;59
2;7;121;ESCUELA ES N°1;13 N°599;980;60;63
2;7;121;INST.EVANG.ASAMBLEA CRISTIANA;6 N°1850;980;47;49
2;7;121;ESCUELA EST N° 1;18 N°1648;980;1;6
2;7;121;ESCUELA EP N°16;11 E/41 Y 42;981;64;64
2;7;121;COLEGIO SAN TARSICIO;S/C S/N°;982;65;65
2;7;121;ESCUELA EP N°14;2 DE ABRIL S/N°;983;66;68
2;7;121;ESCUELA EP N°20;LUGONES 220;983;69;72
2;7;121;ESCUELA ES N°2;MITRE Y GUEMES;983;73;78
2;7;121;ESCUELA EP N°21;AV.JORGE KEEN Y M.BELGRANO;984;79;83
2;7;121;ESCUELA ES N°6;SAN MARTIN Y ENTRE RIOS;985;84;85
2;7;121;COLEG.SAN FRANCISCO DE XABIER;9 N°693;986;86;86
2;7;121;ESCUELA EP N°2;S/C S/N°;987;87;87
2;7;121;ESCUELA EP N°23;AV.CIRCUNVALACION E/2 Y 3;988;88;90
2;7;121;ESCUELA EP N°13;10 E/11 Y 13 S/N;989;91;91
2;7;121;ESCUELA EP N°11;SARMIENTO E/CORDOBA Y SANTA FE;990;92;92
2;7;121;ESCUELA EP N°31/ES N°3;7 Y 14 S/N;991;93;94
2;7;6;COLEGIO INMACULADA CONCEPCION;COLON 718;60;1;7
2;7;6;ESCUELA NORMAL SUPERIOR;AV.25 DE MAYO 777;60;15;25
2;7;6;ESCUELA ES N°5;COLON 428;60;37;51
2;7;6;ESCUELA EP N°2;COLON 498;60;52;63
2;7;6;ESCUELA ES N°1;BURGOS 402;60;74;79
2;7;6;ESCUELA EP N°28;PELLEGRINI 1208;60;80;89
2;7;6;ESCUELA EST N°2;COLON 520;60;96;99
2;7;6;ESCUELA EP N°62;ARGENTINA 224;60;100;105
2;7;6;ESCUELA EP N°64/ES N°8;ALDAZ 398;60;106;109
2;7;6;ESCUELA EP N°1/ES N°10;RIVADAVIA 880;60;110;118
2;7;6;ESCUELA EP N°18/ES N°11;INT.M.CASTELAR 1245;60;119;124
2;7;6;ESCUELA EP N°7/ES N°9;CONSTITUCION 355;60;125;130
2;7;6;COLEGIO SAGRADA FAMILIA;LEYRIA 426;60;131;135
2;7;6;ESCUELA EP N°66;RAUCH 114;60;136;142
2;7;6;ESCUELA EP N°13;MAIPU 150;60;67;73
2;7;6;ESCUELA EP N°14;COMERCIO 859;60;8;14
2;7;6;ESCUELA EP N°17;AV.MITRE 826;60;26;36
2;7;6;ESCUELA EP N°21;SARGENTO CABRAL 850;60;90;95
2;7;6;INSTITUTO SEC.SAN FCO.DE ASIS;GRAL PAZ 221;60;64;66
2;7;6;ESCUELA EP N°1/EES N°10;RIVADAVIA 880;61;143;143
2;7;6;ESCUELA EP N°56;BELGRANO 481;62;144;147
2;7;6;ESCUELA ES N°3;BELGRANO Y CORTAZAR 280;62;148;152
2;7;6;ESCUELA EP N°20;LAS MAGNOLIAS 210;62A;153;153
2;7;6;ESCUELA EP N°37/JARDIN N°911;ESTACION P.ACOSTA;62B;154;154
2;7;6;ESCUELA EP N°33;RUTA 226 KM.221 1/2;63;155;155
2;7;6;COLEGIO INMACULADA CONCEPCION;COLON 718;64;156;156
2;7;6;ESCUELA EP N°5;ECION.PARISH;65;157;157
2;7;6;ESCUELA EP N°36;RUTA 51 PROLONG.CHAVEZ;66;158;158
2;7;6;ESCUELA EP N°6;ALVEAR 881;67;159;162
2;7;6;ESCUELA EP N°23;SAN MARTIN 1431;67;163;166
2;7;6;INSTITUTO DEL CARMEN/EP /ES;AVELLANEDA 288;67;167;168
2;7;6;ESCUELA EP N°25;CUARTEL 10°-ESTACION ARIEL;68;169;169
2;7;6;ESCUELA EP N°29;RUTA PROVINCIAL 50;69;170;170
2;7;13;ESCUELA ES N°4;PROF.A.CANCIO 230;125;7;12
2;7;13;ESCUELA EP N°6;URQUIZA 465;125;18;25
2;7;13;ESCUELA EST N°1;CENTENARIO Y PROF.CASTELLA;125;26;31
2;7;13;ESCUELA EP N°1/ES N°10;ALSINA Y BELGRANO;125;32;40
2;7;13;ESCUELA EP N°2/ES N°2;EDISON Y RONDEAU;125;41;49
2;7;13;ESCUELA EP N°9/ES N°9;LEYRIA 243;125;50;54
2;7;13;COLEGIO CERVANTES;AV.VENEZUELA 450;125;62;66
2;7;13;INSTITUTO JESUS SACRAMENTADO;AV.SAN MARTIN 583;125;58;61
2;7;13;JARDIN DE INFANTES N°901;ALSINA 337;125;55;57
2;7;13;CTRO.EDUC.COMPLEMENTARIO N°801;JUAN MANUEL DE ROSAS 125;125;1;6
2;7;13;INST.DE FORMAC.DOC. Y TEC.N°27;GUEMES 62;125;67;74
2;7;13;ESCUELA EP N°51;GARDEL E/BEARTON Y M.CASTELL;125;13;17
2;7;13;ESCUELA EP N°26/JIRMM N°417;VALLIMANCA-CTEL 7°;125A;75;75
2;7;13;ESCUELA EP N°5;CAMPO DE CAÑAS;126;76;76
2;7;13;ESCUELA EP N°15;RIVADAVIA E/BELGRANO Y SARMIENTO;127;77;77
2;7;13;ESCUELA EP N°4/JIRIMM N°409;VILLA SANZ-RUTA65;128;78;78
2;7;13;ESCUELA EP N°17/JIRIMM N°401;M.UNZUE;129;79;79
2;7;13;INST.DE FORMACION DOCENTE N°27;GUEMES 62;130;80;80
2;7;13;ESCUELA EP N°12/JIRIMM N°10;CUARTEL 8°;131;81;81
2;7;13;ESCUELA EP N°10/JIRIMM N°414;CUARTEL 8°;131A;82;82
2;7;13;ESCUELA EP N°54;PELLEGRINI Y LAPRIDA;132;83;86
2;7;13;ESCUELA EP N°22;BELGRANO 312;132;87;90
2;7;13;DELEGACION MUNICIPAL PIROVANO;PALAU 54;133;91;92
2;7;13;ESCUELA EP N°13;ROTETA Y MARCHI;133;93;95
2;7;40;ESCUELA EP N°24;LAVALLE 160;310;1;6
2;7;40;ESCUELA EP N°1;H.YRIGOYEN 690;310;7;11
2;7;40;ESCUELA ES N°1;ITALIA 338;310;12;17
2;7;40;ESCUELA EP N°27;AV.SAN MARTIN Y PIÑEIRO S/N;310;18;21
2;7;40;COLEGIO CARMEN A.MICHEO(EP);B.MITRE 350;310;22;24
2;7;40;ESCUELA EP N°11;RUTA NAC.205 KM 248,500;311;25;25
2;7;40;ESCUELA EP N°4;CUARTEL 5°;312;26;26
2;7;40;ESCUELA EP N°27;AV.SAN MARTIN Y PIÑEIRO S/N;313;27;27
2;7;84;ESCUELA ES N°10/EP N°81;SAN MARTIN 3051;711;1;6
2;7;84;ESCUELA EP N°8;DORREGO 3256;711;7;12
2;7;84;ESCUELA EP N°1;SGTO.CABRAL 2543;711;13;18
2;7;84;ESCUELA EP N°57;9 DE JULIO 1187;711;19;23
2;7;84;ESCUELA EP N°51;RIVADAVIA 1676;711;24;29
2;7;84;ESCUELA EP N°17/ES N°22;ALSINA 2417;711;30;37
2;7;84;ESCUELA EP N°50;MITRE 3071;711A;38;41
2;7;84;ESCUELA EP N°59/CEA N°715;LAVALLE 4287;711A;42;46
2;7;84;ESCUELA ES N°8/ES N°6;ROQUE SAENZ PEÑA 2459;711A;47;54
2;7;84;ESCUELA EP N°22/ESB N°21;9 DE JULIO 4885;711A;55;59
2;7;84;ESCUELA EP N°52/ES N°14;PIEDRAS 2167;711B;60;66
2;7;84;JARDIN DE INFANTES N°902;SAN MARTIN 2095;711B;67;70
2;7;84;ESCUELA EP N°4/ES N°20;SAN MARTIN 2009;711B;71;78
2;7;84;COLG. S.A.DE PADUA/U. DE LOMAS;AYACUCHO 2410;711B;79;85
2;7;84;ESCUELA EP N°53;AYACUCHO 3493;711C;86;92
2;7;84;JARD.MAT.MUNIC.RAYITO DE SOL;TACUARI 3661;711C;119;120
2;7;84;ESCUELA EP N°6;AV.ALBERDI 4997;711C;93;98
2;7;84;CTRO.EDUC.COMPLEMENTARIO N°801;JUNIN Y COLON;711C;105;106
2;7;84;COLEGIO MARIANO MORENO;RCA.DEL LIBANO 1432;711C;107;114
2;7;84;JARDIN DE INFANTES MAMI;RCA.DEL LIBANO 1432;711C;124;126
2;7;84;JARDIN DE INFANTES N°915;ALBERDI 3055;711C;115;116
2;7;84;ESC.CRIST.EVANG. ARG.(EP/ES);MORENO 2050;711C;99;104
2;7;84;INSTITUTO DE ENSEÑANZA ORAL;CERRITO 3259;711C;117;118
2;7;84;ESCUELA ES N°18/EP N°6;AV.ALBERDI 4588;711C;121;123
2;7;84;ESCUELA EP N°24/ES N°12;AGUILAR 2 N°2299;711D;127;132
2;7;84;ESCUELA EP N°56;URQUIZA 1590;711D;133;136
2;7;84;ESCUELA EP N°80;PTE.PERON E ISLAS MALVINAS;711D;137;148
2;7;84;ESCUELA EST N°2;AV.A.DEL VALLE 5201;711D;149;158
2;7;84;ESCUELA EP N°65/ES N°13;13 Y ROCA DE SCHWINNDT 2292;711D;159;164
2;7;84;COLEGIO FRAY M.ESQUIU;AVENIDA DEL VALLE 5250;711D;173;175
2;7;84;ESCUELA NAC.A.PEREZ ESQUIVEL;AV.A.DEL VALLE 5737;711D;165;172
2;7;84;ESCUELA ES N°1;BERUTTI Y MAZUCCHI;711D;176;181
2;7;84;ESCUELA EP N°32;DEAN FUNES 3302;711E;182;191
2;7;84;ESCUELA EP N°58;MOYA 3190;711E;192;197
2;7;84;ESCUELA EP N°76/ESB N°16;LAPRIDA Y TRABAJADORES;711E;198;206
2;7;84;CTRO.EDUC.COMPLEMENTARIO N°802;RUFINO FAL 4120;711E;207;210
2;7;84;JARDIN DE INFANTES N°912;LAPRIDA 4350;711E;211;212
2;7;84;ESCUELA ES N°7;DORREGO 3888;711E;213;221
2;7;84;JARDIN DE INFANTES N°927;JUAN PABLO II N°35;711E;222;224
2;7;84;ESCUELA EDUC.ESTETICA N°3;COLON 3880;711E;225;226
2;7;84;ESCUELA EP N°15/JIRIMM N°410;ITUZAINGO S/N;712;227;227
2;7;84;ESCUELA EP N°2;AV.LEGORBURU 1623;713;228;228
2;7;84;ESCUELA EP N°55;GRAL.PAZ 11549;714;229;231
2;7;84;ESCUELA EP N°11;SARA ALVAREZ 1690;715;232;235
2;7;84;ESCUELA ES N°4;AV.CROTTO Y COLELLA S/N;715;236;241
2;7;84;COLEGIO SANTA TERESA(EP/ES);JUAN SCHARLE 1110;715;242;242
2;7;84;ESCUELA EP N°2;AV.LEGORBURU 1623;716;243;249
2;7;84;ESCUELA EP N°14;SAN MARTIN 2098;717;250;255
2;7;84;ESCUELA EP N°77;ZEBALLOS 1430;717;256;259
2;7;84;ESCUELA EP N°5/ES N°2 ANEXO;SAN MARTIN E/25 DE MAYO Y 9 DE JULIO;718;260;261
2;7;84;ESCUELA EP N°7;CIRC.2-CHACRA 1/176-SEC.M-MZ.B;718A;262;262
2;7;84;ESCUELA EP N°12/ES N°3;CALLEJA ISABEL MOZZI 849;719;263;268
2;7;84;ESCUELA EP N°79;SAN MARTIN 1660;719;269;272
2;7;84;ESCUELA EP N°25;CUARTEL 8°;719A;273;273
2;7;84;ESCUELA EP N°9;SANTA LUISA;720;274;274
2;7;84;ESCUELA EP N°15;ITUZAINGO 721;721;275;275
2;7;84;ESCUELA EP N°36;CUARTEL 16°-CNO.CONSOLIDADO;722;276;276
2;7;84;ESCUELA EP N°10/ES N°19;8 Y 11;723;277;277
2;7;84;ESCUELA EP N°75;CUARTEL 18°;723A;278;278
2;7;84;ESCUELA EP N°40;CUARTEL 20°;724;279;279
2;7;84;ESCUELA EP N°30;MARIA GONZALEZ 1360;725;280;281
2;7;84;ESCUELA EP N°15/JIRIMM N°410;ITUZAINGO SUR 721°;726;282;282
2;7;97;ESCUELA EP N°3;SARMIENTO 1260;832;1;8
2;7;97;ESCUELA EP N°1;ALSINA 1291;832;9;16
2;7;97;ESCUELA EP N°2;GOTUZZO Y H.FERNANDEZ;832;17;22
2;7;97;ESCUELA ES N°1;9 DE JULIO N°1537;832;23;27
2;7;97;ESCUELA EP N°13;LA QUERENCIA;833;28;28
2;7;97;ESCUELA EP N°19;CUARTEL 2°;834;29;29
2;7;97;ESCUELA EP N°12;CUARTEL 6°;835;30;30
2;7;97;ESCUELA EP N°7;YRIGOYEN N°914;836;31;32
2;7;97;ESCUELA ES N°1;9 DE JULIO N°1537;837;33;33
2;7;100;ESCUELA ES N°2;AV.PEREYRA 3046;846;1;10
2;7;100;INSTITUTO NIÑO JESUS;BELGRANO 2999;846;11;20
2;7;100;ESCUELA EP N°18;ALMAFUERTE 3158;846;32;41
2;7;100;INST.SUP.FORMAC.DOCENTE N°16;AV.RIVADAVIA 2655;846;42;51
2;7;100;ESCUELA EP N°1;SAN MARTIN Y MORENO;846;52;61
2;7;100;ESCUELA EST N°1;JOAQUIN V.GONZALEZ 3013;846;21;31
2;7;100;ESCUELA EP N°26;RIVADAVIA 2086;846;62;68
2;7;100;ESCUELA EP N°3;LEDESMA Y S.PEÑA;846;69;71
2;7;100;ESCUELA EP N°14;SARMIENTO Y BELGRANO S/N°;847;72;73
2;7;100;ESCUELA EP N°12;CUARTEL 3°;848;74;74
2;7;100;ESCUELA EP N°8;AV.RIVADAVIA N°158;849;75;78
2;7;100;ESCUELA EP N°13/ES N°4;EL OMBU E/ARAUCARIAS Y AROMOS;849A;79;80
2;7;100;ESCUELA EP N°9;BS.AIRES Y TUCUMAN;850;81;82
2;7;100;ESCUELA EP N°10;S/C S/N°-CUARTEL 7°;851;83;83
2;7;100;ESCUELA EP N°21;J.V.GONZALEZ;852;84;84
2;7;112;ESCUELA EP N°28;AV.9 DE JULIO 214;944;6;11
2;7;112;ESCUELA EP N°1;SAN MARTIN 73;944;1;5
2;7;112;ESCUELA ES N°1;AV.SAN MARTIN 97;944;18;23
2;7;112;ESCUELA ES N°2;LUIS BRANE 175;944;12;17
2;7;112;ESCUELA EP N°2;LUIS BRANE 175;945;24;24
2;7;112;ESCUELA EP N°14;CUARTEL III;946;25;25
2;7;112;ESCUELA EP N°6/ ES N° 2 ANEXO 1;CUARTEL IV;947;26;26
2;7;112;ESCUELA EP N°5;CUARTEL 6°;948;27;27
2;7;112;ESCUELA EP N°8;CUARTEL V- CROTT;949;28;28	