province;section;town;name;address;borough;startBoard;endBoard
2;3;61;ESCUELA EP N°164/ES N°86;AV CENTRAL E/300 Y 200;631A;1004;1014
2;3;61;ESCUELA EP N°168/ES N°61;AV.17 DE OCTUBRE N°2025;631A;1015;1029
2;3;61;ESCUELA EP N°150;EL TIMBO E/LA VIUDITA Y M.WALKO;631A;1030;1038
2;3;61;ESCUELA EP N°152/ES N°8 ANEXO;EL CEDRO 549;631A;1039;1048
2;3;61;ESCUELA EP N°171/ES N°69;AV. 17 DE OCTUBRE Y CALLE 1000;631A;1091;1104
2;3;61;ESCUELA EP N°151;EL AVELLANO 531;631A;1061;1068
2;3;61;ESCUELA ES N°8;SEC.4-MZ.25;631A;1069;1077
2;3;61;ESCUELA EP N°190;SILVIA TOLEDO 936;631A;1078;1084
2;3;61;ESCUELA EP N°177/ES N°58;EL RAULI N°788;631A;1085;1090
2;3;61;ESCUELA ES N°21;CASTILLA Y EL TIBURON;631A;1105;1115
2;3;61;ESCUELA EP N°186;600 Y LAS ORQUIDEAS S/N°;631A;1052;1060
2;3;61;ESCUELA EDUC.ESPECIAL N°508;AV.17 DE OCTUBRE Y CALLE 900 S/N;631A;1049;1051
2;3;61;ESCUELA EP N°173;TIBURON 300;631A;1116;1117
2;3;61;ESC. NORMAL SUP. ETCHEGARAY;EL LEÑATERO 1250;631B;1118;1127
2;3;61;ESCUELA EST N°11;AV.M.M.DE GUEMES N° 3860;631B;1128;1137
2;3;61;ESCUELA EP N°149;EL RUISEÑOR 3755;631B;1138;1141
2;3;61;ESCUELA EP N°85/ES N°188;RCA.DE PORTUGAL 3409;631C;1142;1151
2;3;61;ESCUELA EP N°34;PERIBEBUY 5758;631C;1162;1171
2;3;61;COLEG.ISIDRO CASANOVA(EP Y ES);ISLAS MALVINAS 3280;631C;1181;1186
2;3;61;ESCUELA EP N°169/ES N°104;ESPINOSA 4648;631C;1187;1192
2;3;61;INSTITUTO ISLAS MALVINAS;LA HAYA 3257;631C;1172;1180
2;3;61;ESCUELA EP N°22;CANADA 5622;631C;1152;1161
2;3;61;ESCUELA EP N°6;DESEADO 3774;631D;1193;1202
2;3;61;ESCUELA EP N°80/ES N°105;CENTENERA 4041;631D;1203;1212
2;3;61;ESCUELA EP N°118/ES N°79;J.I.RUCCI 4822;631D;1213;1224
2;3;61;ESCUELA EP N°113/ES N°120;PADRE L.GALLO 4590;631D;1234;1245
2;3;61;ESCUELA EP N°132;CANADA 4664;631D;1246;1256
2;3;61;INSTITUTO FUTUROS HORIZONTES;MONTAÑESES 3860;631D;1257;1262
2;3;61;INSTITUTO WILLIAMS C.MORRIS;THAMES 3840;631D;1263;1266
2;3;61;ESCUELA EP N°159/ES N°88;J.I.RUCCI 4450;631D;1225;1233
2;3;61;ESCUELA EP N°162/ES N°53;AVDA.CROVARA 4991;631D;1267;1277
2;3;61;INSTITUTO MODELO R.GUTIERREZ;MADARIAGA 3669;631D;1278;1281
2;3;61;ESCUELA EDUC.ESPECIAL N°511;GUATEMALA 4153;631D;1282;1287
2;3;61;ESCUELA EP N°115;LA RIOJA 115 E/DERQUI Y THAMES;631D;1288;1296
2;3;61;JARDIN DE INFANTES N°915;MADARIAGA 3617;631D;1297;1298
2;3;61;ESCUELA EP N°74;PILCOMAYO 1342;632;1299;1308
2;3;61;COLEGIO SAN JOSE;ANA MARIA JANER 1550;632;1309;1316
2;3;61;ESCUELA ES N°41;DEFENSA 1833;632;1317;1323
2;3;61;ESCUELA EP N°18;J.ALICO N°1070;632;1324;1329
2;3;61;ESCUELA EP N°155;NAZAR 494;632A;1330;1337
2;3;61;ESCUELA EP N°60/ES °83;SARANDI 5171;632A;1338;1350
2;3;61;ESCUELA EP N°87;ALBERTI 1808;632A;1351;1357
2;3;61;ESCUELA MOD.LEONARDO DA VINCI;ARIETA 5467;632A;1358;1363
2;3;61;ESCUELA EP N°38/ES N°118;INCLAN 1856;632B;1364;1371
2;3;61;JARDIN DE INFANTES N°950;INCLAN 1749;632B;1372;1373
2;3;61;ESCUELA EP N°2;HUMAITA 1394;633;1374;1384
2;3;61;ESCUELA EP N°39;DONOVAN 1417;633;1388;1395
2;3;61;ESC.ASOC.CRIST.DE JOVENES MATA;D.MILLAN 1079;633;1396;1403
2;3;61;INSTITUTO JUAN MANUEL DE ROSAS;EVITA 210;633;1479;1485
2;3;61;ESCUELA EP N°9/ES N°92;PEDERNERA 1301;633;1411;1420
2;3;61;ESCUELA EP N°49;BLANCO ENCALADA 942;633;1426;1432
2;3;61;INST. PARROQ. SAN JOSE OBRERO;BLANCO ENCALADA 843;633;1433;1439
2;3;61;COLEGIO HERMANOS AMEZOLA;OLAVARRIA 611;633;1440;1445
2;3;61;COLEGIO NTRA.SRA.DE LOURDES;CONSTITUYENTES 1287;633;1446;1456
2;3;61;ESCUELA EP N°13/ES N°38;TALCAHUANO 893;633;1457;1468
2;3;61;ESCUELA EP N°97/ES N°85;AVELINO DIAZ 500;633;1469;1478
2;3;61;ESCUELA EP N°137;OLAVARRIA 2465;633;1486;1495
2;3;61;ESCUELA EP N°138/ES N°117;AV.SAN MARTIN 7200;633;1496;1505
2;3;61;ESCUELA SAN CARLOS DE BORROMEO;OLAVARRIA 1875;633;1506;1511
2;3;61;ESCUELA EP N°139/ES N°157;UNANUE N°10;633;1512;1515
2;3;61;ESCUELA EP N°63;PASO DE LOS ANDES 571;633;1526;1531
2;3;61;INST. Y COLEG. SAN L. GONZAGA;TUYUTI 1335;633;1404;1410
2;3;61;INSTITUTO SAGRADO CORAZON;OLAVARRIA 2345;633;1516;1525
2;3;61;INSTITUTO NICOLAS REPETTO;AV.DONOVAN 1868;633;1532;1534
2;3;61;ESCUELA EST N°9;TEMPERLEY 945;633;1421;1425
2;3;61;ESCUELA ES N°38/EST N°10;M.SANCHEZ DE THOMPSON 1938;633;1385;1387
2;3;61;ESCUELA EP N°5;O'GORMAN 1550;634;1535;1540
2;3;61;ESCUELA EP N°7/ES N°8;AV.CROVARA 1099;634;1541;1555
2;3;61;ESCUELA EP N°98;PASO 3814;634;1559;1567
2;3;61;ASOC.MUT.DE PROTEC. Y FOM.CABR;SARGENTO CABRAL 3366;634;1615;1616
2;3;61;INSTITUTO M.MORENO (ES);ALTE. BROWN 5263;634;1568;1570
2;3;61;JARDIN DE INFANTES N°913;PANAMA 3295;634;1571;1574
2;3;61;ESCUELA SAGRADA FAMILIA;ALICIA M.DE JUSTO 4325;634;1584;1589
2;3;61;COLEGIO PARROQ.MARIA REINA;TAPALQUE 636;634;1590;1597
2;3;61;INSTITUTO M.MORENO (EP);JUNIN 47;634;1598;1603
2;3;61;ESCUELA EP N°26;BRIG.GRAL J.M.DE ROSAS N°360;634;1575;1583
2;3;61;ESCUELA ES N°90;PASO 3270;634;1604;1606
2;3;61;JARDIN DE INFANTES N°934;PANAMA 3800;634;1607;1610
2;3;61;JARDIN DE INFANTES N°970;CHARLONE 600;634;1611;1612
2;3;61;JARDIN DE INFANTES N°975;O'GORMAN 1550;634;1613;1614
2;3;61;JARDIN DE INF.MARIANO MORENO;ALTE.BROWN 5292;634;1556;1558
2;3;61;INSTITUTO ESC.JUAN PABLO II;MONTEVIDEO 1531;634;1617;1621
2;3;61;ESCUELA EP N°78/ES N°169;ASCASUBI 3491 Y BONDPLAND;635;1622;1631
2;3;61;ESCUELA EP N°175;TOLUCA 1208;635;1841;1850
2;3;61;ESCUELA EP N°166;R.ORTEGA 2505;635;1642;1652
2;3;61;ESCUELA EP N°81;AGUIRRE 2764;635;1653;1662
2;3;61;INSTITUTO ROSARIO V.PEÑALOZA;MARIA PITA 3240;635;1663;1666
2;3;61;ESCUELA EP N°55;BEAZLEY N°1854;635;1667;1676
2;3;61;ESCUELA ES N°1;BEAZLEY 2175;635;1677;1689
2;3;61;ESCUELA EP N°93/ES N°34;SANTA ROSA 204;635;1696;1705
2;3;61;ESCUELA EP N°99/ES N°36;IPIRANGA 2561;635;1706;1717
2;3;61;ESCUELA EP N°174/ES N°161;TERRERO N°1830;635;1718;1726
2;3;61;ESCUELA FRAGATA LIBERTAD;SANTA CRUZ 907;635;1727;1736
2;3;61;ESCUELA EP N°90;SALVIGNY 4197;635;1737;1750
2;3;61;ESCUELA EP N°184;COLEGIALES 2361 ESQ.GAMBOA;635;1827;1840
2;3;61;ESCUELA EP N°191/EE N°520;BLOMBERG Y TITANIC S/N°;635;1751;1764
2;3;61;ESCUELA EP N°14/ES N°138;GRANDVILLE 2040;635;1765;1780
2;3;61;ESCUELA EP N°195;COLEGIALES 2818;635;1781;1786
2;3;61;ESCUELA ES N°26/ES N°36;LANZA Y SUD AMERICA;635;1787;1800
2;3;61;INSTITUTO EDUCATIVO SIGLO XXI;VIRGENES 2755;635;1801;1806
2;3;61;INST.ARGENTINO FAMILIA ESCUELA;VIRGENES 3057;635;1807;1816
2;3;61;ESCUELA EP N°182/ES N°164;C.CORDERO 3656;635;1817;1826
2;3;61;ESCUELA EP N°203/ES N°146;BESARES 4290;635;1851;1862
2;3;61;ESCUELA EP N°196;PEDRO F.RUSSO 1502;635;1632;1641
2;3;61;ESCUELA EP N°201/ES N°137;VTA.DE ROCHA Y ACASSUSO;635;1863;1875
2;3;61;ESCUELA EP N°141/ES N°17;VIRGENES 2728;635;1876;1877
2;3;61;ESCUELA EP N°187;REAÑO 3200;635;1878;1885
2;3;61;ESCUELA ES N°56;EL RESERO Y ALAGON;635;1690;1695
2;3;61;ESCUELA ES N°119;J.NEWBERY 2071;635;1886;1893
2;3;61;ESCUELA EP N°124/ES N°123;AZUL 3535;635A;1894;1907
2;3;61;ESCUELA EP N°41;LIBRES 475;635A;2067;2078
2;3;61;ESCUELA EP N°129;SIMON PEREZ 4486;635A;1908;1920
2;3;61;ESCUELA EP N°128;TUNUYAN 950;635A;1921;1930
2;3;61;ESCUELA ES N°43;BARRIENTOS 4109;635A;1931;1947
2;3;61;COLEGIO SANTO TOMAS DE AQUINO;AV.LASALLE 2650;635A;1948;1956
2;3;61;ESCUELA EP N°127;LEON LARRE 1410;635A;1957;1967
2;3;61;ESCUELA ES N°22;CAXARAVILLE 645;635A;1973;1982
2;3;61;ESCUELA EP N°77;MONTGOLFIER 6720;635A;1983;1991
2;3;61;ESCUELA EP N°95/ES N°67;ACHIRA 6685;635A;1996;2011
2;3;61;ESCUELA EP N°11;MAESTRA CONCEPCION VALLE 498;635A;2012;2022
2;3;61;ESCUELA EP N°40;LLANDERAS 1050;635A;2023;2031
2;3;61;ESCUELA EP N°125/ES N°74;JUAN BUSTOS 5904;635A;2032;2041
2;3;61;COLEGIO HOGAR SAN MAURICIO;LUCIANO TORRENT 1095;635A;2042;2053
2;3;61;ESCUELA EP N°133/ES N°100;ANTEQUERA 4150;635A;2054;2066
2;3;61;INSTITUTO JOSE L.LARRE;CASTAÑARES 4265;635A;2135;2140
2;3;61;ESCUELA EP N°110/ES N°89;COBO 3632;635A;2079;2091
2;3;61;ESCUELA NTRA.SRA.DEL HOGAR;CONDE 5615;635A;2092;2103
2;3;61;INSTITUTO GONZALEZ CATAN;SIMON PEREZ 6053;635A;2141;2143
2;3;61;ESCUELA EP N°178/ES N°173;MANUEL ARIAS 5500;635A;2104;2116
2;3;61;INSTITUTO D.F.SARMIENTO;SENGUEL 7349;635A;2117;2128
2;3;61;ESCUELA RAMON LISTA;J.NEWBERY 5335;635A;2129;2134
2;3;61;ESCUELA EP N°197;ALAGON E/RIGLOS Y CESPEDES S/N;635A;2144;2152
2;3;61;ESCUELA ES N°51;ATALCO 4551;635A;2153;2157
2;3;61;ESCUELA ES N°66;EQUIZA 5296;635A;1968;1972
2;3;61;EXTENSION I ESCUELA ES N°51;ARIAS 4274;635A;1992;1995
2;3;61;ESCUELA EP N°19;MÑOR.LOPEZ MAY 3250;635B;2158;2170
2;3;61;INSTITUTO MADRE LUISA CLARAC;ECHEVERRIA 6009;635B;2171;2178
2;3;61;ESCUELA EP N°75;INCA 2993;635B;2179;2188
2;3;61;ESCUELA EP N°83;SOLDADO SOSA 4697;635B;2189;2197
2;3;61;ESCUELA EP N°84/ES N°150;A.PAREJA 2102;635B;2203;2212
2;3;61;ESCUELA EP N°107/ES N°41;OLEGARIO ANDRADE 6639;635B;2213;2227
2;3;61;COLEGIO CRISTO REY;LOPEZ MAY 3304;635B;2228;2236
2;3;61;ESCUELA EP N°181;TRES CRUCES 5419;635B;2237;2246
2;3;61;ESCUELA PALACIOS;VICTOR MARTINEZ 1955;635B;2247;2255
2;3;61;ESCUELA EP N°68;SANTA ROSA 6300;635B;2256;2265
2;3;61;ESCUELA EP N°156/ES N°159;RAMON FREIRE 2219;635B;2274;2286
2;3;61;ESCUELA EP N°70;JAMACARU 6802;635B;2400;2407
2;3;61;ESCUELA EP N°69;VENTURA BOSCH 2170;635B;2287;2296
2;3;61;ESCUELA EP N°56;REAÑO 6814 B°LA LOM;635B;2297;2308
2;3;61;ESCUELA EP N°167/ES N°103;VICTOR MARTINEZ 1815;635B;2326;2335
2;3;61;ESCUELA EP N°136/ES N°143;CARCARAÑA 5459;635B;2336;2344
2;3;61;ESCUELA ES N°23;STA.CATALINA 5909;635B;2345;2354
2;3;61;ESCUELA ES N°28;J.CRUZ VARELA 4658;635B;2365;2375
2;3;61;ESCUELA EP N°28/ESB N°88;RUTA 3 KM.28 Y EL RESERO;635B;2376;2386
2;3;61;ESCUELA EP N°111/ES N°155;RUIZ DE LOS LLANOS 3608;635B;2387;2399
2;3;61;ESCUELA ES N°16;MAGNASCO 1916;635B;2415;2423
2;3;61;ESCUELA EST N°7;SANTA ROSA 5496;635B;2309;2318
2;3;61;ESCUELA EDUC. MEDIA N° 3;LURO 6669;635B;2408;2414
2;3;61;INSTITUTO ALFONSINA STORNI;MARTIN ZAPATA 6873;635B;2424;2436
2;3;61;ESCUELA ES N°135;ZELADA 2511;635B;2437;2439
2;3;61;ESCUELA EP N°163;DA VINCI 7200;635B;2355;2364
2;3;61;ESCUELA EP N°160/ES N°156;SOBERANIA NACIONAL 3908;635B;2440;2447
2;3;61;ESCUELA EP N°112;SALVIGNY 6100;635B;2266;2270
2;3;61;ESCUELA ES N°144;J.NEWBERY 2966;635B;2319;2325
2;3;61;INSTITUTO ANTONIO MACHADO;JUAN CRUZ VARELA 3088;635B;2448;2454
2;3;61;ESCUELA ES N°158;RUIZ DE LOS LLANOS 2118;635B;2198;2202
2;3;61;JARDIN DE INFANTES N°987;ZELADA Y JAMACURU;635B;2271;2273
2;3;61;ESCUELA EP N°165;ACHUPALLAS 6255;635C;2455;2467
2;3;61;ESCUELA EP N°134/ES N°102;MURGUIONDO 6001;635C;2468;2478
2;3;61;ESCUELA EP N°119;ACHUPALLAS 5891;635C;2479;2486
2;3;61;ESCUELA EP N°121/SB N°125;PAREJA 7053;635C;2487;2495
2;3;61;ESCUELA EP N°46;MÑOR.LOPEZ MAY 2002;635C;2496;2503
2;3;61;ESCUELA EP N°122;LEOPARDI 7239;635C;2509;2519
2;3;61;ESCUELA EP N°31;BALBOA 7028;635C;2532;2543
2;3;61;INSTITUTO JESUS M.PLAZA;BENJAMIN MATIENZO 6255;635C;2544;2549
2;3;61;ESCUELA EST N°14;BARILOCHE 6615;635C;2550;2561
2;3;61;ESCUELA ES N°27;VARELA 6451;635C;2562;2572
2;3;61;ESCUELA ES N°30;SIMON PEREZ Y LAZARO DE VENIALBO;635C;2573;2583
2;3;61;ESCUELA EP N°161/ES N° 30 ANEXO;PUERTO ARGENTINO 7337;635C;2520;2531
2;3;61;ESCUELA EP N°204;DUNGENES 816;635C;2584;2592
2;3;61;ESCUELA ES N°12;BARRAGAN 6774;635C;2593;2602
2;3;61;ESCUELA EP N°105;BARRIENTOS 6711;635C;2504;2508
2;3;61;ESCUELA EP N°130/ES N°116;CAÑUELAS 3074;635D;2611;2618
2;3;61;ESCUELA EP N°76;HORTIGUERA 6981;635D;2619;2626
2;3;61;ESCUELA EP N°148;CIRILO CORREA N° 7108;635D;2627;2636
2;3;61;ESCUELA EP N°145;CONCORDIA N° 7918;635D;2637;2646
2;3;61;ESCUELA EP N°66/ES N°97;EL NARANJO 7220;635D;2647;2660
2;3;61;ESCUELA EP N°88;SAN IGNACIO 5897;635D;2671;2682
2;3;61;ESCUELA EP N°194;ISRAEL Y CAÑUELAS;635D;2683;2695
2;3;61;ESCUELA EP N°202;VILLARROEL 1950;635D;2661;2670
2;3;61;ESCUELA ES N°15;CORREA Y GIRARDOT;635D;2603;2610
2;3;61;INSTITUTO JOSE DE SAN MARTIN;RUTA 3 Y QUERANDIES-KM.42;635D;2709;2712
2;3;61;ESCUELA EP N°210;SOLOM 2218;635D;2696;2703
2;3;61;ESCUELA ES N°73;ESPERANZA 5780;635D;2704;2708
2;3;61;ESCUELA EP N°157;AV.CALIFORNIA N° 8305;635E;2713;2722
2;3;61;ESCUELA EP N°67/ES N°120;MALTA 1562;635E;2723;2734
2;3;61;ESCUELA EP N°103;H.WAST N° 318;635E;2735;2746
2;3;61;ESCUELA EP N°57/ES N°163;J.ESTIVAO Y SAN LUIS;635E;2758;2769
2;3;61;ESCUELA ES N°9;DOMINGO CASTRO 8333;635E;2779;2782
2;3;61;ESCUELA EP N°108;M.GARCIA N° 7997;635E;2783;2792
2;3;61;ESCUELA ES N°50;CURUMALAL 8050;635E;2793;2804
2;3;61;ESCUELA EP N°144/ES N°134;BUERAS N° 8530;635E;2805;2815
2;3;61;ESCUELA EP N°198/ES N°158;CUENCA N° 8071;635E;2816;2826
2;3;61;ESCUELA EP N°208/ES N°168;APENINOS N° 520;635E;2747;2757
2;3;61;ESCUELA ES N°91;MANZANARES 1671;635E;2770;2778
2;3;61;ESCUELA ES N°78;CAÑADA DE GOMEZ 3345;635E;2827;2833
2;3;61;ESCUELA EP N°33/ES N°59;CONDOR 1452;635F;2834;2836
2;3;62;ESCUELA EP N°23;BOLAÑOS 820;259;1;8
2;3;62;SOC.DE FOMENTO VILLA ANGELICA;RCA.DEL LIBANO 363;259;9;10
2;3;62;COLEGIO LA ASUNCION;PTE.SARMIENTO 468;259;11;23
2;3;62;CENTRO DE EDUC. N °11;ONCATIVO 713;259;24;26
2;3;62;JARDIN DE INFANTES N°922;BOLAÑOS 850;259;27;28
2;3;62;ESCUELA EP N°1;EVA PERON 2412;260;29;39
2;3;62;ESCUELA EP N°6/ES N°28;ITUZAINGO 1762;260;47;53
2;3;62;ESCUELA EP N°7;CTE.MAMBERTI 1217;260;57;63
2;3;62;ESCUELA EP N°10/ES N°49;A.FRANCE 1660;260;64;72
2;3;62;ESCUELA EP N°22/ES N°31;RAUL ALFONSIN N° 1758;260;73;83
2;3;62;ESCUELA EP N°18;MADARIAGA 1960;260;84;89
2;3;62;ESCUELA ES N°2;AV.9 DE JULIO 1788;260;96;104
2;3;62;ESCUELA EP N°27;GRAL.FERRE 2180;260;105;112
2;3;62;ESCUELA EP N°58;PERGAMINO Y BOUCHARD;260;113;118
2;3;62;INSTITUTO SANTO CRISTO;PERGAMINO 1749;260;40;46
2;3;62;ESCUELA ES N°3;ITUZAINGO 1769/70;260;90;95
2;3;62;ESCUELA ES N°7;JUNCAL 2436;260;54;56
2;3;62;ESCUELA ES N°22;PERGAMINO Y EVA PERON N°1460;260;119;124
2;3;62;ESCUELA EP N°25/ES N°46;GRAL.PICO 2002;261;125;135
2;3;62;ESCUELA EP N°62;PICHINCHA N° 3821;261;136;144
2;3;62;ESCUELA EP N°53;MAURE 3360;261;145;156
2;3;62;ESCUELA EP N°34/ESB N°45;EVA PERON 3800;261;167;177
2;3;62;ESCUELA EDUC.ESPECIAL N°507;TUCUMAN 3750;261;178;182
2;3;62;ESCUELA CRISTO REY;LUJAN 1538;261;183;186
2;3;62;COLEGIO JACARANDA;GRAL.PICO 537;261;187;192
2;3;62;ESCUELA EP N°33;PASAJE ROSSI N°3909;261;193;194
2;3;62;ESCUELA EP N°50/ES N°32;POSADAS 319;261;195;202
2;3;62;COLEGIO DEL MONTE;9 DE JULIO 3831;261;209;213
2;3;62;ESCUELA ES N°20;BURELAS 3353;261;157;166
2;3;62;ESC.BENITO QUINQUELA MARTIN;HEROES DE MALVINAS 1938;261;214;219
2;3;62;ESCUELA ES N°36;BVARD.DE LOS ITALIANOS 1140;261;203;208
2;3;62;ESCUELA MEDALLA MILAGROSA;ROMA 4250;262;220;225
2;3;62;INSTITUTO DEL ESP.SANTO(EP/ES);ACHAVAL 3670;262;226;232
2;3;62;ESCUELA EP N°66;CONDARCO 2332;262;233;242
2;3;62;ESCUELA EP N°52;CNEL.PRINGLES 4200;262;243;248
2;3;62;ESCUELA EP N°46/ES N°40;BOUCHARD 4491;262;249;259
2;3;62;ESCUELA EP N°63/ES N°42;YAPEYU 1155;262;260;275
2;3;62;ESCUELA EP N°37;DR. KLOOSTERMAN 1757;262;276;286
2;3;62;INSTITUTO 9 DE JULIO;CAVIA 2041;262;287;294
2;3;62;J.DE INF.N.S.DE LA CONSOLACION;RONDEAU 509;262;295;298
2;3;62;ESCUELA EP N°30/ES N°5;AGUAPEY 3864;262;299;310
2;3;62;SOC.DE FOMENTO SANTA MARIA;VICTOR HUGO 440;262;311;317
2;3;62;CLUB MONTE CHINGOLO;CHORROARIN 1600;262;377;378
2;3;62;SOC.DE FOM.VILLA GRAL.URQUIZA;MAURE 4307;262;318;321
2;3;62;JARDIN DE INFANTES N°917;CENT.URUGUAYO 2800- MZ.19;262;322;324
2;3;62;ESCUELA EP N°39/ES N°37;BUERAS 4800;262;325;338
2;3;62;CTRO.EDUC.COMPLEMENTARIO N°801;DE LA PEÑA 3257;262;343;346
2;3;62;ESCUELA ES N°5;AGUAPEY 3864;262;347;354
2;3;62;ESCUELA EDUC.ESPECIAL N°508;GRAL. PINTO N°4761;262;358;362
2;3;62;SOC.DE FOMENTO M.M.GUEMES;MARGARITA WEILD 5309;262;355;357
2;3;62;ESCUELA ES N°11;CAZON N° 1936;262;363;374
2;3;62;JARDIN DE INFANTES N°928;MAURE 4562;262;375;376
2;3;62;SOC.DE FOMENTO VILLA UNION;BVARD.DE LOS ITALIANOS 2452;262;379;382
2;3;62;ESCUELA ES N°54;CNEL.PRINGLES 4290;262;339;342
2;3;62;COLEGIO GUSTAVO ADOLFO BECQUER;BERON DE ASTRADA 4323;262;383;387
2;3;62;ESCUELA EP N°36;VILLA DE LUJAN 2389;263;388;393
2;3;62;ESCUELA EST N°5;GRAL.ARIAS 1751;263;394;399
2;3;62;ESCUELA EP N°24;SUIPACHA 3098;263;400;405
2;3;62;ESCUELA EST N°3;ACEVEDO 2778;263;406;410
2;3;62;ESCUELA EP N°42/ES N°45;ROMA 2757;263;411;420
2;3;62;ESCUELA ES N°8;ARIAS 1935;263;421;434
2;3;62;INST.MODERNO DE EDUC.INTEGRAL;H.YRIGOYEN 5302;263;435;439
2;3;62;ESCUELA EST N°6;AV.H.YRIGOYEN 5982;263;440;447
2;3;62;ESCUELA EP N°16;DR.MELO 4453;264;448;456
2;3;62;SOC.FOMENT.Y CULT.J.J.ALBERDI;DR.MELO 3951;264;457;460
2;3;62;INSTITUTO SAN AGUSTIN;AV.ROSALES 1036;264;461;465
2;3;62;ESCUELA CHARLES CHAPLIN;CNEL. BELTRAN 319;264;466;469
2;3;62;ESCUELA EP N°44;CASTRO 644;265;470;479
2;3;62;ESCUELA EP N°45;M.AVELLANEDA 1253;265;480;485
2;3;62;ESCUELA ES N°39/EP N°40;VILLEGAS 363;265;486;496
2;3;62;ESCUELA EP N°43;DON ORIONE 1251;265;503;511
2;3;62;ESCUELA EP N°74/ES N°63;LOS PATOS 4140;265;512;520
2;3;62;INSTITUTO SAN AGUSTIN(ES);PASTOR FERREYRA 3339;265;521;527
2;3;62;ESC.ES N°10 HEROES DE MALVINAS;AV.ROSALES 1132;265;535;543
2;3;62;ESCUELA ES N°44;3 DE FEBRERO 4127;265;497;502
2;3;62;ESCUELA ES N°27;TIMOTE 3859;265;528;534
2;3;62;ESCUELA EP N°8/ESB N°29;BOUCHARD 370;271;544;553
2;3;62;ESCUELA EP N°21;COLOMBIA 1153;271;554;562
2;3;62;ESCUELA EP N°38;JEAN JAURES 1502;271;563;571
2;3;62;ESCUELA EST N°8;JEAN JAURES 749;271;572;579
2;3;62;JARDIN DE INFANTES N°910;ALFREDO PALACIOS 711;271;580;581
2;3;62;ESCUELA EP N°20/ES N°1;JOSE I.RUCCI 958;272;582;590
2;3;62;ESCUELA EP N°3/EST N°2;PERON 3018;272;591;599
2;3;62;ESCUELA EP N°13/ES N°33;R.DE ESCALADA 4231;272;605;612
2;3;62;ESCUELA EP N°4/ES N°30;UCRANIA 815;272;613;624
2;3;62;ESCUELA PRIV. CULTURAL ARMENIA;CHOELE CHOEL 555;272;625;627
2;3;62;INSTITUTO SAN JUAN BAUTISTA;JUAN D.PERON 2998;272;628;630
2;3;62;ESCUELA EP N°2;RIVADAVIA 151;272;600;604
2;3;62;ESCUELA ES N°9;CNEL.EREZCANO 3240;273;631;638
2;3;62;ESCUELA EP N°67/ES N°33 ANEXO;MADERO 1650;273;639;643
2;3;62;ESCUELA EP N°57/ESB N°21;MOLINEDO 1900;273;769;780
2;3;62;ESCUELA EP N°70;MURGUIONDO 2221;273;647;653
2;3;62;ESCUELA EP N°60/ES N°5 ALMAFUERTE;MOLINEDO 3200;273;654;663
2;3;62;INST.PIZZURNO DE ENS.INTEGRAL;WARNES 3178;273;664;668
2;3;62;ESCUELA ES N°6;WARNES 3493;273;669;677
2;3;62;ESCUELA EP N°64/ES N°61;FARREL 3334;273;678;687
2;3;62;ESCUELA EP N°5;RIVADAVIA 1847;273;688;694
2;3;62;COLEGIO SAN MIGUEL ARCANGEL;MOLINEDO 2406;273;695;698
2;3;62;ESCUELA ES N°12;LINIERS 3225;273;699;709
2;3;62;ESCUELA SAGRADO CORAZON ALCAL;WARNES 3870;273;781;783
2;3;62;ESCUELA EP N°49;J.M.MORENO 2608;273;714;720
2;3;62;ESCUELA EP N°72/ESB N°62;POTOSI 2651;273;724;728
2;3;62;ESCUELA EST N°4;J.M.MORENO 2660;273;729;738
2;3;62;ESCUELA EP N°59/ESB N°58;YATAY 2850;273;743;749
2;3;62;ESCUELA EP N°77/ESB N°25;VILLEGAS 4551;273;750;761
2;3;62;COLEGIO ALEMAN DE LANUS (EP);M.MAZA 2650;273;721;723
2;3;62;JARDIN DE INFANTES N°921;SAN VLADIMIRO 5462;273;766;768
2;3;62;JARDIN DE INFANTES N°926;E.MADERO 1654;273;787;790
2;3;62;INSTITUTO MARIANO MORENO;MURGUIONDO 3237;273;762;765
2;3;62;COLEGIO ALEMAN DE LANUS (ES);GDOR.OLIDEN 2444;273;784;786
2;3;62;"ESCUELA ESPEC.""SAN FRANCISCO""";WARNES 3966;273;710;713
2;3;62;INST.SAGRADO CORAZON ALCAL;POTOSI 2055;273;644;646
2;3;62;ESCUELA ES N°23;AV RIVADAVIA N°1847;273;739;742
2;3;62;ESCUELA EP N°54/ES N°29;SANTIAGO PLAUL 1832;274;791;799
2;3;62;ESCUELA EP N°12/ES N°52;R.DE ESCALADA 1480;274;800;809
2;3;62;CENTRO EDUCATIVO JUANA MANSO;CORONEL D'ELIA 1369;274;893;897
2;3;62;ESCUELA EP N°48/ES N°34;J.L.SUAREZ 3942;274;810;820
2;3;62;ESCUELA SANTA FAZ;E.FERNANDEZ 1960;274;821;827
2;3;62;COLEGIO DEL CASTILLO;YERBAL 4321;274;828;831
2;3;62;ESCUELA EP N°56;1° DE MAYO 3640;274;844;854
2;3;62;ESCUELA EP N°35;1° DE MAYO 4171;274;857;866
2;3;62;COLEGIO JUAN XXIII;HERNANDARIAS 3970;274;879;884
2;3;62;ESCUELA EP N°32;PILCOMAYO ESQ WARNES N° 2591;274;885;892
2;3;62;ESCUELA EP N°26;DEAN FUNES 4436;274;901;908
2;3;62;INSTITUTO MAGDALENA ABRAIN(EP);CASTRO 3327;274;875;878
2;3;62;INSTITUTO REMEDIOS DE ESCALADA;PILCOMAYO 3967;274;909;913
2;3;62;CTRO.EDUC.COMPLEMENTARIO N°802;J.L.SUAREZ 3988;274;898;900
2;3;62;ESCUELA ES N°18;TAGLE 3868;274;867;874
2;3;62;ESCUELA ES N°19;CANADA 3947;274;832;839
2;3;62;ESCUELA ES N°25;GRAL.HORNOS 3979;274;914;916
2;3;62;INST.DE FORMAC.DOC. I.A.P.E;TACUARI 2255;274;855;856
2;3;62;CENTRO EDUC.N°10;MURATURE 4136;274;840;843
2;3;62;ESCUELA EP N°41;MÑOR.J.HLADNIK 3949;275;917;920
2;3;62;ESCUELA EP N°9;H.YRIGOYEN 5005;275;921;926
2;3;62;ESCUELA EP N°17/ES N°35;MSTRO.BRIN 3024;275;927;938
2;3;62;COLEGIO NTRA.SRA.DE FATIMA;HNA.MARIA O.ZALOZNIK 3572;275;942;947
2;3;62;ESCUELA EP N°55/ESB N°56;DERQUI 1665;275;948;956
2;3;62;ESCUELA EP N°28/ES N°41;CARLOS GARDEL 1011;275;957;962
2;3;62;ESCUELA EP N°31/EES N°43;ANDRADE 740;275;963;970
2;3;62;COLEGIO MARIA REINA(EP/ES);HERNANDARIAS 2530;275;971;981
2;3;62;INST.SAN FRANCISCO DE ASIS;LITUANIA 3144;275;982;990
2;3;62;INST. G.N.S. DE LOURDES(EP/ES);G.SPANO N° 1038;275;991;994
2;3;62;ESCUELA ES N°21;MÑOR.HLADNIK 3850;275;939;941
2;3;62;ESCUELA EP N°11/ESB N°31;A.DEL VALLE 1503;276;995;1004
2;3;62;ESCUELA EP N°15;M.PAZ 702;276;1005;1010
2;3;62;ESCUELA EP N°19/ES N°48;C.TEJEDOR 1091;276;1011;1020
2;3;62;ESCUELA EP N°29/ES N°16 ANEXO;RAMOS N° 64;276;1021;1026
2;3;62;ESCUELA EP N°69;MINISTRO BRIN 2475;276;1027;1035
2;3;62;ESCUELA ES N°4;20 DE SETIEMBRE 2432;276;1078;1081
2;3;62;INST.INMACULADA CONCEPCION;H.YRIGOYEN 4355;276;1059;1065
2;3;62;COLEGIO JOSE M.ESTRADA;JUAN PIÑEIRO 441;276;1066;1072
2;3;62;COLEGIO ECCLESTON;25 DE MAYO 793;276;1076;1077
2;3;62;JARDIN DE INFANTES J.M.ESTRADA;JUAN PIÑEIRO 433;276;1044;1046
2;3;62;ESCUELA RECONOC.SANTA TERESA;DR.MELO 2763;276;1073;1075
2;3;62;ESCUELA EP N°14;F.J.LAGOS 2113;276;1036;1043
2;3;62;ESCUELA ES N°16/EP N°15;MAXIMO PAZ 750;276;1050;1058
2;3;62;ESCUELA EM N°15/ESB N°6;J.V.GONZALEZ 2875;276;1047;1049
2;3;69;ESCUELA EST N°1;CARDONER 951;574;1;9
2;3;69;ESCUELA EP N°37;ALBERDI Y LIBERTAD;574;14;23
2;3;69;COLEGIO FASTA NIÑO JESUS;PTE.PERON 235;574;24;29
2;3;69;ESCUELA EP N°6;PRESIDENTE PERON N° 600;574;30;36
2;3;69;ESCUELA EP N°11/ESB N°4;BALCARCE Y SOLDADO AZCARATE;574;37;42
2;3;69;ESCUELA ES N°1;LIBERTAD 150;574;43;51
2;3;69;ESCUELA EP N°1/ESB N°6;RIVADAVIA E IRIART S/N°;574;52;60
2;3;69;INST.PRESBITERO JOSE ALBERTINI;CARDONER N° 1653;574;61;68
2;3;69;ESCUELA EP N°9/ES N°4;H.YRIGOYEN 1405;574;10;13
2;3;69;ESCUELA EP N°2;AV.ZAPIOLA 120;575;69;76
2;3;69;ESCUELA EP N°19;E.CASTRO Y 124;575;77;80
2;3;69;ESCUELA EP N°14;RT.PCIAL.41 KM.181;576;81;82
2;3;69;ESCUELA EP N°13;CNO.MUNICIPAL A AREVALO;576A;83;83
2;3;69;ESCUELA EP N°15;8 Y 7 S/N;577;84;85
2;3;69;ESCUELA EP N°21/ES N°2;AVDA. G.TOPA 138;578;86;88
2;3;69;JARDIN DE INFANTES N°908;7 N°163;579;89;90
2;3;69;ESCUELA EP N°17;CUARTEL 8°;580;91;91
2;3;69;ESCUELA EP N°8/ES N°3;CUARTEL 9°;581;92;93
2;3;70;CTRO.EDUC.COMPLEMENTARIO N°801;LAS HERAS 2203;583;1;4
2;3;70;ESCUELA EP N°5;CASTELLI 1710;583;5;13
2;3;70;ESCUELA EST N°8;PIO BAROJA Y QUESADA;583;25;35
2;3;70;ESCUELA EP N°76/ES N°40;L.SICILIANO 1551;583;36;45
2;3;70;ESCUELA ES N°11/EP N°79;AZAMOR 297;583;46;55
2;3;70;ESCUELA EP N°18/ES N°342;RAWSON Y ESPRONCEDA;583;64;73
2;3;70;ESCUELA EP N°68;LA HAYA 2195;583;74;83
2;3;70;ESCUELA EP N°39/ES N°36;CARAZA 1760;583;84;94
2;3;70;ESCUELA EP N°77;BUCAREST 1780;583;95;103
2;3;70;ESCUELA EP N°12/ESB N°374;QUESADA 2610;583;104;114
2;3;70;INSTITUTO GRAL.SAN MARTIN;EJERCITO DE LOS ANDES 648;583;121;130
2;3;70;ESCUELA EP N°81;CELINA L.DE MINETTO 1455;583;140;151
2;3;70;ESCUELA EP N°84/ES N°74;NUÑEZ DE ARCE 1296;583;152;165
2;3;70;ESCUELA EP N°63/ES N°67;CAMPANA 360;583;166;177
2;3;70;ESCUELA EP N°70/ES N°361;G.MIRO 944;583;178;189
2;3;70;COLEGIO SIDNEY SOWELL;MURATURE 756;583;190;195
2;3;70;ESCUELA EP N°82/ES N°24;R.PALMA 2351;583;196;205
2;3;70;ESCUELA SAN JOSE DE VA.URBANA;CAMPANA 1230;583;214;223
2;3;70;ESCUELA EP N°58/ES N°76;CAMPOAMOR 2890;583;230;241
2;3;70;ESCUELA EP N°62/ES N°48;BELLO 2763;583;242;250
2;3;70;ESCUELA EP N°88/ES N°30;BUCAREST Y CAMPOAMOR;583;259;268
2;3;70;ESCUELA EP N°43/ES N°9;QUESADA 2672;583;439;452
2;3;70;ESCUELA EP N°86/ES N°73;PILAR 120;583;269;278
2;3;70;ESCUELA EP N°57;ESPRONCEDA 297;583;279;287
2;3;70;ESCUELA EP N°41/ES N°55;V.BARBIERI 1605;583;288;296
2;3;70;ESCUELA CABRINI DE VA.AMELIA;LABARDEN 2472;583;297;305
2;3;70;CTRO.EDUC.COMPLEMENTARIO N°804;MACHADO 2546;583;453;459
2;3;70;ESCUELA EP N°85;PEREZ GALDOS 1998;583;306;318
2;3;70;ESCUELA EP N°67;PIO BAROJA 2098;583;319;328
2;3;70;ESCUELA EP N°87/ES N°72;VUCETICH 4834;583;342;354
2;3;70;ESCUELA EP N°93;CIPOLLETI 2202;583;355;363
2;3;70;ESCUELA ES N°22;G.MIRO N°2480;583;364;372
2;3;70;INST.TECNICO NTRA.SRA.DE ITATI;FILARDI 830;583;464;470
2;3;70;ESCUELA EP N°19;G.MISTRAL 312;583;373;380
2;3;70;ESCUELA ES N°26;R.PALMA 195;583;381;394
2;3;70;ESCUELA EP N°46/ES N°33;HOMERO Y CAFAYATE;583;404;417
2;3;70;ESCUELA EP N°53/ES N°46;LAS TROPAS Y VERNET;583;14;24
2;3;70;ESCUELA DR.FRANCISCO J.MUÑIZ;NECOL 2306;583;460;463
2;3;70;COLEGIO BARTOLOME MITRE(EP/ES);MARSELLA 1246;583;418;429
2;3;70;INST.DR.ENRIQUE ROMERO BREST;AYOLAS 1978;583;395;403
2;3;70;ESCUELA EP N°94/ES N°388;J.F.QUIROGA 1370;583;471;478
2;3;70;CTRO.EDUC.COMPLEMENTARIO N°805;LARRAZABAL Y AZAMOR;583;514;517
2;3;70;ESCUELA EP N°90/ES N°22 ANEXO;G.MIRO 2450;583;329;341
2;3;70;ESCUELA EP N°98/ES N°389;LARRAZABAL 2879;583;504;513
2;3;70;ESCUELA ES N°9;QUESADA 2690;583;518;524
2;3;70;ESCUELA EP N°95/ES N°33 ANEXO;HOMERO 3870;583;430;438
2;3;70;ESCUELA EP N°89/ES N°70;A.MAGALDI N°3954;583;479;491
2;3;70;INSTITUTO MARIO MADEDDU;ALFREDO PALACIOS 1776;583;115;120
2;3;70;COLEGIO NTRA.SRA.DE COPACABANA;BARCELONA 1957;583;224;229
2;3;70;ESCUELA EP N°97/ES N°50;VERNET N° 281;583;492;503
2;3;70;ESC.EDUC.MEDIA N°4/ESB N°352;LARROQUE 2175;583;56;63
2;3;70;ESCUELA EP N°83/ES N°49;ORAN 599;583;206;213
2;3;70;ESCUELA EP N°64/ES N°78;FIGUEREDO 1525;583;251;258
2;3;70;ESCUELA ES N°56;AYOLAS 1135;583;131;139
2;3;70;ESCUELA EP N°49;LARROQUE 1231;584;525;533
2;3;70;ESCUELA EP N°33/ES N°53;MENTRUYT 1825;584;534;543
2;3;70;ESCUELA EP N°31;AV.YRIGOYEN 7672;584;544;548
2;3;70;COLEGIO BALMORAL LTDA.;M.CASTRO 1536;584;549;557
2;3;70;ESCUELA ES N°21/EP N°91;MANUEL CASTRO 990;584;565;572
2;3;70;ESCUELA EST N°7;ACEVEDO 1864;584;573;579
2;3;70;INSTITUTO MODELO BANFIELD;H.YRIGOYEN 7897;584;558;564
2;3;70;INSTITUTO NTRA.SRA.DE LOURDES;VIAMONTE 1624;585;580;589
2;3;70;ESCUELA ES N°6;VIAMONTE 1567;585;600;609
2;3;70;ESCUELA EP N°10/ES N°6 ANEXO;PUEYRREDON 1840;585;590;599
2;3;70;COLEGIO INMACULADA CONCEPCION;BOEDO 265;586;610;619
2;3;70;ESCUELA EP N°1/ES N°7;SAENZ 450;586;620;629
2;3;70;ESCUELA EP N°14/ES N°59;CASTELLI 816;586;638;647
2;3;70;INST.PBRO.DR.ANTONIO SAENZ;AZARA 368;586;648;655
2;3;70;ESCUELA EST N°1;MANUEL CASTRO 161;586;630;637
2;3;70;ESCUELA EP N°38;CHOPIN N°350;587;656;661
2;3;70;ESCUELA EDUC.ESPECIAL N°502;GARIBALDI 253;587;900;907
2;3;70;ASOCIACION CULTURAL BARKER;BARTOLOME MITRE 131;587;667;678
2;3;70;ESCUELA EP N°51/ES N°62;MUZZILLI 163;587;679;687
2;3;70;ESCUELA EP N°27/ES N°60;LAPRIDA 1650;587;688;697
2;3;70;ESCUELA EP N°8/ES N°80;PIAGGIO N°402/406 Y GARONA;587;698;707
2;3;70;ESCUELA EP N°9/EE N°507;AV.YRIGOYEN 9243;587;708;716
2;3;70;ESCUELA EP N°26;LOS ROBLES 108;587;717;727
2;3;70;ESCUELA EP N°11/ES N°31;OLMOS 530;587;884;888
2;3;70;INST.TECNOLOGICO SAN BONIFACIO;SIRITTO 370;587;737;746
2;3;70;ESCUELA EP N°48;L.DE LA TORRE 2264;587;747;752
2;3;70;ESCUELA EP N°59/ES N°38;CHAMPALANE 2608;587;753;762
2;3;70;ESCUELA ES N°13;AV.H.YRIGOYEN 9428;587;763;768
2;3;70;INSTITUTO LOMAS DE ZAMORA;AV.MEEKS 654;587;769;778
2;3;70;ESCUELA ES N°23;FLORENCIO SANCHEZ 1270;587;779;783
2;3;70;ESCUELA ES N°10;LOS PALOS BORRACHOS 185;587;788;796
2;3;70;COLEGIO JOSE HERNANDEZ;LAPRIDA 2380;587;797;804
2;3;70;SAN ALBANO SCHOOL;RAMON L.FALCON 250;587;805;813
2;3;70;COLEGIO CORAZON INMAC.DE MARIA;13 857;587;814;825
2;3;70;INST.TECNICO EMILIO LAMARCA;ROSSI 2591;587;826;830
2;3;70;INSTITUTO BARKER (ES);AV.MEEKS 441;587;831;838
2;3;70;ESCUELA EP N°29/ES N°80;MOLINA ARROTEA 1505;587;849;860
2;3;70;ESCUELA ES N°39/EP N°65;VOLTAIRE 1660;587;861;873
2;3;70;COLEG.SEC.EVAN.PRINCIPE DE PAZ;GORRITI 665/7;587;662;666
2;3;70;COLEGIO SUPERIOR DE LOMAS;ITALIA 470;587;728;730
2;3;70;COLEGIO MODELO PARQUE BARON;POTOSI 45;587;889;895
2;3;70;ESCUELA EP N°60/ES N°23 ANEXO;CID GUIDY DE FRANCE 2520;587;839;848
2;3;70;ESCUELA ES N°23 ANEXO 1;LOPE DE VEGA 1483;587;896;899
2;3;70;COLEGIO SAN ALBERTO MAGNO;ALFONSINA STORNI 2430;587;731;736
2;3;70;INSTITUTO PCIA.DE SAN JUAN;AV.JUAN XXIII 2664;587;908;910
2;3;70;INSTITUTO PTE.MANUEL QUINTANA;BRUNO TAVANO 1835;587;874;883
2;3;70;JARDIN DE INFANTES N°937;BUSTOS N°890;587;911;913
2;3;70;ESC.MUNICIPAL ARTES VISUALES;MÑOR.PIAGGIO 168;587;784;787
2;3;70;ESCUELA EP N°20/ES N°63;VIAMONTE 423;588;914;922
2;3;70;INSTITUTO NTRA.SRA.DEL CARMEN;FONROUGE 855;588;923;926
2;3;70;ESCUELA EP N°13/ES N°68;ALTE.BROWN 2153;588;927;938
2;3;70;COLEGIO MODELO LOMAS;BELGRANO 55;588;939;941
2;3;70;COLEGIO COLINAS VERDES;PIROVANO 271;588;942;945
2;3;70;ESCUELA EP N°24/ES N°79;QUINTANA 266;589;946;955
2;3;70;ESCUELA EP N°28;BOULOGNE SUR MER 240;589;964;968
2;3;70;ESCUELA EP N°73/ES N°327;CAMPOS 145;589;969;981
2;3;70;ESCUELA EP N°30;MIGUEL CANE 1264;589;982;990
2;3;70;ESCUELA EP N°17/ES N°310;MEJICO Y BARILARI;589;993;1001
2;3;70;INSTITUTO SAN MIGUEL;BARILARI 3346;589;991;992
2;3;70;CTRO.EDUC.COMPLEMENTARIO N°803;MEXICO 163;589;956;963
2;3;70;INSTITUTO SAN JUAN DE LA CRUZ;PINTOS 1450;589;1002;1004
2;3;70;ESCUELA EP N°36/ES N°42;A.GALLARDO 170;590;1005;1015
2;3;70;ESCUELA EP N°40/ES N°44;PERITO MORENO 260;590;1035;1045
2;3;70;ESCUELA ES N°14;FRAY J.STA.MARIA DE ORO N°44 44;590;1022;1034
2;3;70;ESCUELA EP N°2/ES N°305;ALBARRACIN 911;590;1046;1057
2;3;70;ESCUELA EP N°45/ES N°350;ALLEMANDRI 1501;590;1058;1067
2;3;70;COLEGIO ECLESTON;ALMIRANTE BROWN 3342;590;1085;1088
2;3;70;ESCUELA EP N°69/ES N°57;B.DE IRIGOYEN 750;590;1089;1098
2;3;70;ESCUELA EP N°32/ES N°390;I.GOMEZ 502;590;1099;1107
2;3;70;ESCUELA EP N°47/ ES N°66;EL ZORZAL N° 2093;590;1068;1080
2;3;70;ESCUELA SOLES DE EDUC.ESPECIAL;MALVINAS ARGENTINAS 1154;590;1081;1084
2;3;70;COLEGIO TOMAS JEFFERSON (EP);TARIJA 1850;590;1016;1021
2;3;70;ESCUELA EP N°52;DE HEREDIA N°250;590A;1108;1117
2;3;70;ESCUELA EP N°61;AV EVA PERON N° 4687;590A;1122;1133
2;3;70;ESCUELA EP N°78;MOCTECZUMA 400;590A;1134;1145
2;3;70;COLEGIO SANTA MARIA GORETTI;ARMESTI 2969;590A;1146;1151
2;3;70;ESCUELA EP N°80/ES N°47;EL HORNERO N°4975;590A;1152;1160
2;3;70;ESCUELA EP N°56;EL TORDO 233;590A;1161;1172
2;3;70;ESCUELA EP N°50/ES N°28;EL TREBOL 3785;590A;1173;1180
2;3;70;ESCUELA EP N°54/ES N°54;LA MADRESELVA N°2250;590A;1181;1190
2;3;70;ESCUELA EP N°25/ESB N°382;EL ZORZAL 2793;590A;1191;1196
2;3;70;COLEGIO ASUNCION DE MARIA;LUIS AGOTE 33;590A;1197;1201
2;3;70;ESCUELA ES N°15;PIO COLLIVADINO N°267;590A;1202;1211
2;3;70;ESCUELA EST N°3;EL TORDO 459;590A;1212;1221
2;3;70;COLEGIO SANTA ROSA;ACHERAL 36;590A;1222;1230
2;3;70;ESCUELA ES N°75;LA CALANDRIA 4654;590A;1118;1121
2;3;70;COLEGIO TEMPERLEY;AV.FERNANDEZ 27;591;1231;1238
2;3;70;COLEGIO WILLIAMS SHAKESPEARE;LAVALLE 109;591;1239;1242
2;3;70;COLEGIO NTRA.SRA.DEL HUERTO;9 DE JULIO 82;591;1243;1250
2;3;70;ESCUELA EP N°3;AV.YRIGOYEN 10361;591;1251;1258
2;3;70;ESCUELA EP N°6/ES N°65;GARIBALDI 1298;591;1259;1266
2;3;70;COLEGIO SARMIENTO;M.MORENO E/BRANDSEN Y SUAREZ;591;1267;1269
2;3;70;ESCUELA EST N°2;LAVALLE 801;591;1270;1274
2;3;70;ESCUELA EP N°72/ES N°41;AV.YRIGOYEN 11518;592;1285;1290
2;3;70;COLEGIO SANTA INES;AV H YRIGOYEN 11660;592;1291;1295
2;3;70;INSTITUTO VICENTE PALLOTTI;ZAPIOLA 550;592;1280;1284
2;3;70;ESCUELA EP N°22/ES N°41 ANEXO;SANTA TERESA 90;592;1275;1279
2;3;70;ESCUELA EP N°4;A.ARGENTINA Y SANTA CATALINA;593;1296;1301
2;3;70;INSTITUTO EUSKAL-ECHEA;ANTARTIDA ARGENTINA 1910;593;1308;1317
2;3;70;ESCUELA EP N°34;DR MELBER 2050;593;1318;1325
2;3;70;ESCUELA EST N°4;ANTARTIDA ARGENTINA 2750;593;1326;1336
2;3;70;ESCUELA EP N°66/EM N°2 ANEXO;MERCEDES N°110;593;1337;1343
2;3;70;ESCUELA EP N°74;PAREJA Y SANTOS VEGA;593;1344;1349
2;3;70;ESCUELA ES N°2;ALAZAN Y STOS.VEGA;593;1302;1307
2;3;70;ESCUELA ES N°372/EP N°23;DR MELBER 2070;593;1350;1357
2;3;70;ESCUELA EP N°71/ES N°58;9 DE FEBRERO 390;593A;1358;1363
2;3;70;ESCUELA EP N°55;DE LA PEÑA 654;593A;1364;1368
2;3;70;ESCUELA EP N°42;ARAGON 950;593A;1369;1374
2;3;70;COLEGIO SAN FRANCISCO DE ASIS;MOLDES Y AGRELO;593A;1375;1381
2;3;70;COLEGIO LA MILAGROSA;CNEL.MOLDES 620;593A;1382;1386
2;3;70;COLEGIO PRIMARIO AGAPITO OTERO;FRIEDRICHS N°183;593A;1387;1390
2;3;72;ESCUELA EP N°16/ES N°9;BVARD.BME.BAVIO S/N°;604;5;8
2;3;72;ESCUELA ES N°6;CASTELLI ESQ. LIBERTAD;604;1;4
2;3;72;ESCUELA EP N°6/ES N°5;AV.MITRE E/BORZAMI Y TERRAROSA;605;9;11
2;3;72;ESCUELA ES N°1;GOENAGA ESQ.VIEDMA;606;12;17
2;3;72;ESCUELA EP N°12;CASTELLI 1290;606;18;23
2;3;72;INST.DE FORMAC.DOC.Y TEC.N°58;BRENAN Y J.D.PERON S/N°;606;24;29
2;3;72;ESC.RECONOCIDA SAGRADA FAMILIA(EP/ES);GOENAGA 775;606;36;41
2;3;72;ESCUELA EST N°1;BRENAN 1511;606;30;35
2;3;72;ESCUELA EP N°10;S/C S/N°;607;42;42
2;3;72;ESCUELA EP N°24;FLIA MONTES DE OCA S/N°;608;43;43
2;3;72;ESCUELA EP N°11/ES N°3;20 E/31 Y 33;609;44;45
2;3;72;ESCUELA EP N°26;RUTA 20 Y CAMINO RURAL;610;46;46
2;3;128;ESCUELA EP N°2/ES N°310;AV. CENTENARIO 339;304;1;10
2;3;128;ESCUELA EP N°8;106 N°39;304;15;24
2;3;128;ESCUELA EP N°7;SANTA ELENA 603;304;30;38
2;3;128;ESCUELA MEDIA N°2;CATAMARCA 223;304;41;50
2;3;128;JARDIN DE INFANTES N°913;LUIS TESTA 498;304;39;40
2;3;128;JARDIN DE INFANTES N°915;SANTA FE 304;304;25;26
2;3;128;JARDIN DE INFANTES N°912;FCO. BAÑO Y CATAMARCA S/N;304;11;14
2;3;128;JARDIN DE INFANTES N°903;L.N.ALEM 390;304;27;29
2;3;128;ESCUELA ESB N°4;E.PARADA E/97 Y AZURDUY;304;51;52
2;3;128;ESCUELA EP N°3;L.N.ALEM 1848;304A;53;64
2;3;128;ESCUELA EP N°11;117 N°455;304A;93;102
2;3;128;ESCUELA DE EDUC.ESPECIAL N°501;133 N°471;304A;103;108
2;3;128;ESCUELA ES N°1;EVA PERON 1403;304A;109;116
2;3;128;ESCUELA EST N°1;35 N° 1021;304A;86;92
2;3;128;COLEGIO MARTHA SALLOTTI(EP/ES);LEONOR C.VIVANO DE ALONSO 1881;304A;82;85
2;3;128;ESCUELA EP N°1;MARIA C.GONZALEZ DEL CORRAL 580;304A;72;81
2;3;128;ESCUELA EP N°13/ES N°8;126 N°2397;304A;117;122
2;3;128;ESCUELA ES N°311;NAVARRO 1789;304A;123;127
2;3;128;ESCUELA ES N°3;19 N°757;304A;65;71
2;3;128;ESCUELA EP N°6/ES N°302;38 BIS N°545;304B;128;136
2;3;128;ESCUELA EP N°10;GODOY CRUZ 800 Y R.DE ESCALADA;304B;137;146
2;3;128;ESCUELA EP N°9;MEXICO 2330;304B;150;156
2;3;128;JARDIN DE INFANTES N°914;PLACIDO BAJO 844;304B;157;160
2;3;128;ESCUELA ESB N°5;PARAMARIBO 199;304B;147;149
2;3;128;ESCUELA ESB N°6;R.DE ESCALADA Y GODOY CRUZ;304B;161;164
2;3;128;ESCUELA EP N°12;DISCEPOLO 4037;304C;165;169
2;3;128;ESCUELA ES N°12;FILIBERTO S/N;304C;170;174
2;3;131;ESCUELA EP N°1/ES N°5;RUTA 20-PARAJE LA VIRUTA;611;1;1
2;3;131;ESCUELA EP N°3;FRENTE ESTACION;612;2;2
2;3;131;ESCUELA EP N°6;27 N°1631;613;3;12
2;3;131;ESCUELA EP N°12/ES N°4;30 E/39 Y DIAG.49-B°LA MARCONI;613;13;19
2;3;131;ESCUELA ES N°2;31 Y CIRCUNV.12;613;20;23
2;3;131;ESCUELA EP N°4/ES N°1;11 E/ 6 Y 8;613A;24;26
2;3;131;ESCUELA EP N°8/ES N°3;RUTA 11 Y BALCARCE;613B;27;28
2;3;92;ESCUELA EP N°7/ES N°31;ALBERDI 130;783;1;9
2;3;92;COLEGIO NAZARETH;GRAL.CONESA 406;783;10;13
2;3;92;ESCUELA ES N°20;MITRE 364;783;14;21
2;3;92;ESCUELA EST N°4;VIDELA 226;783;29;35
2;3;92;ESCUELA INCORP.MANUEL BELGRANO;RIVADAVIA 460;783;36;45
2;3;92;COL.BRUZZONE/INS.N.S.GUADALUPE;SAN MARTIN Y SAAVEDRA N°260;783;46;50
2;3;92;COLEGIO E.HOLMBERG;SARMIENTO 679;783;51;54
2;3;92;INSTITUTO SAN JOSE;MITRE 460;783;22;28
2;3;92;ESCUELA EP N°79/SB N°76;MARINERO LOPEZ 575;783A;60;68
2;3;92;ESCUELA EDUC.ESPECIAL N°506;ALSINA N°1625;783A;69;74
2;3;92;ESCUELA EP N°39/ES N°86;MOZART N°950;783A;75;83
2;3;92;CTRO.EDUC.COMPLEMENTARIO N°801;OTAMENDI 1504;783A;55;59
2;3;92;ESCUELA EP N°10/ES N°27;HUMBERTO I N°887;783A;84;89
2;3;92;INSTITUTO SAN JORGE;GUIDO 800;783A;90;94
2;3;92;ESCUELA EP N°19/ES N°7;ORTIZ DE OCAMPO 335;784;101;111
2;3;92;ESCUELA EP N°9;MORENO 932;784;112;120
2;3;92;ESCUELA ES N°15;A.BOTTARO 1125;784;121;130
2;3;92;ESCUELA EP N°38/ES N°48;ECHEVERRIA 192;784;95;100
2;3;92;ESCUELA EP N°73/ESB N°71;AGRIGENTO E/CEVALLOS Y MONROE;784;154;158
2;3;92;ESCUELA EP N°28;HILARIO ASCASUBI N°475;784;137;145
2;3;92;ESCUELA ES N°33;PRINGLES 1621;784;146;149
2;3;92;COLEGIO PAPA EUGENIO PACELLI;JUAN CRUZ VARELA 271;784;150;153
2;3;92;ESCUELA ES N°7/EP N°19;MITRE 1019;784;131;136
2;3;92;ESCUELA EP N°1/ES N°7;RIVADAVIA 373;784;159;162
2;3;92;ESCUELA EP N°30/ES N°30;OTTO BEMBERG 293;785;163;171
2;3;92;ESCUELA EP N°17;ENTRE RIOS 580;785;179;188
2;3;92;ESCUELA EP N°22;RCA.DEL LIBANO N°426;785;189;194
2;3;92;ESCUELA EP N°16/ES N°37;R.LOPEZ 533;785;195;203
2;3;92;ESCUELA EP N°83;URQUIZA 1197;785;245;254
2;3;92;ESCUELA EP N°13/ESB N°35;12 DE OCTUBRE 758;785;210;219
2;3;92;TALLER DIVINA PROVIDENCIA;SAENZ PEÑA 1407;785;220;223
2;3;92;ESCUELA ES N°3;CORRIENTES 587;785;224;229
2;3;92;ESCUELA EP N°12/ES N°49;F.AMOEDO 1256;785;236;244
2;3;92;INSTITUTO N.S.DE FATIMA(EP/ES);CONDARCO 2489;785;255;258
2;3;92;ESCUELA EP N°58;CONDARCO 2711;785;264;270
2;3;92;COLEGIO SAN FELIPE BENIZI;SAENZ PEÑA 1446;785;230;235
2;3;92;INSTITUTO MODELO JEAN PIAGET;BERUTI 1355;785;204;209
2;3;92;INSTITUTO SAN MARCO;PTE.PERON 1033;785;259;261
2;3;92;ESCUELA EP N°36;RCA.DEL LIBANO 1532;785;172;178
2;3;92;INSTITUTO ENRICO FERMI;LA RIOJA 397;785;262;263
2;3;92;ESCUELA EST N°6;AV.CALCHAQUI 1894;785A;280;289
2;3;92;ESCUELA EP N°81/ES N°25;ENTRE RIOS 2812;785A;302;311
2;3;92;ESCUELA EP N°26/ES N°81;J.V.GONZALEZ 751;785A;312;319
2;3;92;ESCUELA EP N°3/ES N°28;AV.LA PLATA 1751;785A;320;327
2;3;92;ESCUELA ES N°16;AV.CALCHAQUI 840;785A;271;279
2;3;92;ESCUELA SECUND.MIGUEL CANE;MIGUEL CANE Y LAPRIDA;785A;290;301
2;3;92;INST.EDUC.DR.ALEXANDER FLEMING;ESTANISLAO DEL CAMPO 1825;785A;328;332
2;3;92;ESCUELA EP N°62/ES N°31;LA RIOJA 1637;785B;333;343
2;3;92;INSTITUTO SAGRADA FAMILIA;PELLEGRINI 3106;785B;344;352
2;3;92;ESCUELA SAN CLEMENTE;SAN MAURO CASTELVERDE 4044;785B;353;359
2;3;92;ESCUELA EP N°27/ESB N°41;SAN LUIS 4016-B°LA PRIMAVERA;785B;360;367
2;3;92;INST.N.S.DEL PERPETUO SOCORRO;AV.CALCHAQUI 4949;785B;368;377
2;3;92;ESCUELA EP N°71/ES N°25;339 DR. LUIS AGOTE N°3550;785B;384;395
2;3;92;COLEGIO NTRA.SRA.DE LOURDES;AV.CALCHAQUI 1371;785B;415;419
2;3;92;ESCUELA EP N°8/ES N°32;381 N°2323;785B;404;414
2;3;92;ESCUELA EP N°75;DR. AUYERO (395) N°2409;785B;420;428
2;3;92;ESCUELA EP N°37;RCA.DEL LIBANO 5070;785B;435;441
2;3;92;INSTITUTO CRISTO REY;389 N°1964;785B;378;383
2;3;92;ESCUELA EP N°41/ES N°51;387 N°2831;785B;396;403
2;3;92;ESCUELA EP N°56;ANIBAL TROILO N°1253;785B;429;434
2;3;92;COLEGIO SANTO DOMINGO;344 N°3202;785B;444;451
2;3;92;JARDIN DE INFANTES N°941;SAN LUIS 3998;785B;452;454
2;3;92;JARDIN DE INFANTES N°954;CATAMARCA 4749;785B;442;443
2;3;92;ESCUELA EP N°31/ES N°84;DARDO ROCHA 1343;786;459;465
2;3;92;ESCUELA EP N°42;LOS ANDES 175;786;479;489
2;3;92;ESCUELA EP N°46/ES N°8;CHICLANA 1019;786;490;497
2;3;92;ESCUELA MODELO M.ACOSTA;A.ALVAREZ 64;786;498;499
2;3;92;COLEGIO JUAN XXIII;MAIPU 1056;786;500;503
2;3;92;INSTITUTO BENITO GONZALEZ;MISIONES 1024;786;504;506
2;3;92;ESCUELA ES N°1;LOS ANDES 173;786;466;478
2;3;92;JARDIN DE INFANTES N°911;RIVADAVIA 248;786;455;458
2;3;92;ESCUELA EP N°61;CASEROS 1586;786;507;510
2;3;92;ESCUELA EP N°15;167 Y CERRITO;786A;511;520
2;3;92;ESCUELA ES N°6;ALEM 1545 BIS;786A;521;533
2;3;92;ESCUELA EP N°48;ALEM 1545;786A;534;545
2;3;92;ESCUELA EP N°78/ES N°23;CHACO 1540;786A;546;553
2;3;92;JARDIN DE INFANTES N°943;FORMOSA 1555;786A;554;555
2;3;92;ESCUELA EP N°24/ES N°29;CRAMER 721;787;556;564
2;3;92;ESCUELA EP N°47/ES N°4;J.LOPEZ 342;787;565;573
2;3;92;ESCUELA EST N°2;ESPORA N°101;787;574;584
2;3;92;COLEGIO ALMAFUERTE;ESTRADA 20;787;591;593
2;3;92;INST.SUP.FORMAC.DOCENTE N°24;CRAMER 471;787;585;590
2;3;92;INST.SUP.FORMAC.DOCENTE N°24;CRAMER 471;787;594;597
2;3;92;ESCUELA EP N°6/ESB N°30;LUIS M.DRAGO 375;787A;598;607
2;3;92;ESCUELA EP N°18/ES N°38;AVELLANEDA 177;787A;613;622
2;3;92;ESCUELA EP N°23;AV.SAN MARTIN 38;787A;623;632
2;3;92;ESCUELA EP N°82/ES N°77;YAPEYU 555;787A;633;643
2;3;92;INSTITUTO MARIA AUXILIADORA;CNEL.PRINGLES 604;787A;644;646
2;3;92;ESCUELA EP N°21;DARDO ROCHA N°802;787A;647;656
2;3;92;ESCUELA EP N°20/ES N°8;ZAPIOLA 1170;787A;661;671
2;3;92;COLEGIO DEL ALTO SOL;COMODORO RIVADAVIA 188;787A;608;612
2;3;92;ESCUELA ES N°21;AV.SAN MARTIN 32;787A;657;660
2;3;92;ESCUELA EP N°65;LOS ANDES 4325;788;672;682
2;3;92;ESCUELA EP N°63/ES N°36;187 N°609;788;685;693
2;3;92;ESCUELA ES N°13;LA PAMPA 4324;788;694;705
2;3;92;ESCUELA EP N°60/ESB N°61;190 N°988;788;706;712
2;3;92;ESCUELA EP N°33;CABO SESSA 1101;788;713;724
2;3;92;SOCIEDAD DE FOMENTO 25 DE MAYO;CISTERNA 3441;788;725;728
2;3;92;ESCUELA EP N°72/ES N°70;BOEDO 1253;788;729;740
2;3;92;ESCUELA EP N°70/ES N°32;AV.DONATO ALVAREZ 190;788;741;749
2;3;92;CENTRO FORMACION PROFES.N°403;174 N°1909;788;683;684
2;3;92;ESCUELA EST N°8;175 BIS E/PILCOMAYO Y PAMPA;788;750;758
2;3;92;CENTRO INTEG.COMUNIT.STA.MARIA;PAMPA Y 173;788;759;763
2;3;92;ESCUELA EP N°53;844 N°2288;788A;764;775
2;3;92;ESCUELA EP N°64/ES N°65;AV.PROVINCIAL Y 848;788A;776;785
2;3;92;ESCUELA EP N°4;827 N°2525;788A;786;797
2;3;92;INSTITUTO JOSE MANUEL ESTRADA;892 N°4051 E/840 Y 841;788A;810;820
2;3;92;ESCUELA ES N°2;844 N°2257 E/893 Y 894;788A;821;828
2;3;92;ESCUELA EP N°11;895 E/835 Y 836;788A;844;853
2;3;92;ESCUELA EP N°32/ES N°26;844 N°2270 E/893 Y 894;788A;860;865
2;3;92;ESCUELA EP N°57/ES N°18;865 N°2737;788A;883;887
2;3;92;ESCUELA EP N°50;826 N°2540;788A;898;906
2;3;92;ESCUELA EP N°59;898 N°6351;788A;829;836
2;3;92;INSTITUTO JOSE HERNANDEZ;DONATO ALVAREZ N°2338;788A;837;843
2;3;92;INSTITUTO ALFONSINA STORNI;851 N°2251 E/893 Y 894;788A;888;897
2;3;92;ESCUELA EM N°10;899 Y AV. MONTEVERDE N°5838;788A;854;859
2;3;92;ESCUELA EST N°3;844 N°2135;788A;866;878
2;3;92;INSTITUTO SAN JUAN BAUTISTA;835 N°1789 ESQ.888;788A;879;882
2;3;92;ESCUELA ES N°37;835 N°2450;788A;798;809
2;3;92;ESCUELA ESB N°19;898 N°6355;788A;907;910
2;3;92;ESCUELA EP N°45/ES N°54;846 N°1202;788B;982;986
2;3;92;ESCUELA EP N°51/ES N°57;874 N°4983 E/850 Y 852;788B;921;934
2;3;92;ESCUELA EP N°43/ES N°24;880 N°1254;788B;935;946
2;3;92;COLEGIO SAN JOSE OBRERO;873 N°4518 E/844 Y 846;788B;947;955
2;3;92;ESCUELA EP N°40/ES N°23;839 N°546 E/876 Y 877;788B;958;969
2;3;92;ESCUELA EP N°86/ES N°79;849 ESQ.883 N°1250;788B;970;981
2;3;92;INSTITUTO SAN GABRIEL;877 N°4728;788B;956;957
2;3;92;ESCUELA EP N°68/ES N°67;819 N°920;788B;911;920
2;3;92;INSTITUTO TAP QUI;875 N°4464;788B;987;989
2;3;92;JARDIN DE INFANTES N°961;817 E/877 Y 878 N°732;788B;990;992
2;3;92;ESCUELA EP N°25/ES N°11;802 Y 897;788C;993;1007
2;3;92;COLEGIO MADRE TERESA;SANTA FE 1865 E/888 Y 889;788C;1017;1026
2;3;92;ESCUELA EP N°2/ES N°2;806 N°2374 E/893 Y 894;788C;1027;1041
2;3;92;ESCUELA EP N°77/ES N°75;820 ESQ. 893 N°2300;788C;1075;1083
2;3;92;ESCUELA EP N°76/ES N°74;809 N°1890 Y 889;788C;1054;1064
2;3;92;INSTITUTO MALVINAS ARGENTINAS;816 N°2409;788C;1065;1074
2;3;92;ESCUELA ES N°9;810 N°1828;788C;1042;1053
2;3;92;ESCUELA EP N°87;889 N°1881;788C;1008;1016
2;3;92;ESCUELA EP N°14;CARBONARI 379;791;1084;1095
2;3;92;JARDIN DE INFANTES N°920;SALTA 1359;791;1096;1098
2;3;92;ESCUELA EP N°67;EMILIO ZOLA N°4799;791;1099;1104
2;3;92;ESCUELA EP N°5;MENDOZA 167;791;1105;1110
2;3;92;ESCUELA ES N°5;RIO SALADO 5150;791;1128;1134
2;3;92;ESCUELA EP N°49/ES N°56;RIO DESAGUADERO 5180;791;1111;1118
2;3;92;INSTITUTO Y JARD. J.V.GONZALEZ;LA GUARDA 234;791;1119;1123
2;3;92;INST.ENS.PRIVADA J.B.ALBERDI;LAVALLE 5056;791;1124;1127
2;3;92;ESCUELA ES N°6;BROWN 5233;791;1135;1139
2;3;92;JARDIN DE INFANTES N°938;MENDOZA 332;791;1140;1141
2;3;92;ESCUELA EP N°44/ES N°53;PANAMA 420;791A;1142;1148
2;3;92;ESCUELA EP N°69/ES N°68;LARREA 3922;791A;1151;1160
2;3;92;COLEGIO S.T.DEL NIÑO JESUS(EP);AV.SAN MARTIN 5455;791A;1161;1172
2;3;92;ESCUELA EP N°52;MINUTO 4703;791A;1173;1184
2;3;92;ESCUELA EP N°74/ES N°72;V.LOPEZ 3980;791A;1191;1201
2;3;92;INSTITUTO ESTEBAN ECHEVERRIA;BRASIL 1450;791A;1185;1190
2;3;92;COLEGIO S.T.DEL NIÑO JESUS(ES);DOMINGO SOBRAL 213;791A;1202;1209
2;3;92;ESCUELA EST N°1;ANDRADE 800;791A;1210;1216
2;3;92;ESCUELA ESB N°17;ECUADOR 938;791A;1217;1221
2;3;92;ESC.SEC.TECN.U.DE QUILMES;RCA.DE FRANCIA 1714 Y DR.KENNY;791A;1149;1150
2;3;92;ESCUELA EP N°55/ES N°59;J.B.JUSTO 3402;791B;1222;1231
2;3;92;INSTITUTO CONSTANCIO C.VIGIL;J.B. JUSTO 3761;791B;1238;1248
2;3;92;ESCUELA EP N°85/ESB N°78;CONDARCO 5350;791B;1249;1261
2;3;92;ESCUELA EP N°66/ES N°21;J.B.JUSTO 4851;791B;1262;1275
2;3;92;ESCUELA EP N°34/ES N°45;NICARAGUA 2200;791B;1280;1289
2;3;92;ESCUELA EP N°54/ES N°22;BRASIL Y E.DEL CAMPO;791B;1290;1299
2;3;92;ESCUELA EP N°35;CRAVIOTTO N°2630;791B;1232;1237
2;3;92;INSTITUTO BLAS PASCAL;AV.CALCHAQUI 4948;791B;1276;1279
2;3;109;ESCUELA EP N°1;SAN MARTIN 101;924;1;14
2;3;109;ESCUELA ES N°1;25 DE MAYO 379;924;27;31
2;3;109;ESCUELA EP N°29/ES N°307;DIRECTORIO Y PTE ILIA;924;32;41
2;3;109;INSTITUTO SAN JOSE;ALTE.BROWN Y 9 DE JULIO;924;42;46
2;3;109;ESCUELA EP N°6;ESPAÑA 115;924;47;54
2;3;109;ESCUELA EP N°22;SANTA FE 117;924;55;60
2;3;109;ESCUELA EP N°16;GUERRIERI 33;924;61;66
2;3;109;ESCUELA EST N°2;QUINTANA 154;924;15;26
2;3;109;ESCUELA EP N°9;URQUIZA 164;925;67;77
2;3;109;ESCUELA EP N°12/ES N°301;ESMERALDA 105;925;78;86
2;3;109;ESCUELA ES N°4;MITRE 400;925;95;103
2;3;109;ESCUELA EP N°15;S. ARCURI E/ VIDAL Y PALACIOS N° 102;925;107;114
2;3;109;COLEGIO MONSEÑOR A.SCHELL;SAN VICENTE Y SEGUI S/N°;925;115;116
2;3;109;ESCUELA EP N°25;BOMPLAND 462;925;117;122
2;3;109;ESCUELA EP N°23/ES N°301 ANEXO;ASCASUBI 218;925;123;128
2;3;109;ESCUELA EP N°26;ISABEL LA CATOLICA N°792;925;87;94
2;3;109;ESCUELA EP N°27;BUENOS AIRES 1310;925;129;134
2;3;109;ESCUELA ES N°7;C.LORENZINI 1050;925;135;138
2;3;109;ESCUELA ES N°5;LIBERTAD 283;925;139;145
2;3;109;ESCUELA ES N°12/ES N°312;BONPLAND 446;925;104;106
2;3;109;ESCUELA EP N°4;BELGRANO 32;926;146;152
2;3;109;ESCUELA EP N°7;RUTA 16 PASAJE SAMBOROMBON;927;153;153