province;section;town;name;address;borough;startBoard;endBoard
2;5;5;ESC.MUNIC.ENS.ARTIST E IDIOMA;A. DEL VALLE Y RIVADAVIA 1467;46;1;6
2;5;5;ESCUELA EP N°1/ES N°6;ALEM 1016 E/25 DE MAYO Y SAN MARTIN;46;7;16
2;5;5;ESCUELA EP N°3/ES N°5;A. DEL VALLE Y BELGRANO 1700;46;17;23
2;5;5;ESCUELA EP N°6;AV.MIGUENS 807;46;24;27
2;5;5;ESCUELA EP N°4;AV.SOLANET 1301;46;28;34
2;5;5;ESCUELA EP N°7/ES N°4;MURGUIER 631;46;35;39
2;5;5;ESCUELA ES N°1;BELGRANO 720;46;40;46
2;5;5;ESCUELA EST N°1;AV.COLON 1480;46;47;49
2;5;5;ESCUELA EST N°1;AV.COLON 1480;48;50;50
2;5;5;ESCUELA EP N°3/ES N°5;A. DEL VALLE Y BELGRANO 1700;49;51;51
2;5;5;ESCUELA EP N°38/ES N°7;RTA.74 KM 80 PARAJE LA POSTA;50;52;52
2;5;5;ESCUELA EP N°38/ES N°7;PARAJE LA POSTA;51;53;53
2;5;5;ESCUELA EP N°32;ESTACION SOLANET;52;54;54
2;5;5;ESCUELA EP N°28;RUTA 50 EL BOQUERON;53;55;55
2;5;5;ESCUELA EST N°1;AV.COLON 1480;54;56;56
2;5;5;ESCUELA EP N°20;CUARTEL 13°;55;57;57
2;5;5;ESCUELA EP N°16;PJE.LA CONSTANCIA;56;58;58
2;5;5;ESCUELA EP N°36;RUTA 50-PARAJE LAS PAJAS;57;59;59
2;5;8;ESCUELA EP N°1;18 N°593;98;1;10
2;5;8;ESCUELA EP N°2;18 N°853;98;11;19
2;5;8;COLEGIO PARROQUIAL E.LAMARCA;20 N°572;98;24;28
2;5;8;ESCUELA EST N°1;31 N°928;98;29;30
2;5;8;ESCUELA DE EDUCACION ESTETICA;13 N°642;98;31;34
2;5;8;ESCUELA ES N°1;AV.FAVALORO RENE DR. 652;98;35;44
2;5;8;ESCUELA EP N°10;6 N°304;98;45;48
2;5;8;ESCUELA EP N°3;AV.VIRGEN DE LUJAN 1077;98;49;54
2;5;8;ESCUELA EP N°6;39 Y 40 S/N;98;55;59
2;5;8;ESCUELA EP N°13;21 N°924;98;60;69
2;5;8;ESCUELA EP N°9;7 ESQ.26 N°854;98;70;73
2;5;8;ESCUELA EP N°45/ES N°6;31 N°303;98;74;77
2;5;8;ESCUELA EP N°8/ES N°7;AV.EVA PERON Y 120 CTEL 1;98;78;81
2;5;8;INSTITUTO SANTA ROSA DE LIMA;20 N°519;98;82;83
2;5;8;ESCUELA EP N°16;CENTENARIO 1930;98;84;86
2;5;8;ESCUELA EP N°7;RUTA 55 KM.67.700;98;20;23
2;5;8;ESCUELA ES N°3;CALLE 32 N°1026;98;87;96
2;5;8;ESCUELA EP N°4;A DEL VALLE N°155;98;97;105
2;5;8;ESCUELA EP N°11;J.HERNANDEZ E/SAG.FAMILIA Y POTIN;99;106;107
2;5;8;ESCUELA EP N°12;RUTA 55 KM.79,6;100;108;108
2;5;8;ESCUELA EP N°19;CALLE 10 E/13 Y 15;101;109;110
2;5;8;ESCUELA EP N°27;RUTA 226 KM.78;102;111;111
2;5;8;ESCUELA EP N°21;RUTA 226 KM.90-SAN ALBERTO;103;112;112
2;5;8;ESCUELA EP N°26;QUIMELCAN S/N°;103A;113;113
2;5;8;ESCUELA EP N°27;RUTA 226 KM.78;104;114;114
2;5;23;ESCUELA EP N°1;AV.25 DE MAYO 285;185;5;8
2;5;23;ESCUELA ES N°1;SARMIENTO 85;185;9;17
2;5;23;ESCUELA EP N°13;ITUZAINGO 273;185;18;21
2;5;23;ESCUELA CRISTO REY;RIVADAVIA 324;185;1;4
2;5;23;ESCUELA EP N°2;PARAJE LA INDIA MUERTA-CTEL.7°;186;22;22
2;5;23;ESCUELA EP N°6;COLECTORA INT.MALAGAMBA S/N°;187;23;23
2;5;30;ESCUELA MUNICIPAL N°1;SAN MARTIN N°405;201;1;10
2;5;30;ESCUELA EST N°1;ESCRIBANO 352;201;11;18
2;5;30;ESCUELA ES N°1;WASHINGTON 72;201;19;25
2;5;30;ESCUELA EP N°2/ES N°5;FRANKLIN 166;201;26;34
2;5;30;ESCUELA EP N°5/ES N°4;LIBRES DEL SUR 527;201;35;40
2;5;30;ESCUELA EP N°17;MACHADO 246;201;41;44
2;5;30;ESCUELA NORMAL SUPERIOR N°3;AV.R. ALFONSION N°588;201;45;54
2;5;30;ESCUELA EP N°3;JULIAN QUINTANA Y SAN LORENZO;201;59;62
2;5;30;ESCUELA EP N°1;SAN MARTIN 77;201;63;70
2;5;30;ESCUELA EP N°8;AV.CAMPAÑA DEL DESIERTO S/N;201;55;58
2;5;30;ESCUELA SECUNDARIA MUNICIPAL;JULIAN QUINTANA 1167;201;71;74
2;5;30;ESCUELA ES N°3/EP N°5;AV.R.ALFONSIN 552;201;75;81
2;5;30;ESCUELA EP N°9/ES N°8;BAHIA BLANCA 118;202;82;83
2;5;30;ESCUELA MUNICIPAL EP N°2;ALVEAR 1160;203;84;92
2;5;30;ESCUELA EP N°21;BELGRANO CUARTEL 6°;204;93;93
2;5;30;ESCUELA EP N°19;RUTA KM 6;205;94;94
2;5;30;ESCUELA EP N°27;PJE.GIRIBONE;206;95;95
2;5;30;ESCUELA EP N°34;PJE. MANANTIALES;208;96;96
2;5;30;ESCUELA EP N°31;LAS NAZARENAS Y LA GUEYA;209;97;97
2;5;30;ESCUELA EP N°31;LAS NAZARENAS Y LA GUEYA;209A;98;98
2;5;33;ESCUELA EP N°1/ISFDYT N°26;MARQUEZ 51;282;3;13
2;5;33;ESCUELA EP N°4;MAR DEL PLATA 236;282;14;19
2;5;33;ESCUELA EP N°7;BUENOS AIRES 1280;282;20;25
2;5;33;ESCUELA EP N°10/EA N°702;PUEYRREDON 382;282;26;28
2;5;33;ESCUELA EP N°30;H.YRIGOYEN 152;282;29;34
2;5;33;ESCUELA NORMAL SUPERIOR;CRAMER 50;282;35;44
2;5;33;ESCUELA EST N°1;LAMADRID 341;282;45;50
2;5;33;ESCUELA ES N°3;CRAMER 450;282;51;57
2;5;33;INSTITUTO BERTONI;ARISTOBULO DEL VALLE 350;282;58;62
2;5;33;ESCUELA EP N°15;ARISTOBULO DEL VALLE 1297;282;1;2
2;5;33;ESCUELA EP N°5;SALTA 198;282;63;68
2;5;33;ESCUELA ES N°3;CRAMER 450;283;69;69
2;5;33;INSTITUTO BERTONI;ARISTOBULO DEL VALLE 350;284;70;70
2;5;33;ESCUELA EP N°18;H.YRIGOYEN 400;285;71;71
2;5;39;ESCUELA EP N°1/EPA N°701;28 N°1273;305;1;8
2;5;39;ESCUELA EDUC.ESPECIAL N°501;31 N°1632;305;74;75
2;5;39;INSTITUTO GENERAL ALVARADO;PASEO COSTANERO SUD S/N;305;9;14
2;5;39;ESCUELA EP N°4/ES N°4;RUTA 77 E/94 Y 96;305;15;20
2;5;39;COLEGIO PARROQUIAL SAN ANDRES;24 N°1520;305;21;26
2;5;39;COLEGIO PRESB.JUAN MARSIGLIO;28 ESQ 41;305;27;30
2;5;39;ESCUELA EDUC.ESPECIAL N°503;23 N°1954;305;31;33
2;5;39;ESCUELA EP N°17;52 N°202;305;34;39
2;5;39;ESCUELA ES N°1;44 N°1150;305;40;49
2;5;39;INS.S.EXUPERY/EP EL PRINCIPITO;38 N°330;305;50;57
2;5;39;ESCUELA EST N°1;PASEO LELOIR 907;305;58;63
2;5;39;INSTITUTO NTRA.SRA.DE LUJAN;25 N°1330;305;64;68
2;5;39;ESCUELA EP N°5/CEA N°703;RUIZ GUIÑAZU 1381;305;69;73
2;5;39;ESCUELA EP N°7;COLON 2450;306;76;84
2;5;39;ESCUELA EP N°8/ES N°3;AV. LIBERTAD S/N°;306;85;93
2;5;39;ESCUELA EP N°9/ESN N°2;6 N°369;307;94;98
2;5;39;ESCUELA EP N°2;27 Y 106 S/N;308;99;100
2;5;39;ESCUELA EP N°3;RUTA 88 KM 40;309;101;101
2;5;42;INSTITUTO O.MAGNASCO;J.LLANOS 849;320;1;11
2;5;42;ESCUELA EP N°1;16 N°327;320;12;22
2;5;42;ESCUELA EP N°9;PASO 511;320;23;30
2;5;42;ESCUELA ES N°1;AV.ESPAÑA 231;320;31;39
2;5;42;ESCUELA EP N°15/ES N°4;134 E/55 Y 57;320;40;44
2;5;42;ESCUELA EP N°15/ES N°4;134 E/55 Y 57;321;45;45
2;5;42;ESCUELA EP N°8;ACC.RUTA PROVINCIAL 29;322;46;46
2;5;42;ESCUELA EP N°4;LA CHUMBEADA;323;47;47
2;5;42;ESCUELA EP N°6/ES N°2;CAYETANA DATA DE GORCH 167;324;48;48
2;5;43;ESCUELA EP N°1;25 DE MAYO 251;326;3;5
2;5;43;ESCUELA ES N°1;AV.SAN MARTIN 107;326;1;2
2;5;43;ESCUELA EP N°5;SARMIENTO 350;327;6;8
2;5;43;ESCUELA EP N°4;RUTA 60 KM.29;328;9;9
2;5;46;ESCUELA ES N°1;SAN MARTIN 1175;338;3;5
2;5;46;CTRO.EDUC.COMPLEMENTARIO N°801;SAN JOSE S/N;338;6;8
2;5;46;ESCUELA EP N°1;ARTURO DE LA SERNA 1100;338;1;2
2;5;46;ESCUELA EP N°22;RUTA 11 Y G.LAVALLE;338A;9;12
2;5;46;ESCUELA ES N°3/EP N°18;LOS PARAISOS 242;338B;13;13
2;5;47;ESCUELA EP N°1;BELGRANO 1310;340;9;16
2;5;47;ESCUELA EP N°2;URRUTIA 350;340;17;24
2;5;47;ESCUELA EP N°8/CEC N°801;URRUTIA 550;340;25;30
2;5;47;ESCUELA EST N°1/ES N°5;AV.BUENOS AIRES 648;340;31;37
2;5;47;UNIDAD ACADEMICA D.F.SARMIENTO;AV.BUENOS AIRES 684;340;1;8
2;5;47;ESCUELA ES N°1;SARMIENTO 1430;340;38;42
2;5;47;INSTITUTO SAN JOSE;SARMIENTO 1275;340;43;48
2;5;47;ESCUELA EP N°15/ES N°3;NICARAGUA 693;340;49;50
2;5;47;ESCUELA EP N°13/JIRIMM N°7;RUTA 74 KM.50,5;341;51;51
2;5;47;ESCUELA EP N°3/ES N°6;PELLEGRINI 745;342;52;52
2;5;47;ESCUELA EP N°7/ES N°6;CNO.PROVINCIAL 39/3;343;53;53
2;5;48;ESCUELA EP N°1;SARMIENTO 3023;345;1;6
2;5;48;ESCUELA ES N°2;CENTURION 3220;345;7;13
2;5;48;COLEGIO SAGRADO CORAZON;CAMPOAMOR 3078;345;17;24
2;5;48;ESCUELA ES N°5;AV.INT.FERRANTE 4485;345;14;16
2;5;48;ESCUELA EP N°10;ACCESO AL CEMENTERIO;346;25;25
2;5;48;ESCUELA EP N°4/ES N°5;AV.INTTE.FERRANTE 4485;347;26;26
2;5;48;ESCUELA EP N°11;AV.DEL RIO S/N;348;27;29
2;5;48;ESCUELA ES AGRARIA N°1;AV.GARAY Y CNO.CEMENTERIO S/N;349;30;30
2;5;48;ESCUELA EP N°15;RUTA 15-PARAJE DANTAS;350;31;31
2;5;48;ESCUELA EP N°14/ES N°4;CHIRAMBERRO 489;351;32;34
2;5;48;ESCUELA EP N°7;ACC.TOMAS ORPHANT Y RTA.29;352;35;35
2;5;50;ESCUELA EP N°26/ES N°17;J.PERALTA RAMOS 615;364;1;12
2;5;50;ESCUELA EP N°25/ES N°36;DIAG.E.GONZALEZ 230;364;13;23
2;5;50;ESCUELA EST N°1;12 DE OCTUBRE 3384;364;24;28
2;5;50;ESCUELA EP N°19/ES N°3 ANEXO;GABOTO 5251;364;35;45
2;5;50;JARDIN DE INFANTES N°901;MAGALLANES 6272;364;362;367
2;5;50;JARDIN DE INF.MUNICIPAL N°1;12 DE OCTUBRE 4500;364;56;60
2;5;50;COLEGIO SAGRADA FAMILIA;RONDEAU 551;364;61;69
2;5;50;ESCUELA EP N°14/ES N°41;CARASA 2245;364;76;88
2;5;50;ESCUELA EP N°42;HIPOLITO BOUCHARD 4050;364;93;96
2;5;50;ESCUELA EP N°64;GARCIA LORCA 4950;364;97;98
2;5;50;COLEGIO INMACULADA CONCEPCION;TRIUNVIRATO 449;364;102;105
2;5;50;INSTITUTO SAN ANTONIO GIANELLI;AV.F.DE LA PLAZA 4949;364;106;113
2;5;50;ESCUELA EP N°45/ES N°62;PUAN 6048;364;118;131
2;5;50;ESCUELA PARROQUIAL SAN ANTONIO;ELPIDIO GONZALEZ 202;364;138;145
2;5;50;JARDIN DE INF.JESUS OBRERO;HERNANDARIAS 6767;364;146;148
2;5;50;COLEG.COLINAS DE PERALTA RAMOS;FIGUEROA ALCORTA 1858;364;149;156
2;5;50;ESCUELA EP N°12;PADRE DUTTO 265;364;157;163
2;5;50;ESCUELA HUINCO MÑOR.E.RAU;TRIUNVIRATO 1215;364;164;169
2;5;50;ESCUELA MUNI.N°7/EMS N°201;GOÑI 2624;364;170;180
2;5;50;ESCUELA EP N°56;GUANAHANI 9277;364;181;188
2;5;50;ESCUELA EP N°68/ES N°70;PUAN 7298;364;189;198
2;5;50;ESCUELA MUNICIPAL N°4;ALEJANDRO KORN 2279;364;199;202
2;5;50;ESTADIO CIUDAD MAR DEL PLATA;AV.DE LAS OLIMPIADAS 103;364;203;210
2;5;50;COLEGIO JESUS OBRERO;HERNANDARIAS 6767;364;211;219
2;5;50;ESCUELA EP N°8/ES N°216;JURAMENTO 961;364;220;230
2;5;50;CASA DEL NIÑO P.A.DE SARMIENTO;ROSALES 6392;364;114;117
2;5;50;ESCUELA EP N°50;AV.F.DE LA PLAZA 7765;364;231;239
2;5;50;ESCUELA EP N°36/ES N°58;CASTEX 2142;364;253;263
2;5;50;ESCUELA EP N°35/ES N°47;B.LYNCH 5702;364;272;282
2;5;50;ESCUELA EDUC.ESPECIAL N°506;GUANAHANI 4397;364;283;286
2;5;50;ESCUELA NACIONAL DE PESCA;AV.DE LOS TRABAJADORES S/N°;364;287;293
2;5;50;ESCUELA MUNICIPAL N°214;PADRE DUTTO 2530;364;294;302
2;5;50;ESC.MUNIC.FORM.PROFESIONAL N°3;JOSE HERNANDEZ 2286;364;303;308
2;5;50;JARDIN DE INF.MUNICIPAL N°3;LEBENSHON 4856;364;132;135
2;5;50;JARDIN DE INF.MUNICIPAL N°22;GENOVA 5265;364;264;266
2;5;50;ESCUELA EP N°65;CAMUSSO 701;364;70;75
2;5;50;COLEGIO JORGE LUIS BORGES;CARASA 6440;364;99;101
2;5;50;ESCUELA EP N°74/ES N°69;E.PERALTA RAMOS 2730;364;336;346
2;5;50;ESCUELA MUNICIPAL N°1/ES N°211;MAGNASCO 2179;364;309;320
2;5;50;INSTITUTO EDUC.PUNTA MOGOTES;GRAL.PACHECO 2116;364;351;354
2;5;50;ESCUELA HUINCO MNOR.E.RAU(ES);AZOPARDO 3995;364;355;361
2;5;50;INSTITUTO ALEJANDRO FLEMING;FLEMING 1655;364;267;271
2;5;50;COLEGIO TOMAS ALVA EDISON;WILLIAM MORRIS 3566;364;330;335
2;5;50;ESCUELA ES N°19;CUBA 1849 E/35 Y 37;364;240;252
2;5;50;ESCUELA NTRA.SRA.DEL CAMINO;JUAN B.JUSTO 5104;364;368;377
2;5;50;ESCUELA EDUC.ESPECIAL N°510;PUAN 5951;364;46;55
2;5;50;ESC.CRISTIANA S.E.SORENSEN(EP);TRIPULANTES DEL FOURNIER 8703;364;378;383
2;5;50;INSTITUTO AYELEN;TRIPULANTES DEL FOURNIER 6451;364;29;34
2;5;50;JARDIN DE INFANTES MAMINA;FLEMING 1649;364;136;137
2;5;50;JARDIN DE INFANTES N°917;J.B.JUSTO Y 164;364;347;350
2;5;50;JARDIN DE INF.MUNICIPAL N°13;MAC GAUL 2754;364;89;92
2;5;50;ESCUELA ES N°31;GOÑI 1878;364;321;329
2;5;50;ESCUELA EP N°22/ES N°37;ESTRADA 6602;365;384;393
2;5;50;ESCUELA EP N°137/ES N°53;DR.ALIO 595;365;403;412
2;5;50;ESCUELA EP N°33/ES N°72;G NASSER N° 1610;365;423;432
2;5;50;ESCUELA EP N°71;FALUCHO 10080;365;433;441
2;5;50;ESCUELA ES N°6;AV.LURO 9430;365;442;451
2;5;50;JARDIN DE INF.MUNICIPAL N°2;MORENO 9192;365;680;681
2;5;50;ESCUELA EP N°57;R.DE ESCALADA 1240;365;452;461
2;5;50;ESCUELA EPA N°725/EES N°55;AV.LURO 10341 B°LA ZULEMA;365;469;480
2;5;50;ESCUELA EP N°21;13 9005;365;481;489
2;5;50;INSTITUTO JESUS MARIA(EP);AVELLANEDA 6999;365;490;495
2;5;50;ESCUELA MUNIC. N°14/ES N°215;CASTELLI N° 8050;365;504;512
2;5;50;ESCUELA EP N°38;MORENO 7350;365;522;533
2;5;50;A.P.A.N.D;RUTA NACIONAL 2 Y BERUTTI;365;622;623
2;5;50;ESCUELA EP N°34;3 DE FEBRERO 8849;365;534;545
2;5;50;ESCUELA MUN. EP N°13/ESC N°208;RAWSON 6390;365;624;631
2;5;50;ESCUELA EP N°66/ES N°48;VALENCIA 9067;365;546;554
2;5;50;ESCUELA EP N°67/ES N°61;ARAGON 7549;365;555;564
2;5;50;CASA DEL NIÑO GRILLITO;AV.CONSTITUCION 7020;365;413;416
2;5;50;ESC MUNIC.N°2/ESC MUNIC.N°212;3 DE FEBRERO 9515;365;571;580
2;5;50;ESCUELA EP MUNIC.N°9/ES N°202;PIGUE 626;365;581;590
2;5;50;ESCUELA AMUYEN;CONSTITUCION 7235;365;591;596
2;5;50;INSTITUTO SAN MIGUEL ARCANGEL;C.ARENAL 7150;365;597;600
2;5;50;JARD.DE INF.NTRA.SRA.DEL VALLE;FRENCH 6033;365;607;608
2;5;50;JARDIN DE INF.MUNICIPAL N°5;MAIPU 8641;365;674;677
2;5;50;JARDIN DE INFANTES N°903;JOSE M.ESTRADA 6658;365;609;613
2;5;50;JARDIN DE INF.MUNICIPAL N°30;GUGLIELMONTI 730;365;684;685
2;5;50;ESCUELA EDUC.ESPECIAL N°507;LIBERTAD 6835;365;614;621
2;5;50;JARDIN DE INFANTES N°908;LIBERTAD 6867;365;682;683
2;5;50;JARDIN DE INFANTES N°911;JOVELLANOS 1250;365;417;422
2;5;50;ESCUELA ES N°35;TRES DE FEBRERO 7081;365;462;468
2;5;50;ESCUELA EP N°72/ES N°57;BRANDSEN 9890;365;632;643
2;5;50;ESCUELA MUN. EP N°16/ESC N°210;PADRE CARDIEL 6062;365;644;652
2;5;50;ESCUELA EVANGELICA LOS PINARES;J.A.PEÑA 7150;365;653;662
2;5;50;COLEGIO ALFRED NOBEL;LIBERTAD 5841;365;663;668
2;5;50;COLEGIO ISAAC NEWTON;AV.LURO 7870;365;513;521
2;5;50;INSTITUTO JESUS MARIA(ES);ESTADO DE ISRAEL 3085;365;496;503
2;5;50;INSTITUTO EDUCATIVO J.CORTAZAR;AV.CHAMPAGNAT 673;365;686;695
2;5;50;INSTITUTO JULIO VERNE;9 DE JULIO 9949;365;565;570
2;5;50;CENTRO DE FORMAC.PROFES.N°407;AV.PEDRO LURO 8851;365;696;699
2;5;50;ESCUELA EDUC.ESPECIAL N°511;AV.LURO 9254;365;669;673
2;5;50;JARDIN DE INFANTES N°907;25 DE MAYO 10364;365;700;704
2;5;50;COLEGIO LEONARDO DA VINCI;ARTURO ALIO N° 305;365;678;679
2;5;50;ESCUELA EP N°54;CALAZA N° 3470;365;394;402
2;5;50;JARDIN DE INFANTES N°949;CALAZA 3422;365;705;709
2;5;50;JARDIN DE INFANTES N°937;ALBERTI N° 6780;365;710;712
2;5;50;JARDIN DE INFANTES N°944;BRANDSEN 9922;365;713;715
2;5;50;JARDIN DE INFANTES N°933;FALUCHO 9533;365;716;717
2;5;50;ESCUELA ES N°54;LEGUIZAMON 2085;365;601;606
2;5;50;ESCUELA EP N°58/ESM N°10;SANTIAGO DEL ESTERO 3096;366;740;751
2;5;50;ESCUELA ES N°24/ES N°22;MITRE 2579;366;730;739
2;5;50;ESCUELA EP N°10/ES N°5;ENTRE RIOS 3112;366;752;763
2;5;50;ESCUELA EP N°18;AV.INDEPENDENCIA 3920;366;786;795
2;5;50;UNIV.ATLANTIDA ARGENTINA;ARENALES 2740;366;796;803
2;5;50;INSTITUTO EINSTEIN;CATAMARCA 3644;366;804;813
2;5;50;ESCUELA EP N°6/ES N°22;MITRE 2474;366;814;827
2;5;50;TRIBUNALES MAR DEL PLATA;ALTE.BROWN 2046;366;831;832
2;5;50;ESCUELA EP N°27/ES N°7;GARAY 1039;366;833;846
2;5;50;ESCUELA ADVENTISTA M.BELGRANO;RAWSON 2942;366;847;850
2;5;50;COLEGIO MAR DEL PLATA;QUINTANA 1949;366;851;855
2;5;50;JARDIN DE INFANTES N°915;ALVARADO N° 2453;366;828;830
2;5;50;INSTITUTO SAN VICENTE DE PAUL;FALUCHO N°3184;366;866;870
2;5;50;ASOC.BELGRANO ESCUELA ESPECIAL;SAAVEDRA 2980;366;874;882
2;5;50;COLEGIO IDRA;SAN LUIS 3853;366;883;888
2;5;50;COLEGIO SAN AGUSTIN;OLAVARRIA 2608;366;889;897
2;5;50;ESCUELA EP N°53;PRINGLES 2209;366;898;904
2;5;50;INSTITUTO STELLA MARIS;FALUCHO Y VIAMONTE;366;910;914
2;5;50;TEATRO AUDITORIUM;BVARD.MARITIMO 2280;366;718;722
2;5;50;ESC MUNICIPAL ES N°206;VICENTE LOPEZ N° 340;366;764;771
2;5;50;COLEGIO DE LAS NACIONES UNIDAS;CASTELLI 1173;366;856;861
2;5;50;INSTITUTO NTRA.SRA.DEL CARMEN;LEANDRO N.ALEM 3723/37;366;915;920
2;5;50;INST.ARZOBISPO J.DE S.ALBERTO;C.PELLEGRINI 3762;366;921;926
2;5;50;COLEGIO J.GUTENBERG;LARREA N° 248;366;927;934
2;5;50;ESCUELA ES N°4/EEM N°21;FORMOSA 3132;366;935;947
2;5;50;INST.SUP.FORMAC.DOCENTE N°19;ALMAFUERTE 565;366;862;865
2;5;50;ESCUELA MUNICIPAL EST N°1;JUAN B.JUSTO 2901;366;723;729
2;5;50;HOGAR ESCUELA DIVINO ROSTRO;ALMAFUERTE 1671;366;948;951
2;5;50;CENTRO DE FORMAC.PROFES.N°401;B.DE IRIGOYEN 4615;366;952;954
2;5;50;COLEGIO FEDERICO LELOIR;GUEMES 3147;366;958;964
2;5;50;ESCUELA ES N°3;JUAN B.JUSTO 745;366;905;909
2;5;50;COLEGIO DEL LIBERTADOR;LA RIOJA 2350;366;955;957
2;5;50;INSTITUTO SUP.ANDREA PALLADIO;LAMADRID 2762;366;871;873
2;5;50;ESCUELA MUNICIPAL N°12;BERNARDO DE IRIGOYEN 4951;366;772;779
2;5;50;INST.ARG.DE LA EMPRESA HILET;25 DE MAYO 2809;366;780;785
2;5;50;ESCUELA EP N°16/ES N°49;FALUCHO 4070;366A;965;974
2;5;50;ESCUELA ET N°3;14 DE JULIO 2550;366A;983;994
2;5;50;ESCUELA EP N°20;CASTELLI 4197;366A;998;1007
2;5;50;ESCUELA EP N°41/ES N°56;MARCONI 2702;366A;1008;1017
2;5;50;ESCUELA EP N°31;SAN LORENZO 3486;366A;1018;1028
2;5;50;ESCUELA EP N°47/ES N°77;MISIONES 4021;366A;1032;1040
2;5;50;COLEGIO ATLANTICO DEL SUR;SAN JUAN 3594;366A;1045;1054
2;5;50;ESC.SECUND.NTRA.SRA.DEL CAMINO;MARCONI 4070;366A;1055;1061
2;5;50;INSTITUTO ANTARTIDA ARGENTINA;SALTA 2119;366A;1062;1065
2;5;50;INST.107 DE LOS ARROYO;ESPAÑA 2851;366A;1066;1067
2;5;50;INSTITUTO DON BOSCO;DON BOSCO 1895;366A;1068;1073
2;5;50;ESCUELA MUN. EP N°15/ES N°209;MEJICO 3850;366A;1074;1083
2;5;50;COLEGIO REC.MARIA AUXILIADORA;13 4783;366A;1084;1090
2;5;50;ESCUELA EP N°61/ES N°52;MORENO 4250;366A;1109;1118
2;5;50;ESC.DE ART.VISUALES M.MALARRO;LA PAMPA 1619;366A;1119;1124
2;5;50;CTRO.EDUC.COMPLEMENTARIO N°801;TIERRA DEL FUEGO 3450;366A;1125;1131
2;5;50;COLEGIO ROSARIO DE SANTA FE;JARA 2665;366A;1132;1135
2;5;50;ESCUELA EDUC.ESPECIAL N°503;ITALIA 3536;366A;995;997
2;5;50;ESCUELA EP N°15/ES N°4;TIERRA DEL FUEGO 1714;366A;1091;1099
2;5;50;ESCUELA EP N°4;CASTELLI 5745;366A;975;982
2;5;50;ESCUELA ES N°23;RIVADAVIA 3731;366A;1100;1108
2;5;50;ESC.MUNIC.DE FORMAC.PROFES.N°1;SAN MARTIN 5420;366A;1041;1044
2;5;50;CENTRO DE ESTUD.MULTIMEDIALES;FALUCHO 3444;366A;1029;1031
2;5;50;ESCUELA EP N°62/ES N°23 ANEXO;9 DE JULIO 4961;367;1136;1145
2;5;50;ESCUELA EP N°29/ES N°67;ITUZAINGO 4515 ESQ.MISIONES;367;1146;1154
2;5;50;ESCUELA EP N°2/EEM N°11;DORREGO 633;367;1155;1165
2;5;50;INSTITUTO PERALTA RAMOS;MAIPU 3351;367;1166;1176
2;5;50;ESCUELA NUEVA POMPEYA(EP Y ES);MAIPU 4020;367;1177;1184
2;5;50;ESCUELA SECUNDARIA DE ARTE N°1;DIAG.J.B.ALBERDI 2428;367;1185;1190
2;5;50;ESCUELA EST N°2;SAN LUIS 1445;367;1196;1208
2;5;50;COLEGIO C.SAAVEDRA LAMAS;20 DE SEPTIEMBRE 1159;367;1209;1217
2;5;50;ESCUELA EP N°1/ES N°65;25 DE MAYO 2751;367;1218;1225
2;5;50;ESCUELA EP N°5/ES N°75;3 DE FEBRERO 4212;367;1226;1236
2;5;50;ESCUELA ES N°1/EP N°32;MAIPU 5225;367;1243;1256
2;5;50;INSTITUTO SANTA CECILIA;CORDOBA 1338;367;1257;1266
2;5;50;INSTITUTO ENS.PRIV.SARMIENTO;11 DE SETIEMBRE N° 3731;367;1267;1268
2;5;50;INSTITUTO MINERVA;11 DE SEPTIEMBRE 4775;367;1269;1272
2;5;50;ESCUELA ES N°2;H.YRIGOYEN 1346;367;1273;1286
2;5;50;ESCUELA EP N°55/ES N°73;VALENCIA 5160 Y ROLDAN;367;1287;1296
2;5;50;COLEGIO FRAY M.ESQUIU(EP Y ES);REJON N° 4420;367;1297;1309
2;5;50;ESCUELA EST N°4;AV.JARA 861;367;1310;1319
2;5;50;JARDIN DE INFANTES SAN ROQUE;M.PEDRAZA 2053;367;1191;1195
2;5;50;ESCUELA ES N°25;LIBRES DEL SUD 1450;367;1326;1337
2;5;50;ESCUELA FRANCOISE DOLTO;ESTRADA 5444;367;1237;1240
2;5;50;ESCUELA PRIMARIA YUMBEL;BALCARCE 3282;367;1320;1325
2;5;50;COLEGIO JOHN LENNON;ITUZAINGO 4623;367;1241;1242
2;5;50;ESCUELA EP N°3;RUTA 2 KM.393;368;1338;1347
2;5;50;ESCUELA MUN. EP N°11/ES N°207;LOS GRANADOS 4550;368;1348;1359
2;5;50;JARDIN DE INF.MUNICIPAL N°6;VIEDMA Y USHUAIA S/N;368;1360;1362
2;5;50;ESCUELA ES N°20;PTO MORENO ESQ LAS TUYAS;368;1363;1369
2;5;50;ESCUELA MUN. EP°17/ES N°217;18-ISLA CANDELARIA N° 360;368;1370;1377
2;5;50;JARDIN DE INFANTES N°929;ARTUZO Y BELLINZONA S/N°;368;1378;1380
2;5;50;JARDIN DE INF.MUNICIPAL N°18;ARANA N° 7130;368;1381;1382
2;5;50;JARDIN DE INF.MUNICIPAL N°29;FITZ ROY 7471 ESQ.26;368;1383;1386
2;5;50;ESCUELA EP N°79;BELLIZANA Y FAUR;368;1387;1398
2;5;50;ESCUELA EP N°49/ES N°13;ARGENTINA Y ADOLFO S/N;369;1399;1404
2;5;50;ESCUELA EP N°48/ES N°68;PASAJE LOS ORTIZ S/N;369;1405;1410
2;5;50;ESCUELA EP N°8;BARTOLINA SISA Y M.GUEMES;369;1411;1415
2;5;50;ESCUELA EP N°69/ES N°76;ORTIZ DE ZARATE N°10799;370;1422;1433
2;5;50;ESCUELA NUESTRA SRA.DE LUJAN;RUTA 88 KM 13;370;1434;1445
2;5;50;ESC.MUNIC.DE ARTES Y OFICIOS;44 E/35 Y 33;370;1446;1449
2;5;50;ESCUELA EP N°52/ES N°71;845 E/4 Y 6 B°SAN EDUARDO;370;1450;1454
2;5;50;ESCUELA EP N°60/ES N°43;AV.F E/7 Y 9;370;1455;1460
2;5;50;ESCUELA EP N°28/ES N°66;ETCHEGARAY N°840;370;1542;1553
2;5;50;ESCUELA ES N°9;134 E/145 Y 147;370;1461;1471
2;5;50;ESCUELA EP N°24/ES N°71(SEDE);29 Y 10 BIS S/N°;370;1472;1478
2;5;50;ESCUELA EP N°43/ES N°60;TETAMANTI 6496;370;1479;1488
2;5;50;ESCUELA EP N°40/ES N°42;19 E/20 Y 22 S/N;370;1416;1421
2;5;50;ESCUELA MUNICIPAL EP N°6;12 DE OCTUBRE 10045;370;1499;1506
2;5;50;ESCUELA EP N°63;236 E/39 Y 41;370;1510;1522
2;5;50;ESCUELA EP N°76;YAPEYU 1770;370;1507;1509
2;5;50;ESCUELA EP N°23/ES N°74;30 E/5 Y 7;370;1530;1541
2;5;50;ESCUELA EP N°51/ES N°39;CONSORCIO 692;370;1489;1498
2;5;50;ESCUELA MUNICIPAL N°5;10 N°1972;370;1554;1559
2;5;50;ESCUELA EP N°80/ES N°16;PACHECO DE MELO N°4650;370;1560;1568
2;5;50;ESCUELA ES N°12;258 (EX 238) N°1910;370;1523;1529
2;5;50;ESCUELA MUNICIPAL N°203/EP N°3;S.DE BUSTAMANTE 3485;370;1573;1576
2;5;50;COLEGIO SAN FRANCISCO;SAN SALVADOR 9802;370;1569;1572
2;5;65;ESC.NORMAL SUPERIOR/EP N°43;LAS HERAS 577;538;8;15
2;5;65;ESCUELA EP N°1;HAROSTEGUY 440;538;18;28
2;5;65;ESCUELA EP N°8;AVELLANEDA 192;538;29;31
2;5;65;ESCUELA EP N°10;LAS HERAS 330;538;33;40
2;5;65;ESCUELA EP N°18;AVELLANEDA 888;538;41;43
2;5;65;ESCUELA EST N°1;AVELLANEDA 687;538;49;53
2;5;65;ESCUELA EP N°2;ABEL GUARESTI Y CARRAMASA;538;54;56
2;5;65;INSTITUTO SAN MIGUEL;9 DE JULIO 380;538;16;17
2;5;65;ESCUELA EP N°4/ES N°4;AVELLANEDA N° 1366;538;57;59
2;5;65;ESCUELA ES N°1;AV.CARMEN 766;538;4;7
2;5;65;ESCUELA EP N°19;CARRAMASA Y CIRCUNVALACION;538;1;3
2;5;65;ESCUELA EP N°22;ISLAS MALVINAS Y RUTA 3;538;32;32
2;5;65;ESCUELA ES N°3;CARMEN N°465;538;44;48
2;5;65;ESCUELA EP N°15;CUARTEL 2°;539;60;60
2;5;65;ESCUELA EP N°9;S/C S/N;540;61;61
2;5;65;ESCUELA EP N°5;S/C S/N;541;62;62
2;5;65;ESCUELA EP N°25;CUARTEL 6° S/C S/N;542;63;63
2;5;65;ESCUELA EP N°7;LA CAPILLA;543;64;64
2;5;65;ESCUELA EP N°6;CUARTEL 8°;544;65;65
2;5;65;ESCUELA EP N°3;EL TRIGO;545;66;66
2;5;135;ESCUELA EP N°1;AV.SAN MARTIN 401;207L;8;14
2;5;135;ESCUELA ES N°1;VIRREY LINIERS Y DORREGO;207L;1;7
2;5;68;ESCUELA ES N°2;BARREIRA 50;568;11;20
2;5;68;ESCUELA EP N°1;AV.SAN MARTIN N° 2;568;21;26
2;5;68;ESCUELA EP N°6;F.GONZALEZ 520;568;31;35
2;5;68;ESCUELA EP N°3;ALBERDI 700;568;27;30
2;5;68;INST.CALASANCIO DIVINA PASTORA;ALBERDI 50;568;7;10
2;5;68;ESCUELA EST N°1;AV.SARMIENTO N° 501;568;1;6
2;5;68;ESCUELA EP N°12/ES N°4;RUTA NACIONAL 227 S/N;568A;36;37
2;5;68;ESCUELA EP N°37;RUTA 30 KM 8;569;38;38
2;5;68;ESCUELA EP N°17;RUTA 55 S/N°;569A;39;39
2;5;68;ESCUELA EP N°10;RUTA 227 KM.20;570;40;40
2;5;68;ESCUELA EP N°17;RUTA 55 S/N°;571;41;41
2;5;68;ESCUELA EP N°15/ES N°3;SARMIENTO 394;572;42;46
2;5;73;ESCUELA EP N°1/ES N°2;MADERO 455;615;1;6
2;5;73;ESCUELA EP N°8/ES N°1;MADERO 1454;615;7;10
2;5;73;ESCUELA M.GOLE;MADERO 683;615;11;14
2;5;73;INST.PRESBITERO MAURO GOLE;VTE.LOPEZ 453;615;15;16
2;5;73;ESCUELA ES N°2/EP N°18;ALSINA ESTE 180;615;17;27
2;5;73;ESCUELA EP N°13/ES N°3;RUTA 2 KM.300;616;28;29
2;5;73;ESCUELA EP N°7/ESN °1 ANEXO;RUTA PCIAL.62 KM 21;617;30;30
2;5;73;ESCUELA EP N°4;S/C S/N°;617A;31;31
2;5;74;ESCUELA EP N°22;J.MARIANI E ITALIA S/N°;619;1;5
2;5;74;ESCUELA EP N°1/ES N°2;GENERAL PAZ 491;619;6;15
2;5;74;ESCUELA EST N°1;BVARD.BELGRANO 914;619;16;22
2;5;74;ESCUELA EP N°5;SARMIENTO 324;620;23;26
2;5;74;ESCUELA EP N°15;VIGLIELTI E/YRIGOYEN Y 11 DE SEPTIEM;620;30;31
2;5;74;ESCUELA MEDIA N°3;BELGRANO 351;620;27;29
2;5;74;ESCUELA EP N°9/JIRIMM N°992;CNO.VECINAL S/N°;621;32;32
2;5;74;ESCUELA EP N°10;BELGRANO 64;621A;33;33
2;5;74;ESCUELA EP N°10/ES N°4;BELGRANO 64;622;34;37
2;5;74;ESCUELA EP N°8;LA FLORIDA 1080;622A;38;46
2;5;74;JARDIN DE INFANTES N°904;CARDIFF N° 567;622A;63;65
2;5;74;ESCUELA EP N°29;DIEGO DE ALMAGRO 272;622A;47;50
2;5;74;ESCUELA EDUC.ESPECIAL N°503;SAN FRANCISCO 625;622A;51;53
2;5;74;ESCUELA ES N°1;BARRANCA DE LOS LOBOS 475;622A;54;62
2;5;74;ESCUELA EP N°21/ES N°5;DEL TEMPLE S/N°;622B;66;70
2;5;78;ESCUELA EP N°1/ES N°4;AV. SAN MARTIN 18;656;1;6
2;5;78;ESCUELA EP N°16;L.M. ALEM 150;656;7;14
2;5;78;ESCUELA ES N°1;BELGRANO 436;656;18;23
2;5;78;COLEGIO SGDO.CORAZON DE JESUS;ITALIA 1448;656;32;37
2;5;78;INST.AGROP.ELVIRA L.DE SOLDATI;SOLER 202;656;38;42
2;5;78;ESCUELA EST N°1;LAURA GIAGNACOVO N°1198;656;26;31
2;5;78;INST.SUP.FORM.DOC.Y TEC.N°66;SAN MARTIN 687;656;43;45
2;5;78;ESCUELA EP N°22;LUJAN ESQ.RAUCH;656;46;48
2;5;78;CTRO.EDUC.COMPLEMENTARIO N°801;9 DE JULIO 655;656;24;25
2;5;78;ESCUELA EDUC.DE ADULTOS N°701;MARTIN RODRIGUEZ 990;656;15;17
2;5;78;ESCUELA EP N°10;LAURA GIAGNACOVO S/N;657;49;49
2;5;78;ESCUELA EP N°3;MONTE NUEVO S/N;658;50;50
2;5;78;ESCUELA EP N°11;RUTA 215 KM. 97 .500;659;51;51
2;5;78;ESCUELA EP N°12;PCIAL S/N;660;52;52
2;5;78;ESCUELA EP N°6;SARMIENTO S/N°;661;53;54
2;5;78;ESCUELA EP N°8;RUTA 41 CUARTEL 5°;662;55;55
2;5;82;ESCUELA ES N°8/EP N°51;57 N°2646;686;7;10
2;5;82;ESCUELA EST N°1;47 N°2680;686;17;21
2;5;82;ESCUELA EP N°2/ESB N°2;57 N°2582;686;22;31
2;5;82;ESCUELA EP N°1;54 N°3181;686;32;40
2;5;82;ESCUELA EP N°3;57 N°2112;686;41;44
2;5;82;ESCUELA EP N°4/ES N°1;69 N°3077;686;45;48
2;5;82;ESCUELA EDUC.ESPECIAL N°501;55 N°2535;686;88;90
2;5;82;COLEGIO PIO XII;60 N°3068;686;49;54
2;5;82;ASOC.ESCOLAR ALEMANA DE NECOCH;74 N°2560;686;55;61
2;5;82;ESC.ARGENTINO DANESA ALTA MIRA;43 N°2920;686;66;74
2;5;82;COLEGIO CAVAGNARO;70 N°2753;686;75;78
2;5;82;ESCUELA EP N°7;69 BIS N°1489;686;79;87
2;5;82;COLEGIO NTRA.SRA.DEL ROSARIO;60 N°2950;686;91;96
2;5;82;ESCUELA EP N°6;69 N°2035;686;97;101
2;5;82;ESCUELA EST N°2/CFP N°402;JESUITA CARDIEL 46;686;102;113
2;5;82;COLEGIO NTRA.SRA.DE POMPEYA;79 N°2565;686;114;122
2;5;82;ESCUELA ES N°7;58 N°2744;686;129;135
2;5;82;ESCUELA EST N°3;73 N°1558;686;136;148
2;5;82;ESCUELA EP N°28;85 N°342;686;149;158
2;5;82;ESCUELA ES N°2;6 N°3445;686;159;166
2;5;82;ESCUELA EP N°9;77 N°3585;686;167;171
2;5;82;ESCUELA EP N°12;62 N°2537;686;172;177
2;5;82;ESCUELA MODELO ARGENTINA;58 N°2350;686;11;16
2;5;82;INST.SUP.FORMAC.DOCENTE N°31;AV. JESUITA CARDIEL N° 2130;686;123;128
2;5;82;ESCUELA EP N°48/ES N°16;61 N°4903;686;62;65
2;5;82;ESCUELA EP N°35;57 N°593;686;1;6
2;5;82;ESCUELA EP N°31/ES N°13;525 N°1259;686A;178;182
2;5;82;ESCUELA EP N°25;560 N°1015;686A;187;194
2;5;82;ESCUELA EP N°40/ES N°9;576 N°2930;686A;195;202
2;5;82;CTRO.EDUC.COMPLEMENTARIO N°803;517 N°1345;686A;203;205
2;5;82;ESCUELA ES N°3;558 N°1044;686A;183;186
2;5;82;ESCUELA EP N°49;529 N°3888;686A;206;215
2;5;82;INSTITUTO DIVINO MAESTRO;548 N°842;686A;216;219
2;5;82;ESCUELA EP N°5;37 N°320;687;220;223
2;5;82;ESCUELA EP N°42;22 N°1180;687;224;225
2;5;82;ESCUELA EP N°18;14 E/11 Y 13;688;226;227
2;5;82;ESCUELA EP N°5;37 N°320;689;228;228
2;5;82;ESCUELA EP N°14/ES N°6;26 N°1875;691;229;234
2;5;82;ESCUELA EP N°17;26 N°1321;691;235;236
2;5;82;ESCUELA EP N°43;RUTA 85-ECION.SAN JOSE;691A;237;237
2;5;82;ESCUELA EP N°16;716 N°1003;692;238;239
2;5;119;ESCUELA EP N°1;AV.SAN MARTIN 491;337;1;6
2;5;119;ESCUELA EP N°2;AV.1 Y 20;337;7;11
2;5;119;ESCUELA ES N°3/ES N°8;AV NAVAL Y CALLE 12;337;12;16
2;5;119;COLEGIO INMACULADA CONCEPCION;1 N°1450;337;17;18
2;5;119;INSTITUTO J.M.ESTRADA;AV.SAN MARTIN N°564;337;19;20
2;5;119;ESCUELA CEFERINO NAMUNCURA;AV 9 ESQ CALLE 55;337;21;23
2;5;119;ESCUELA MUNICIPAL MEDIA N°1;AV.TERCERA 3751;337;24;27
2;5;119;ESCUELA EDUC.ESPECIAL N°502;AV.PADRE CADRIEL E/11 Y 12;337;28;30
2;5;119;JARDIN DE INFANTES N°901;8 N°2462;337;31;32
2;5;119;JARDIN DE INFANTES N°917;AV.NAVAL OESTE E/ 38 Y 39 N°540;337;33;34
2;5;119;ESCUELA EP N°3;21 N°1005;337A;35;44
2;5;119;ESCUELA ES N°7;34 N°451;337A;45;47
2;5;119;ESCUELA EP N°4;AV.41 N°460;337B;48;53
2;5;119;ESCUELA EST N°1;104 N°1440;337B;54;59
2;5;119;ESCUELA EP N°5;124 N°325;337B;60;67
2;5;119;ESCUELA ES N°12;125 E/104 Y 105 N°3165;337B;68;73
2;5;119;COLEGIO MODELO SANTA TERESITA;SAN LUIS 48;337B;74;74
2;5;119;COLEGIO CRISTIANO PABLO BESSON;11 N°267;337B;75;76
2;5;119;ESCUELA EP N°13;45 N°1384;337B;77;82
2;5;119;JARDIN DE INFANTES N°903;41 N°595;337B;83;85
2;5;119;INST.SUP.FORMAC.DOCENTE N°186;AV.COSTANERA 4;337B;86;89
2;5;119;ESCUELA EP N°6;3 N°7448;337C;90;101
2;5;119;ESCUELA ES N°13;76 N°495;337C;102;108
2;5;119;JARDIN DE INFANTES N°904;1 N°7464;337C;109;113
2;5;119;ESCUELA EP N°7;CATAMARCA 2251;337D;114;118
2;5;119;COLEGIO SAN BERNARDO;HERNANDEZ 3042;337D;119;123
2;5;119;ESCUELA ES N°4;3 N°2740;337D;124;134
2;5;119;ESCUELA EP N°15;GABOTO N°2533;337D;135;142
2;5;119;ESCUELA EP N°9;MONTEVIDEO 551;337E;143;149
2;5;119;ESCUELA ES N°1;B ENCALADA N°100;337E;150;157
2;5;119;ESCUELA EP N°8/ES N°8;MITRE E/ SANTA FE Y SARMIENTO;337E;158;164
2;5;119;ESCUELA EP N°10;ESPORA N°1750;337E;165;174
2;5;119;ESCUELA EP N°12/ES N°11;LIBRES DEL SUR Y SOLIS N°1100;337E;175;180
2;5;119;INSTITUTO PRIMARIO SIGLO XXI;LA MARGARITA 240;337E;186;189
2;5;119;JARDIN DE INFANTES N°902;CATAMARCA 575;337E;190;192
2;5;119;ESCUELA ES N°10;QUINTEROS 431;337E;181;185
2;5;90;ESCUELA EP N°1;CONSTITUCION 899;339;1;6
2;5;90;ESCUELA ES N°1;LIBERTADOR SUR 1833;339;7;13
2;5;90;ESCUELA EP N°5;APOLO 521;339;14;19
2;5;90;ESCUELA EST N°1;INTERMEDANOS SUR 530;339;20;23
2;5;90;ESCUELA EP N°6;MARTIN PESCADOR Y DEL ALBACORA;339;24;27
2;5;90;ESCUELA ES N°4;JONAS 950;339;28;32
2;5;90;ESCUELA ES N°3;INTERMEDANOS 1126;339;33;35
2;5;90;ESCUELA EP N°3;ALTE BROWN 731;339A;36;39
2;5;90;ESCUELA EP N°2;DAKAR 2149;339A;40;49
2;5;90;ESCUELA ES N°2;MONS 2454;339A;50;55
2;5;90;JARDIN DE INFANTES N°906;AV.ESPAÑA 308;339A;56;58
2;5;90;JARDIN DE INFANTES N°904;AV.CENTRAL 200;339A;59;60
2;5;90;ESCUELA EP N°4;CORONEL SPIRO 649;339B;61;68
2;5;90;JARDIN DE INFANTES N°905;JUNIN 465;339B;69;71
2;5;90;ESCUELA EP N°4;CNEL.SPIRO 649;339C;72;73
2;5;123;ESCUELA EP N°1/ES N°5;AV.4 N°446 E/PASEO 104 Y 105;344;1;10
2;5;123;ESCUELA EP N°3;AV.4 N°1905 Y PASEO 119;344;11;16
2;5;123;ESCUELA EP N°2;PASEO 137 N°658;344;17;23
2;5;123;INSTITUTO SAN PATRICIO;PASEO 107 Y AV. 7 N°723;344;24;27
2;5;123;INSTITUTO JUAN L.VIVES;BVARD.GESELL 1415;344;28;31
2;5;123;COLEGIO ANA BOTTGER DE GESELL;AV.7 Y PASEO 118;344;32;41
2;5;123;ESCUELA ES N°1;PASEO 133 Y AV.8;344;42;53
2;5;123;ESCUELA EP N°6;AV.22 N°505;344;54;63
2;5;123;ESCUELA EP N°4/ES N°4;AV. 30 E/PASEOS N°119 Y 115;344;64;73
2;5;123;INST.DE FORMAC.PROFES.N°401;AV.14 N°2249;344;74;76
2;5;123;ESCUELA EDUC.ESPECIAL N°501;AV.13 E/ PASEO 132 Y 133 N°568;344;77;79
2;5;88;ESCUELA ES N°1;17 N°138;765;1;5
2;5;88;ESCUELA EP N°2;11 ESQ 4 N°87;765;6;8
2;5;88;ESCUELA EP N°12;6 N°1351;765;9;9
2;5;88;ESCUELA EP N°9;ESCIA.HINOJALES-CUARTEL 4;765A;10;10
2;5;88;ESCUELA EP N°5;BERNARDO ZABALA S/N;766;11;11
2;5;94;ESCUELA EP N°15;MATHEU 95;806;1;9
2;5;94;ESCUELA EP N°1;LETAMENDI 694;806;10;15
2;5;94;COLEGIO INMACULADA CONCEPCION;BELGRANO 317;806;16;19
2;5;94;ESCUELA EP N°4;LAVALLE Y RUTA 30;806;20;22
2;5;94;COLEGIO SECUNDARIO RAUCH;BELGRANO 196;806;23;28
2;5;94;ESCUELA EST N°1;CORONEL SUAREZ 122;806;29;31
2;5;94;CTRO.EDUC.COMPLEMENTARIO N°801;LAS HERAS 343;806;32;38
2;5;94;ESCUELA EP N°5;PJE.LOMA NEGRA;807;39;39
2;5;94;ESCUELA EP N°10;EL BONETE;808;40;40
2;5;94;ESCUELA EP N°3;PJE.SAN JOSE;809;41;41
2;5;94;ESCUELA EP N°8;ACCESO MIRANDA;810;42;42
2;5;94;ESCUELA EP N°6;CUARTEL 11°;811;43;43
2;5;94;ESCUELA EP N°11;CUARTEL 12°;812;44;44
2;5;94;ESCUELA EP N°14;CUARTEL 14°;813;45;45
2;5;104;ESCUELA EP N°19;SARMIENTO 1125;871;1;6
2;5;104;ESCUELA EP N°1;9 DE JULIO 268;871;7;10
2;5;104;ESCUELA EP N°2;ITALIA 450;871;11;14
2;5;104;ESCUELA ES N°1;P.N.CARRERO 792;871;15;20
2;5;104;ESCUELA EP N°3;RUTA PROVINCIAL N°85;871A;21;21
2;5;104;ESCUELA EP N°4;ZONA RURAL-CTE.8°;871B;22;22
2;5;104;ESCUELA EP N°11;ZONA RURAL-CTEL.9°;871C;23;23
2;5;104;ESCUELA EP N°1;9 DE JULIO 268;871D;24;24
2;5;111;ESCUELA EP N°53;ANA TWEESDALE 1220;933;5;11
2;5;111;ESCUELA ES N°10/ EP N°68;AV.SANTAMARINA 851;933;12;27
2;5;111;ESCUELA EST N°2;LEANDRO N.ALEM 285;933;28;37
2;5;111;ESCUELA EP N°1/ES N°1 ANEXO;M. BELGRANO 557;933;44;59
2;5;111;ESCUELA EST N°3;H.YRIGOYEN 636;933;60;67
2;5;111;COLEGIO SAN JOSE;MAIPU 450;933;68;74
2;5;111;ESCUELA EP N°11;MACHADO 640;933;83;90
2;5;111;ESCUELA EP N°34;CONSTITUCIÓN 1465;933;91;98
2;5;111;ESCUELA EP N°37/ES N° 18;11 DE SETIEMBRE 1461;933;99;105
2;5;111;ESCUELA EP N°5;AV.MARCONI 1550;933;106;111
2;5;111;ESCUELA EP N°2;AV.ESPAÑA 851;933;112;123
2;5;111;COLEGIO SAGRADA FAMILIA;PAZ 682;933;128;139
2;5;111;ESCUELA ES N°2;URQUIZA 250;933;150;154
2;5;111;ESC.SEC.ESPECIALIZ.EN ARTE N°1;4 DE ABRIL 687;933;155;160
2;5;111;ESCUELA EP N°7;AV.ESPAÑA 2;933;161;167
2;5;111;ESCUELA ES N°8;4 DE ABRIL 890;933;168;182
2;5;111;ESCUELA ES N°1;FUGL 601;933;183;192
2;5;111;ESCUELA BRIG.M.RODRIGUEZ (EP);AVDA.MARCONI 1700;933;193;204
2;5;111;ESCUELA EP N°21/ ES N°2 ANEXO;AMEGHINO 355;933;205;219
2;5;111;ESCUELA EP N°14;ENTRE RIOS 522;933;220;229
2;5;111;COLEGIO DE LA SIERRA;MITRE 338;933;236;245
2;5;111;ESCUELA EST N°5;AV.PTE.PERON 937;933;246;250
2;5;111;COLEGIO SAN IGNACIO;CARLOS GARDEL 1661;933;251;256
2;5;111;COLEG.STO.DOMINGO EN LA SIERRA;POZOS 635;933;257;259
2;5;111;ESCUELA ES N°20;AV.RIVADAVIA 102;933;260;263
2;5;111;ESCUELA ES N°7;SAENZ PEÑA 2154;933;264;269
2;5;111;ESCUELA EP N°25;CHAPALEOFU Y PUJOL;933;270;275
2;5;111;ESCUELA EP N°22/ ES N°15;AV.JUAN B.JUSTO 874;933;276;284
2;5;111;ESCUELA EP N°36/ ES N° 17;DANTE ALIGHIERI 590;933;285;294
2;5;111;ESCUELA EP N°42;CHEVERRIER 222;933;1;4
2;5;111;ESCUELA EP N°47/ES N°4 ANEXO;UGALDE N°1457;933;230;235
2;5;111;ESCUELA EP N°59;INDEPENDENCIA 2740;933;75;82
2;5;111;ESCUELA EP N°67;RIVAS Y COLOMBIA;933;38;43
2;5;111;ESCUELA ES N°19/ EP N°58;CABRAL 629;933;124;127
2;5;111;ESCUELA ES N°4;COLECTORA NORTE 2094;933;140;149
2;5;111;ESCUELA EP N°44/EST SENILLOSA;LOS ARRIEROS S/N;934;295;295
2;5;111;ESCUELA EP N°23;ESTACION IRAOLA S/N;935;296;296
2;5;111;ESCUELA EP N°17;RUTA 30 S/N°;936;297;297
2;5;111;ESCUELA EP N°13;AVELLANEDA 477;937;298;303
2;5;111;ESCUELA EP N°28/ES N°12;LOS CEIBOS S/N;938;304;304
2;5;111;ESCUELA EP N°15;AV. DEL TRABAJADOR RURAL S/N;939;305;305
2;5;111;ESCUELA EP N°19;9 DE JULIO N°616;940;306;307
2;5;116;ESCUELA EP N°1;BELGRANO N°302;951;4;6
2;5;116;ESCUELA ES N°1;BELGRANO 348;951;1;3