province;section;town;name;address;borough;startBoard;endBoard
2;3;3;ESCUELA ES N°11/ES N°13;ESTEBAN ADROGUE Y AV.ESPORA 1300;17;1;11
2;3;3;COLEGIO NTRA.SEÑORA DEL CARMEN;PLAZA BROWN 68;17;24;31
2;3;3;COLEGIO IRLANDES;ESTRADA 151;17;50;54
2;3;3;ESCUELA EP N°6;SEGUI 710;17;55;64
2;3;3;ESCUELA EP N°12/ES N°32;JORGE 447;17;65;70
2;3;3;ESCUELA EP N°16/ES N18;BYNNON 1455;17;32;38
2;3;3;ESCUELA EP N°5;AMENEDO 1281;17;39;45
2;3;3;ESCUELA ES N°12;ESPORA 1428;17;12;23
2;3;3;COLEGIO PARROQ.STELLA MARIS;NOTHERN 230;17;46;49
2;3;3;ESCUELA ES N°31/EP N°7;FERRE 479;18;71;81
2;3;3;ESCUELA EP N°27;ECHEVERRIA 44;18;82;91
2;3;3;ESCUELA ES N°1;SANCHEZ 2350;18;92;101
2;3;3;INSTITUTO MODELO MARMOL;BYNNON 2355;18;117;124
2;3;3;INSTITUTO REGINA APOSTOLARUM;REPUBLICA ARGENTINA 1414;18;125;130
2;3;3;COLEGIO ROSARIO VERA PEÑALOZA;AMENEDO 2440;18;134;140
2;3;3;ESCUELA EDUC.ESPECIAL N°506;SGO.DEL ESTERO 985;18;131;133
2;3;3;JARDIN DE INFANTES N°905;MOLINA 750;18;108;113
2;3;3;JARDIN DE INFANTES N°947;CANALE 2514;18;114;116
2;3;3;ESCUELA ES N°18;ROSALES 1980;18;141;146
2;3;3;COLEGIO SECUNDARIO DE LA REINA;BYNNON 2303;18;150;152
2;3;3;ESCUELA ESPEC.NUEVO AMANECER;ROSALES 3180;18;153;156
2;3;3;ESCUELA ES N°22;BYNNON 3781;18;102;107
2;3;3;ESCUELA EP N°14;BYNNON 3781;18;147;149
2;3;3;ESCUELA EP N°15/ES N°40;LA TORCAZA 849;18A;157;168
2;3;3;ESCUELA EP N°18;LA PAMPA 755;18A;169;180
2;3;3;ESCUELA EP N°36;PASAJE CHILE 6435;18A;186;197
2;3;3;ESCUELA EP N°32/ES N°61;CATAMARCA 2310;18A;206;217
2;3;3;ESCUELA EP N°48;SAN JUAN 1903;18A;218;224
2;3;3;ESCUELA EP N°72/ES N°60;SANTA ANA E/MURATURE Y RAMIREZ;18A;225;240
2;3;3;ESCUELA EP N°76/ES N°64;PIEDRABUENA 5775;18A;241;253
2;3;3;ESCUELA EDUC.ESPECIAL N°505;COLON 3534;18A;303;307
2;3;3;ESCUELA ESB N°59/EP N°71;SAN JUAN 1718;18A;254;261
2;3;3;ESCUELA ESB N°59/EP N°71;SAN JUAN 1718;18A;286;287
2;3;3;INSTITUTO VIDA CRISTIANA(EP);JORGE 4813;18A;270;280
2;3;3;ESCUELA ES N° 15;LA CALANDRIA 1151;18A;262;269
2;3;3;ESCUELA ESB N°67;ROSALES E/MENDOZA Y SAN JUAN;18A;281;283
2;3;3;JARDIN DE INFANTES N°949;LA CALANDRIA N° 1109;18A;284;285
2;3;3;JARDIN DE INFANTES N°955;RAMIREZ 5770;18A;288;290
2;3;3;ESCUELA ES N°63/EP N°58;EL GORRION 2766;18A;293;298
2;3;3;ESCUELA ES N°50;RIO NEGRO 756;18A;181;185
2;3;3;JARDIN DE INFANTES JUANA MANSO;ALVEAR 4743;18A;291;292
2;3;3;JARDIN DE INF.VALENTINA VERDUC;VERTIZ 4666;18A;299;302
2;3;3;ESCUELA EP N°58/ES N°47;PTE.ILLIA 5655;18A;198;205
2;3;3;ESCUELA EP N°53/ES N°56;CERRETTI 2275;19;308;316
2;3;3;ESCUELA EP N°22/EM N°9;AZOPARDO 2675;19;317;325
2;3;3;INSTITUTO MANTOVANI;MANTOVANI 672;19;326;333
2;3;3;ESCUELA EP N°40/ESB N°72;OLEGARIO ANDRADE 2754;19;334;345
2;3;3;ESCUELA EP N°25;ARTURO ILLIA 2198;19;346;352
2;3;3;ESCUELA EP N°63;2 DE ABRIL 2910;19;353;361
2;3;3;ESCUELA EP N°54;COLON 3382;19;362;373
2;3;3;ESCUELA EP N°46/ES N°62;SAN MARCOS 1735;19;382;392
2;3;3;INSTITUTO JUAN PABLO I;PTE PERON N°3240;19;397;402
2;3;3;ESCUELA EP N°19/ES N°78;EL CHIRIPA 623;19;403;414
2;3;3;ESCUELA EP N°50/ES N°27;ITALIA 1759;19;415;425
2;3;3;ESCUELA ES N°9;SARMIENTO 2189;19;430;440
2;3;3;INSTITUTO ALMAFUERTE;FALUCHO 3220;19;441;443
2;3;3;ESCUELA EP N°44;BALBOA N°3300;19;444;455
2;3;3;ESCUELA EP N°28;PARANA 190;19;456;465
2;3;3;ESCUELA ES N°14;SARCIONE 2639;19;466;476
2;3;3;ESCUELA EP N°42/ES N°29;J.HERNANDEZ 3486;19;525;535
2;3;3;ESCUELA EP N°52/EES N°41;CRUZ DEL SUR N°1272;19;487;497
2;3;3;ESCUELA EP N°78/ES N°38;O.RICO Y MORGANTI S/N°;19;498;506
2;3;3;ESCUELA EP N°80/ES N°46;ACOSTA VILLAFAÑE N°642;19;477;486
2;3;3;ESCUELA ES N°28;CAPILLA DEL SEÑOR 1656;19;507;512
2;3;3;COLEGIO EL BOSQUE;AVDA.SAN MARTIN 3883;19;513;518
2;3;3;INSTITUTO CERVANTES;CERVANTES 3380;19;558;562
2;3;3;NUEVO COLEGIO BURZACO;OLLEROS 1118;19;519;524
2;3;3;ESCUELA EP N°41;CALLE 26 MANZANA 21;19;536;547
2;3;3;COLEGIO DEL SALVADOR;ALEM 2447;19;374;381
2;3;3;COLEGIO JOSE MANUEL ESTRADA;AV.SAN MARTIN 3701;19;548;557
2;3;3;ESCUELA ES N°30;RIO LIMAY(EX 9) N° 1062;19;426;429
2;3;3;COLEGIO NTRA.SRA.DE LOURDES;ALSINA 3100;19;393;396
2;3;3;ESCUELA EP N°3;25 DE MAYO 876;20;563;570
2;3;3;ESCUELA ES N°17;PETORUTTI 1705;20;582;585
2;3;3;ESCUELA EP N°13;R.ROJAS 1252;20;586;594
2;3;3;ESCUELA ES N°43;BERMUDEZ 970;20;571;574
2;3;3;ESCUELA INMACULADA CONCEPCION;COLON 444;20;608;618
2;3;3;COLEGIO SAN JOSE;ESPORA 3355;20;619;628
2;3;3;ESCUELA EP N°2/ES N°39;PTE. PERON (EX GORRITI) 367;20;639;647
2;3;3;ESCUELA EP N°30/ES N°44;BUNGE 3402;20;648;655
2;3;3;ESCUELA EP N°34;RETIRO ESQ ITUZAINGO;20;656;660
2;3;3;ESCUELA EP N°59;SAN PABLO 1966;20;606;607
2;3;3;ESCUELA ES N°2;PELLEGRINI 497;20;595;605
2;3;3;ESCUELA AMANCIO ALCORTA;A.ALCORTA 980;20;634;638
2;3;3;ESCUELA EP N°77/ES N°45;COMB.MTE.SANTIAGO N° 636;20;575;581
2;3;3;COLEGIO DE LA CAMPIÑA;ROCA N° 1225;20;629;633
2;3;3;ESCUELA EP N°17;P.ECHAGUE 347;20A;661;670
2;3;3;ESCUELA EP N°20;SAN PABLO 1235;20A;736;742
2;3;3;ESCUELA EP N°39/ESBC N°42;INT.PINTOS 2125;20A;671;679
2;3;3;ESCUELA ES N°6;RETIRO 1550;20A;680;688
2;3;3;ESCUELA EP N°61;POLONIA 2617;20A;698;706
2;3;3;ESCUELA EP N°49;YATAY Y ALGARROBO S/N°;20A;710;715
2;3;3;ESCUELA EP N°56/ES N°24 ANEXO;ARENALES 2306;20A;722;727
2;3;3;COLEGIO PRESB. A.RIPARI(EP/ES);VIDAL Y VIERA;20A;716;721
2;3;3;ESCUELA EP N°55/ES N°51;PRIETO 1100;20A;728;735
2;3;3;ESCUELA EDUC.ESPECIAL N°509;POLICASTRO 1477;20A;707;709
2;3;3;ESCUELA ES N°51;PRIETO N° 1119;20A;743;746
2;3;3;ESCUELA ES N°21;ALAMO 3551;20A;689;697
2;3;3;ESCUELA EP N°9/ES N°17;BURGWARDT 1015;21;747;758
2;3;3;COLEGIO JESUS MARIA(EP/ES);13 1525;21;767;778
2;3;3;ESCUELA EST N°1;ARIAS Y BOLIVAR S/N°;21;784;790
2;3;3;ESCUELA EP N°23/ES N°55;AGUIRRE 2650;21;797;806
2;3;3;ESCUELA EP N°26;CAROLA LORENZINI 1846;21;813;819
2;3;3;ESCUELA EP N°47/EM N°10;COIHUE E/FINOCHIETO Y MERCEDES;21;820;827
2;3;3;ESCUELA EP N°37/ES N°26;SCALABRINI ORTIZ 2561;21;834;840
2;3;3;ESCUELA EP N°60/ES N°64;ROSARIO Y BOLIVAR S/N°;21;841;852
2;3;3;ESCUELA EP N°33/ES N°6;LOS STUDS 3339;21;853;862
2;3;3;ESCUELA EP N°43/ES N°23;PTE.CASTILLO 2359;21;883;892
2;3;3;ESCUELA EP N°79/ES N°36;LANGUENHEIN 1616;21;791;796
2;3;3;ESCUELA EP N°21/ES N°76;13 2150;21;863;873
2;3;3;COLEGIO DEL SUR;SARMIENTO 235;21;874;875
2;3;3;ESCUELA ES N°16;T.FELS 2060;21;876;882
2;3;3;ESCUELA EP N°81;ENTRE RIOS 320;21;759;766
2;3;3;ESCUELA ES N°5;PTE.RIVADAVIA 1851;21;893;895
2;3;3;ESCUELA ES N°10;MONTE SANTIAGO 1790;21;896;903
2;3;3;COLEGIO DEL PRADO;RICARDO DAVEL 2020;21;807;812
2;3;3;COLEGIO SAN MARCOS;SARMIENTO 1050;21;779;783
2;3;3;COLEGIO MARIANO MORENO;SAN MARTIN 173;21;828;833
2;3;3;ESCUELA SENDAS VERDES;AV.ESPORA 5298;21A;904;911
2;3;3;ESCUELA EP N°8/ES N°57;LAHILLE E/VUCETICH Y M.ACOSTA;21A;912;919
2;3;3;ESCUELA EP N°11;J.B.JUSTO 887;21A;920;929
2;3;3;ESCUELA EP N°64/ES N°52;LAPRIDA N°337;21A;930;941
2;3;3;ESCUELA EP N°35/ES N°49;R.OBLIGADO 249;22;942;950
2;3;3;COLEGIO PARROQUIAL SANTA ANA;SOLDI Y A.DEL VALLE S/N°;22;951;956
2;3;3;ESCUELA EP N°24;CAMPBELL Y FCO.BEIRO S/N°;22;957;966
2;3;3;ESCUELA EP N°4/ES N°3 ANEXO;A. DEL VALLE 480;22;977;984
2;3;3;ESCUELA EP N°45;FRANKLIN 1313;22;988;995
2;3;3;ESCUELA EP N°62/ES N°50;DI CARLO Y PCIA.DE BS.AIRES;22;996;1007
2;3;3;ESCUELA EP N°69/ES N°57;GORDILLO 2909;22;1014;1019
2;3;3;ESCUELA ES N°7;LIB.GRAL.SAN MARTIN 663;22;1020;1029
2;3;3;ESCUELA EST N°2;CAMPBELL ESQ.FAUSTO;22;967;976
2;3;3;COLEGIO SUPERIOR VICTORIA;JULIAN ALVAREZ 292;22;1030;1040
2;3;3;ESCUELA ES N°3;ALEM 680 Y A.DEL VALLE;22;1008;1013
2;3;3;ESCUELA ES N°59;FRANKLIN 1356;22;985;987
2;3;3;ESCUELA EL AVE MARIA;BOLLINI 451;22A;1041;1052
2;3;3;ESCUELA EP N°68/ES N°48;AV.EVA PERON E/15 Y 17;22A;1053;1060
2;3;3;ESCUELA EP N°66/ES N°54;AV.EVA PERON E/5 Y 9;22A;1071;1081
2;3;3;ESCUELA EP N°70/ES N°54;PJE.CALAFATE 545;22A;1093;1104
2;3;3;ESCUELA EP N°67/ES N°65;PRIMAVERA 5690;22A;1112;1119
2;3;3;ESCUELA EP N°38/EM N°8 ANEXO;SALABERRY E/CHARCAS Y RAWSON;22A;1136;1146
2;3;3;ESCUELA EP N°75;17 E/5 Y 9-MANZ. 23;22A;1151;1155
2;3;3;INSTITUTO SANTA ROSA;AV.LACAZE 5983;22A;1156;1166
2;3;3;ESCUELA ES N°4;MORAN 550;22A;1167;1174
2;3;3;ESCUELA EST N°3;17 DE OCTUBRE 650;22A;1120;1131
2;3;3;ESCUELA EP N°73;LINIERS Y MONTEVERDE S/N°;22A;1175;1186
2;3;3;ESCUELA EP N°74/ES N°66;CALLE 10 ESQ.2-MANZ. 37;22A;1082;1092
2;3;3;ESCUELA ES N°47/EP N°75;CALLE 17 MANZ.23;22A;1132;1135
2;3;3;ESCUELA EP N°10;SALABERRY 1088;22A;1061;1070
2;3;3;CTRO.EDUC.COMPLEMENTARIO N°803;RAWSON Y SALABERRY;22A;1147;1150
2;3;3;INSTITUTO BUENOS AIRES;AMANCIO ALCORTA 3949;22A;1105;1111
2;3;3;INSTITUTO SAN PIO X;AV.LACAZE 3963;22A;1187;1189
2;3;3;ESCUELA EP N°29/ES N°37;NARDO 6406;22B;1190;1200
2;3;3;ESCUELA EP N°57/ES N°46;LA CALANDRIA 3178;22B;1201;1208
2;3;3;INSTITUTO FRAY MAMERTO ESQUIU;ALELI 6596;22B;1209;1218
2;3;3;ESCUELA EP N°51/EES N°58;LA CALANDRIA 2950;22B;1219;1228
2;3;3;ESCUELA ES N°8;SALABERRY 345;22B;1229;1232
2;3;4;E NORMAL SUPERIOR P ALEMANDRI;AV.BELGRANO 355;23;1;10
2;3;4;ESCUELA ES N°13/ES N° 14;BERUTI 263 ESQ.BARCALA;23;11;20
2;3;4;ESCUELA EST N°8;LAVALLE 43;23;21;24
2;3;4;ESCUELA EP N°46;LAVALLE 131;23;25;32
2;3;4;ESCUELA EST N°5;J.B.PALAA 747;23;33;36
2;3;4;ESCUELA EP N°42;BELGRANO 1378;23;37;40
2;3;4;ESCUELA EST N°7;ING.MARCONI 745;24;41;47
2;3;4;ESCUELA EP N°1;AV.BME.MITRE 750;24;53;62
2;3;4;ESCUELA EP N°13;25 DE MAYO 371;24;63;70
2;3;4;INSTITUTO FRENCH;MARCONI 641;24;48;52
2;3;4;ESCUELA EP N°25;SUAREZ 148;25;71;80
2;3;4;ESCUELA EP N°31;LAMADRID 665;25;81;86
2;3;4;SOC.DE FOMENTO CRUCESITA ESTE;RICARDO GUTIERREZ 1374;25;102;103
2;3;4;INSTITUTO PADRE BERISSO;RICARDO GUTIERREZ 1170;25;92;97
2;3;4;SOCIEDAD DE FOMENTO AMEGHINO;25 DE MAYO 851;25;87;89
2;3;4;J.DE INFANTES MUNICIPAL N°21;ESTANISLAO DEL CAMPO 947;25;90;91
2;3;4;ESCUELA ES N°29;OLAVARRIA 248;25;98;101
2;3;4;JARDIN DE INF.MUNICIPAL N°3;ESPEJO 1411;26;115;118
2;3;4;ESCUELA EP N°6;VIEYTES 1590;26;109;114
2;3;4;ESCUELA ES N°24;MONTAÑA 454;26;104;108
2;3;4;ESCUELA EP N°33/ES N°22;ING.HUERGO 1534;27;168;175
2;3;4;ESCUELA EST N°1;L.N.ALEM 1910 ESQ.VERTIZ;27;119;124
2;3;4;ESCUELA EP N°35/ESB N°28;J.MAZZINI ESQ. DE BENEDETTI 1338;27;125;134
2;3;4;ESCUELA EP N°67;CANALEJAS 2053;27;138;143
2;3;4;COLEGIO SAGRADO CORAZON(EP/ES);NICOLAS AVELLANEDA 1240;27;144;149
2;3;4;ESCUELA.EVAG. M.J. MANS(EP Y ES);GONGORA 1014;27;150;154
2;3;4;COLEGIO CRISTO REY;25 DE MAYO 1262;27;155;160
2;3;4;ESCUELA EP N°9;M.ESTEVEZ 1000;27;161;167
2;3;4;JARDIN DE INFANTES N°911;L.N.ALEM 1950;27;135;137
2;3;4;J.DE INFANTES MUNICIPAL N°2;SGTO.PONCE 790;27;176;179
2;3;4;ESCUELA EDUC.ESPECIAL N°502;LEBENSHON 965;30;180;184
2;3;4;ESCUELA ES N°6;GIRIBONE 648;30;185;191
2;3;4;ESCUELA EP N°14;ALDECOA 821;30;192;197
2;3;4;ESCUELA EP N°2;MEJICO 862 ESQ.GUIFRA;31;198;201
2;3;4;ESCUELA EP N°53;PASO DE LA PATRIA 1830;32;202;207
2;3;4;ESCUELA EST N°9;RIVADAVIA 1069;32;208;213
2;3;4;ESCUELA EP N°17/ES N°22;CHILE 159;33;214;221
2;3;4;ESCUELA EP N°41/ES N°5;AV.GALICIA 467;33;222;228
2;3;4;ESCUELA EP N°28;AVDA HIPOLITO YRIGOYEN 1539;33;229;238
2;3;4;COLEGIO BEATA M.ANA DE JESUS;CABILDO 285;33;239;243
2;3;4;ESCUELA ES N°5;AV.GALICIA 467;33;244;247
2;3;4;ESCUELA ES N°4;DONOVAN 1470;34;248;257
2;3;4;ESCUELA EP N°37;LACARRA 1530;34;258;266
2;3;4;ESCUELA EP N°40;CAMPICHUELO 765;34;267;273
2;3;4;ESCUELA EP N°45/ES N°7;CNO.GRAL.BELGRANO 1030;34;283;291
2;3;4;ESCUELA EP N°60;HEREDIA 961;34;292;296
2;3;4;INSTITUTO CENTENARIO DON BOSCO;SALTA 1515;34;297;302
2;3;4;ESCUELA EP N°24;BASAVILVASO 1612;34;303;307
2;3;4;ESCUELA EP N°4;LARRALDE Y VELEZ SARSFIELD;34;277;282
2;3;4;ESCUELA ES N°30;RCA.DEL LIBANO 1519;34;274;276
2;3;4;CLUB SOCIAL Y DEPORTIVO CRAMER;CHENAUT 138;37;308;311
2;3;4;COLEGIO SAINT EXUPERY;IBERA 168;37;315;317
2;3;4;ESCUELA EP N°70/ES N°20;GENOVA 3459;37;321;327
2;3;4;ESCUELA EP N°18/ES N°7;AV.MITRE 2550;37;328;343
2;3;4;COLEGIO SAN PATRICIO;ZEBALLOS 2315;37;344;352
2;3;4;CIRCULO FRIULANO;AV.MITRE 2154;37;355;356
2;3;4;CLUB SOC.Y DEP.VA.BERNASCONI;SALTO 63;37;353;354
2;3;4;JARDIN DE INFANTES N°906;IGUAZU 401;37;357;360
2;3;4;J.DE INFANTES MUNICIPAL N°31;EMILIO ZOLA 3967;37;318;320
2;3;4;INST.SUP.DOC.EMPRES.Y CIENCIAS;AV.ROCA 1632;37;361;364
2;3;4;J.DE INFANTES MUNICIPAL N°4;RAMALLO 130;37;312;314
2;3;4;ESCUELA EP N°10/EEM N°11 ANEXO;AV.MITRE 2985;38;373;385
2;3;4;INSTITUTO NTRA.SRA.DE LORETO;BRANDSEN 3785;38;386;391
2;3;4;ESCUELA EP N°23;ACHA Y PITAGORAS;38;392;401
2;3;4;ESCUELA EP N°36;AV.MITRE 3695;38;402;410
2;3;4;ESCUELA EP N°15/ES N°40;MAGAN 981;38;417;423
2;3;4;ESCUELA SANTO TOMAS;BELGRANO 2695 ESQ.SALTA;38;424;427
2;3;4;ESCUELA ES N°11;AV.MITRE 3073;38;428;438
2;3;4;ESCUELA EST N°4;LAMBARE 645 Y OCAMPO;38;439;449
2;3;4;COLEGIO ENRIQUE RIOPEDRE;AV.BELGRANO 3776;38;450;457
2;3;4;ESCUELA EP N°22/ES N°1;ELIZALDE Y ESQ AV.MITRE S/N;38;458;465
2;3;4;ESCUELA ES N°3;DEHEZA 41;38;466;469
2;3;4;COLEGIO SAN VICENTE DE PAUL;CNO.GRAL.BELGRANO 3250;38;411;416
2;3;4;COLEGIO N.S.DE LA ASUNCION;CTE.SPURR 268;38;369;372
2;3;4;ESCUELA ALAS;ALTE.CORDERO 2266/68;38;365;368
2;3;4;ESCUELA EP N°16/ESB N°6;COMODORO RIVADAVIA 4455;39;477;487
2;3;4;ESCUELA EP N°5;AV.MITRE 4368;39;470;476
2;3;4;ESCUELA EP N°27;CHASCOMUS 975;39;510;519
2;3;4;ESCUELA EP N°64/ES N°44;ALTOLAGUIRRE 452;39;520;525
2;3;4;COLEGIO INMACULADA CONCEPCION;EL SALVADOR 47;39;526;532
2;3;4;ESCUELA EP N°66;GRAL PICO 121;39;533;544
2;3;4;ESCUELA EP N°58;POSADAS E/HEREDIA Y CASACUBERTA;39;545;553
2;3;4;COLEGIO PARROQ.VICENTE SAURAS;BRANDSEN 4976;39;559;564
2;3;4;ESCUELA EST N°2;GRAL.PICO 1305;39;565;574
2;3;4;ESCUELA EP N°59/ES N°31;PIERRES 1250;39;585;595
2;3;4;ESCUELA EP N°32/ES N°23;DE LA SERNA 4655;39;603;612
2;3;4;ESCUELA ES N°9;RAMON FRANCO 5031;39;488;497
2;3;4;INSTITUTO VICTORIA OCAMPO;AV.BELGRANO 4249;39;613;618
2;3;4;ESCUELA EP N°3/ES N°28;ADROGUE 438;39;575;584
2;3;4;ESCUELA EP N°57;PASTEUR 1067;39;596;602
2;3;4;ESCUELA EP N°61/ES N°26;BVARD.DE LOS ITALIANOS 1463;39;498;509
2;3;4;CTRO.EDUC.COMPLEMENTARIO N°126;C.FLORES 4727;39;554;558
2;3;4;ESCUELA EP N°8/ES N°38;MARTIN FIERRO 58;40;619;631
2;3;4;ESCUELA EP N°20/ES N°23;BAHIA BLANCA 585;40;646;654
2;3;4;COLEGIO SALVADOR SOREDA(EP);RODO 1264;40;658;660
2;3;4;ESCUELA EP N°21/EES N°24;LOBOS 161;40;669;674
2;3;4;ESCUELA EP N°50/ES N°1;RAQUEL ESPAÑOL 1465;40;675;684
2;3;4;INSTITUTO SAN IGNACIO;BRAGADO 6552;40;685;694
2;3;4;ESCUELA EP N°52;LAS FLORES 1600;40;695;702
2;3;4;ESCUELA EP N°55/ES N°14;RODO 1150;40;703;714
2;3;4;ESCUELA EP N°63;RONDEAU 1900;40;715;724
2;3;4;ESCUELA ES N°10;LAS FLORES 1600;40;725;736
2;3;4;ESCUELA EP N°43;MERLO 5687;40;737;743
2;3;4;ESCUELA EST N°3;FRIULI Y CAXARAVILLE S/N°;40;744;753
2;3;4;INSTITUTO SAN PABLO;RONDEAU 960;40;754;762
2;3;4;ESCUELA ES N°2;MARTIN FIERRO 590;40;769;774
2;3;4;ESCUELA EP N°51/ES N°25;CAMPICHUELO 6709;40;779;789
2;3;4;ESCUELA EP N°38/ES N°31;N.OROÑO 5950;40;632;639
2;3;4;INSTITUTO SAN DIEGO;BRANDSEN 5871;40;790;796
2;3;4;COLEGIO MODELO JOHN F.KENNEDY;MARTIN FIERRO 567;40;655;657
2;3;4;ESCUELA EP N°69;LYNCH N°800;40;802;810
2;3;4;ESCUELA EST N°6;AV.MITRE 5711;40;640;641
2;3;4;INSTITUTO MARIANO MORENO;AV.ONZARI 662;40;797;801
2;3;4;COLEGIO SAN MIGUEL ARCANGEL;LAS FLORES 964;40;661;668
2;3;4;COLEGIO MODELO PABLO PICASSO;AV.CASEROS 1152;40;775;778
2;3;4;COLEGIO MODELO SARA ECCLESTON;PIRAN 152;40;642;645
2;3;4;CENTRO DE FORMAC.PROFES.N°405;E.ECHEVERRIA 355;40;763;768
2;3;11;ESCUELA EP N°23;9 N°2253 E/122 Y 123;789;90;96
2;3;11;ESCUELA EP N°4;AV.CALCHAQUI 610;789;1;9
2;3;11;ESCUELA EP N°29/ES N°49;10 E/111 Y 112 N°1171;789;10;17
2;3;11;ESCUELA EP N°40;3 E/ 129 Y 129A N°2926;789;21;26
2;3;11;ESCUELA EP N°41/ES N°47;105 ESQ.1 N°167;789;27;34
2;3;11;ESCUELA EP N°33;11 E/108 Y 109;789;35;40
2;3;11;ESCUELA EP N°47/ES N°27;128 ESQ.8;789;50;58
2;3;11;ESCUELA EP N°46/ES N°35;116 Y 4;789;59;66
2;3;11;ESCUELA ES N°6;101 E/8 Y 9;789;41;49
2;3;11;ESCUELA EP N°54;1 E/122 Y 123;789;67;74
2;3;11;INST.DE FORMAC.DOCENTE N°50;3 Y 103;789;75;81
2;3;11;JARDIN DE INFANTES N°938;123 E/1 Y FCIO VARELA N°71;789;18;20
2;3;11;ESCUELA PRIVADA BME.MITRE;114 N°495 ESQ 5;789;82;86
2;3;11;ESCUELA ES N°25;LOS AUTONOMISTAS N°1098;789;87;89
2;3;11;ESCUELA ES N°17;129 N°270 ESQ.3;789;97;103
2;3;11;ESCUELA DEL SOL;125 N°659 E/6 Y 7;789;104;107
2;3;11;ESCUELA EP N°45;"115 Y 21""A""";789A;108;114
2;3;11;ESCUELA EP N°18/ES N°43;124 ESQ.18 N° 1839;789A;115;122
2;3;11;ESCUELA EP N°27;114 Y 18 S/N°;789A;123;131
2;3;11;ESCUELA EP N°32;27 E/106 Y 107;789A;132;139
2;3;11;ESCUELA EP N°30/ES N°32;28 A E/116 A Y 117 A;789A;140;147
2;3;11;ESCUELA EST N°1;119 N°3105;789A;153;160
2;3;11;ESCUELA EP N°49;126 Y 30 N°3001;789A;161;168
2;3;11;ESCUELA EP N°53/ES N°26;AV.DARDO ROCHA Y 18;789A;175;181
2;3;11;ESCUELA EST N°4;111 N°1890 E/18 Y 19;789A;169;174
2;3;11;ESCUELA ES N°19;19 E/111 Y 112 N°1156;789A;182;190
2;3;11;ESCUELA DR.CANULLAN(EP/ES);CNO.GRAL.BELGRANO 2062;789A;148;152
2;3;11;INSTITUTO JESUS DE NAZARETH;15 N°2837;789A;191;193
2;3;11;ESCUELA EP N°8/ES N°21;144 N°1135 E/11 Y 12;789B;194;201
2;3;11;ESCUELA EP N°13;134 N°1338 E/13 Y 14;789B;209;216
2;3;11;ESCUELA EP N°21/ES N°45;137 N°560 E/5 Y 6;789B;217;221
2;3;11;INSTITUTO DR.BRAUN MENENDEZ;MATIENZO 74;789B;202;208
2;3;11;ESCUELA EP N°42;9 N°3143 E/131 Y 132;789B;235;239
2;3;11;COLEGIO SECUND.B.RIVADAVIA;142 ESQ.11;789B;228;234
2;3;11;ESCUELA EP N°16;133 ESQ.4 S/N°;789B;222;227
2;3;11;ESCUELA EP N°9/ES N°5;148 N°1041 E/10 Y 11;789C;244;252
2;3;11;COLEGIO PARROQUIAL PIO XII;150 N°1243;789C;253;261
2;3;11;ESCUELA EP N°36;9 Y 156 S/N°;789C;270;277
2;3;11;ESCUELA PRIMARIA M.GUEMES;153 N°1010 Y 10;789C;262;269
2;3;11;INSTITUTO MANUEL BELGRANO;151 N°1057;789C;278;283
2;3;11;ESCUELA ES N°14;7 E/AV.MITRE Y 149;789C;284;287
2;3;11;ESCUELA CRISTIANA;BELGRANO 4644;789C;240;243
2;3;11;ESCUELA ES N°11/ESB N°8;9 N°5587;789C;288;292
2;3;11;ESCUELA EST N°3;15 N°5673;789D;293;301
2;3;11;ESCUELA EP N°20;27 N°5948 E/159 BIS Y 160;789D;302;309
2;3;11;ESCUELA EP N°52/ES N° 23;163 N°2381;789D;310;315
2;3;11;ESCUELA EP N°44;155 Y 17 S/N°;789D;316;323
2;3;11;ESCUELA EP N°35;30 E/159A Y 160 S/N;789D;324;331
2;3;11;ESCUELA EDUC.ESPECIAL N°502;159 A ESQ.29 S/N°;789D;339;345
2;3;11;ESCUELA ES N°10;160 Y 3C;789D;332;338
2;3;11;ESCUELA EDUC.ESPECIAL N°501;149 N°2123 E/21 Y 22;789E;384;390
2;3;11;ESCUELA EP N°1;24 N°4975 E/149 Y 150;789E;346;355
2;3;11;ESCUELA EP N°37/ESB N°43;144 E/29 Y 30 S/N°;789E;356;364
2;3;11;ESCUELA ES N°7;24 Y 149 A S/N°;789E;365;373
2;3;11;COLEGIO ATANASIO LANZ(EP/ES);151 N°2639 E/26 Y 27;789E;374;383
2;3;11;ESCUELA EP N°24;133 N°1639;789F;391;394
2;3;11;ESCUELA EP N°26;24 N°3147 E/131 A Y 132;789F;395;401
2;3;11;ESCUELA ES N°13;132 N°1650;789F;402;407
2;3;11;ESCUELA TEC. F.AMEGHINO(EP/ES);138 N°1827;789F;408;412
2;3;11;ESCUELA PRIMARIA L.DA VINCI;144 N°1850 E/18 Y 19;789F;413;418
2;3;11;INSTITUTO JOSE M.ESTRADA;144 N°1533;789F;419;426
2;3;11;ESCUELA EP N°6;304 N°1438 E/364 Y 365;790;427;435
2;3;11;ESCUELA PRIVADA RANELAGH;AV.EVA PERON Y 366 S/N°;790;452;454
2;3;11;ESCUELA EP N°38;AV.MILAZZO Y 368;790;455;462
2;3;11;ESCUELA EST N°5;368B ESQ.316;790;438;445
2;3;11;ESCUELA EP N°50;371A E/312 Y 313;790;446;451
2;3;11;INSTITUTO PADRE MARQUEZ;AV.PADRES MERCENARIOS 49;790;463;468
2;3;11;COLEGIO NUESTRA SEÑORA;360 E/311 Y PLATANOS;790;469;477
2;3;11;JARDIN DE INFANTES N°933;MILAZZO 1763 E/133A Y 137;790;436;437
2;3;11;ESCUELA ES N°2;304 E/364 Y 365;790;478;483
2;3;11;ESCUELA EP N°10;213 N°4458;790A;484;485
2;3;11;ESCUELA EP N°34/ES N°50;253 E/202 Y 203;790A;491;498
2;3;11;ESCUELA EP N°3/ES N°1;226 E/AV.VERGARA Y 259 N°950;790A;499;505
2;3;11;ESCUELA PRIV.QUINQUELA MARTIN;AV.V.VERGARA 3903;790A;506;511
2;3;11;ESCUELA ES N°20;CNO.GRAL.BELGRANO 4514;790A;486;490
2;3;11;ESCUELA EP N°39;61 E/156 A Y 157 N°5680;792;512;520
2;3;11;ESCUELA EP N°2;54 E/158 Y 159;792;521;529
2;3;11;ESCUELA EP N°15;162 E/61 Y 62 S/N°;792;542;548
2;3;11;ESCUELA EP N°25/ES N°12;56 A Y 150 N°5028;792;549;556
2;3;11;ESCUELA ES N°3;61 N°5756;792;562;566
2;3;11;ESCUELA EP N°48/ES N°30;149 Y 48 S/N°;792;533;541
2;3;11;COLEGIO SAN IGNACIO DE LOYOLA;161 N°6175 E/61 Y 62;792;530;532
2;3;11;ESCUELA EST N°6;150 N°4602 E/46 Y 47;792;557;561
2;3;11;ESCUELA EP N°11;163 Y 83;792;572;573
2;3;11;INSTITUTO GUILLERMO E.HUDSON;55 N°5342 ESQ.153;792;567;571
2;3;11;ESCUELA EP N°7;415 E/454 Y 455 N°1450;792A;574;583
2;3;11;ESCUELA EP N°28;75 E/124 Y 125;792A;584;590
2;3;11;ESCUELA SEC.CARLOS PELLEGRINI;415 N°851 Y 458;792A;600;603
2;3;11;ESCUELA EP N°55/ES N°39;459 E/408 Y 409;792A;591;599
2;3;11;ESCUELA ES N°15;455 N°1595;792A;604;609
2;3;11;ESCUELA PRIMARIA R.PAYRO;458 N°1553;792A;610;614
2;3;11;INSTITUTO SAN PABLO;522 E/619 Y 620;792B;624;627
2;3;11;ESCUELA EP N°12;619 Y 544;792B;636;639
2;3;11;ESCUELA EP N°56/ES N°46;616 N°1353;792B;615;623
2;3;11;ESCUELA ES N°16;537 Y 618;792B;628;635
2;3;11;ESCUELA EP N°31/ES N°31;52 A E/134 Y 135 A;792C;640;648
2;3;11;ESCUELA ES N°4;137 A N°5288;792C;649;657
2;3;11;ESCUELA EP N°14;128 E/55 Y 57;792C;658;666
2;3;11;ESCUELA EST N°2;57 Y 128 N°2850;792C;667;672
2;3;11;ESCUELA EP N°43;51 E/127 Y 128;792C;673;680
2;3;11;ESCUELA ES N°37;127 Y 50 N°5040;792C;681;683
2;3;11;ESCUELA EP N°17;153 N°3811 E/DIAG.B Y C;792D;684;693
2;3;11;ESCUELA EP N°22/ES N°52;158 E/43 Y 44;792D;694;701
2;3;11;INS. B.V.MARIA/COL. MARIA WARD;43 ESQ.157 S/N°;792D;702;707
2;3;11;ESCUELA EP N°51/ES N°29;45 E/AV.PTE.DR.N.KIRCHNER Y 161;792D;708;715
2;3;11;JARDIN DE INFANTES N°901;158 N°4441 E/44 Y 45;792D;716;718
2;3;11;ESCUELA ES N°21;153 N°3811;792D;719;724
2;3;11;INST.PSI.EDUC.ESP.CRECER JUNTO;36 N°5505;792D;725;727
2;3;12;ESCUELA EP N°10;CALLE 74 Y RUTA 15;511;1;5
2;3;12;ESCUELA EP N°18/ESB N°13;CATAMARCA(38) E/175 Y 176;511;6;11
2;3;12;ESCUELA ES N°2;MONTEVIDEO Y 35;511;12;17
2;3;12;ESCUELA EP N°4/ESB N°8;32 Y 169 N°453;512;18;27
2;3;12;ESCUELA EP N°22;32 E/173 Y 173 NORTE;512;28;34
2;3;12;ESCUELA EST N°2;12 Y 169 S/N°;512;35;46
2;3;12;ESCUELA EP N°9/ES N°6;CALLE 2 Y 170;512;47;54
2;3;12;ESCUELA EP N°5;172 N°2450 E/25 Y 26;512;55;66
2;3;12;INSTITUTO CANOSIANO SAN JOSE;166 E/ 11 Y 12;512;67;71
2;3;12;ESC.NTRA.SRA.PERPETUO SOCORRO;167 Y 20 S/N;512;72;77
2;3;12;CTRO.EDUC.COMPLEMENTARIO N°801;MONTEVIDEO 2099;512;78;79
2;3;12;ESCUELA EP N°21;TOLOSA(154) N°1191;513;80;85
2;3;12;ESCUELA EP N°3/EES N°12;COMERCIO(16) N°4298;513;86;95
2;3;12;ESCUELA EP N°7/ES N°11;BRANDSEN(151) N°683;513;96;100
2;3;12;ESCUELA EP N°17;26 N°4190;513;101;108
2;3;12;ESCUELA EP N°6/SB N°10;8 Y 158 N°601;513;109;119
2;3;12;ESCUELA EP N°2;MONTEVIDEO Y 12;513;125;134
2;3;12;ESCUELA EP N°1;MONTEVIDEO 335;513;135;140
2;3;12;ESCUELA ES N°1;10 Y 169 S/N°;513;141;153
2;3;12;INST.CANOSSIANO N.S.DE LORETO;CALLE 144 N°766;513;154;157
2;3;12;ESCUELA EP N°19/ESB N°14;6 E/143 Y 144 S/N;513;158;162
2;3;12;INST.SAN FRANCISCO DE ASIS;153 N°1158;513;163;165
2;3;12;ESCUELA DE ESTETICA N°1/ESC. DE ARTE;MONTEVIDEO Y GUAYAQUIL;513;120;124
2;3;12;ESCUELA EP N°24;122 E/80 Y 81;513A;166;169
2;3;12;ESCUELA EP N°8;63 N°454;513A;180;188
2;3;12;ESCUELA EP N°14/ES N°13;96 Y 126;513A;189;200
2;3;12;ESCUELA EST N°1;122 E/80 Y 81;513A;201;213
2;3;12;ESCUELA EDUC.ESPECIAL N°502;127 E/38 Y 39;513A;218;221
2;3;12;ESCUELA ES N°3;60 Y 123;513A;214;217
2;3;12;ESCUELA EP N°25/ES N°4;126 N°2228 ESQ.89;513A;170;179
2;3;15;ESCUELA EP N°1;SAN MARTIN Y LAS HERAS S/N;148;1;10
2;3;15;INST.SANTA RITA DE CASCIA;FERRARI 366;148;11;19
2;3;15;ESCUELA EP N°10/ISFD N°49;SAENZ PEÑA 1275;148;20;29
2;3;15;ESCUELA EP N°8;CASTELLI Y M.FAIT;148;30;34
2;3;15;ESCUELA SANTA RITA;MITRE 351;148;52;54
2;3;15;ESCUELA EST N°1;119 N°3421;148;43;51
2;3;15;ESCUELA ES N°1;PASO 210;148;35;42
2;3;15;ESCUELA ES N°1;PASO 210;149;55;55
2;3;15;ESCUELA EP N°3;SAN MARTIN 409;150;56;61
2;3;15;ESCUELA EP N°7/ES N°7;TRUCCO/CHABAGNO-BELGRANO;151;62;64
2;3;15;ESCUELA EP N°4;SEBASTIAN ECHEVERRIA S/N°;152;65;65
2;3;15;ESCUELA EP N°2;MISFELDER Y LINARI;153;66;66
2;3;15;ESCUELA EP N°14/ES N°6;RT.2 KM.92-PJE.LA POSADA;153A;67;67
2;3;17;ESCUELA EP N°1;DEL CARMEN 517;157;1;6
2;3;17;ESCUELA EP N°27;MORENO 317;157;7;11
2;3;17;ESCUELA EP N°11;TUCUMAN 295;157;15;19
2;3;17;ESCUELA EP N°32;RIVADAVIA 467;157;20;23
2;3;17;COLEGIO SANTA MARIA (SEC);DEL CARMEN 441;157;24;26
2;3;17;ESCUELA ES N°3/EXT 2030;LIBERTAD 1208;157;27;32
2;3;17;ESCUELA EST N°1;BASAVILBASO 253;157;33;40
2;3;17;ESCUELA EP N°15/ES N°12 ANEXO;H.YRIGOYEN 1142;157;41;46
2;3;17;ESCUELA EP N°3;MANUEL ACUÑA Y MATHEU S/N;157;57;66
2;3;17;ESCUELA EP N°34/ES N°4;GODOY CRUZ 383;157;72;76
2;3;17;JARDIN DE INF.SAGRADA FAMILIA;BASAVILBASO 331;157;79;80
2;3;17;ESCUELA EDUC.ESPECIAL N°501;AZCUENAGA 581;157;67;71
2;3;17;ESCUELA ES N°3;MITRE Y MOZOTEGUY;157;12;14
2;3;17;ESCUELA ES N°2;REMEDIOS DE ESCALADA 215;157;47;56
2;3;17;ESCUELA EP N°24/ES N°12;SAN JUAN 2450;157;77;78
2;3;17;ESCUELA EP N°17/ES N°10;RUTA 205 Y BROWN;158;81;86
2;3;17;ESCUELA EP N°14/ES N°14;URQUIZA RUTA 205 KM.59,500;158;87;89
2;3;17;ESCUELA EP N°6;SAN EDUARDO 110;158A;99;106
2;3;17;ESCUELA ES N°1;SAN MARTIN Y PEREDA;158A;90;98
2;3;17;ESCUELA EP N°16/ES N°5;G.DE LA VEGA Y SAN MARTIN;158B;107;112
2;3;17;ESCUELA EP N°33;OMBU Y ACACIA;158B;113;118
2;3;17;ESCUELA EP N°4;J.DE SAN MARTIN 859;159;119;122
2;3;17;ESCUELA EP N°8/ES N°3 ANEXO;RUTA 3 KM.76,5;160;123;123
2;3;17;ESCUELA EP N°9/ES N°7;PANAMA Y RTA.16;161;124;124
2;3;17;ESCUELA EP N°9/ES N°7;RUTA 16 S/N;162;125;125
2;3;34;ESCUELA EP N°5/ES N°4;126 Y 46 S/N;490;1;11
2;3;34;CTRO.EDUC.COMPLEMENTARIO N°802;37 E/126 Y 127;490;12;17
2;3;34;ESCUELA EP N°14;126 E/38 BIS Y 39;490;18;24
2;3;34;ESCUELA EP N°16;DIAG.74 ESQ 530;490;25;30
2;3;34;JARDIN DE INFANTES N°903;126 E/46 Y 47;490;31;33
2;3;34;ESCUELA EP N°1/ES N°8;DR.SIDOTTI 474;491;34;44
2;3;34;ESCUELA ES N°1;BRASIL Y EVA PERON;491;45;57
2;3;34;ESCUELA EP N°2/ES N°9;ALMAFUERTE E ITALIA;491;58;65
2;3;34;ESCUELA EP N°3;SAN MARTIN 761;491;66;74
2;3;34;ESCUELA EP N°4;H.CESTINO 901;491;75;79
2;3;34;ESCUELA EST N°2;H.CESTINO Y GUEMES S/N;491;80;88
2;3;34;ESCUELA EP N°9;HARAMBOURE Y LINIERS N°717;491;92;97
2;3;34;ESCUELA EP N°11;QUINTA Y URUGUAY;491;98;104
2;3;34;ESCUELA MARIA AUXILIADORA;A.DEL VALLE 411;491;105;108
2;3;34;ESCUELA EST N°1;ECUADOR N°686;491;109;116
2;3;34;ESCUELA EP N°13;J.V.GONZALEZ Y MOSCONI;491;117;120
2;3;34;ESCUELA EP N°15/CEA N°704;G.CACCINO Y SANTA FE;491;89;91
2;3;34;ESCUELA ES N°6;A. ILLIA E7 SAENZ PEÑA Y GUEMES;491;121;123
2;3;34;ESCUELA EP N°6;AV.ALTE.BROWN COLUMNA 196;491A;124;133
2;3;34;ESCUELA EP N°7;14 ESQ.5;491A;144;150
2;3;34;ESCUELA ES N°2;AV.ALTE.BROWN COLUMNA 189;491A;134;143
2;3;34;ESCUELA EP N°8;ISLA MONTE SANTIAGO;492;151;151
2;3;36;ESCUELA EP N°42/ES N°27;COPACABANA 1455;286;1;8
2;3;36;JARDIN DE INFANTES N°926;ELIZALDE 6886;286;9;11
2;3;36;ESCUELA ES N°16;STA.MAGDALENA Y CNIA.MONTE GRANDE;286A;12;17
2;3;36;ESCUELA EP N°50;PALLEROS 866;286A;18;28
2;3;36;ESCUELA EP N°10/SB N°26;ING.HUERGO N°6100;286A;71;80
2;3;36;ESCUELA EP N°43;FORTUNATO LOPEZ 929;286A;42;48
2;3;36;INSTITUTO ALMAFUERTE;RESTELLI 1555;286A;49;52
2;3;36;ESCUELA EP N°11/ES N°16;CNIA.MONTE GRANDE N°5040;286A;57;61
2;3;36;ESCUELA EP N°30/ES N°13 ANEXO;HNOS.PINZON 1896;286A;62;70
2;3;36;ESCUELA EP N°5/SB N°4;57 E/AV.DE MAYO Y PCIA.DE SALTA;286A;29;41
2;3;36;ESCUELA EP N°54;PLUTON 4476;286A;53;56
2;3;36;ESCUELA EP N°56/SB N°22;SIERRA DE AMBATO N°179;286A;81;87
2;3;36;ESCUELA ES N°22;S.DE AMBATO Y L.VERNET;286A;88;91
2;3;36;ESCUELA EP N°51/ES N°43;N.LOPEZ 3200;287;92;103
2;3;36;ESCUELA EP N°3;GUARANI N°2092;287;104;113
2;3;36;ESCUELA EP N°26/SB N°11;CABILDO 537;287;114;129
2;3;36;ESCUELA ENRIQUE DE OSSO (EP/ES);TOMAS EDISON 2800;287;130;136
2;3;36;ESCUELA EP N°12/ES N°21;MAXIMO PAZ N°1300;287;137;145
2;3;36;ESCUELA ES N°8;F.DE TORO Y LAS CINAS CINAS N°2714;287;146;150
2;3;36;INST.PRIVADO LA ESCUELA DE HOY;FRAY M.ESQUIU 1325;287;151;156
2;3;36;ESCUELA EP N°17;EVITA 764;287A;165;173
2;3;36;ESCUELA EP N°33/SB N°31;PARAGUAY 800;287A;192;200
2;3;36;ESCUELA EP N°53/SB N°19;SANTAMARINA 1700;287A;180;188
2;3;36;COLEGIO PRIVADO EL JAGUEL;TILCARA 451;287A;189;191
2;3;36;ESCUELA EP N°20;BERASAIN N°1700;287A;174;179
2;3;36;ESCUELA ESB N°7;BARBARENA 765;287A;157;164
2;3;36;ESCUELA EP N°23;TERRAROSA 3700;287A;201;206
2;3;36;ESCUELA EP N°9/ES N°26;MARIANO CASTEX 1492;287B;207;211
2;3;36;ESCUELA ES N°15;COSTA RICA 1715;287B;212;217
2;3;36;COLEGIO GRILLI CANNING;BVARD.DUPUY 4600;287B;218;220
2;3;36;ESCUELA EP N°48;A.NERVO 2430;287C;221;229
2;3;36;ESCUELA EP N°2/ES N°22;FARO PATAGONIA 2100;287C;230;239
2;3;36;ESCUELA EP N°13;SAN PEDRITO N°1208;287C;240;245
2;3;36;ESCUELA EST N°1;GUEMES 2051;287C;246;251
2;3;36;ESCUELA SB N°34;FRAGA 2758;287C;252;255
2;3;36;ESCUELA EP N°4/ES N°63;VILLEGAS 615;287C;256;261
2;3;36;ESCUELA EP N°39/ES N°31;VILLEGAS 210;287D;262;270
2;3;36;ESCUELA EP N°55;ALVEAR 3376;287D;279;288
2;3;36;ESCUELA EP N°27;LAS ROSAS 75;287D;289;299
2;3;36;ESCUELA ES N°7;PEHUAJO 580;287D;271;278
2;3;36;COLEGIO DEL SOL DE MTE.GRANDE;PISANI N°125;287D;300;308
2;3;36;ESCUELA ES N°33;LAS ROSAS 37;287D;309;314
2;3;36;INSTITUTO PARISH ROBERTSON;PARISH ROBERTSON 159;287D;315;322
2;3;36;INSTITUTO GRILLI;VICENTE LOPEZ 246;288;323;326
2;3;36;ESCUELA EP N°37;M.ACOSTA 385;288;334;347
2;3;36;ESCUELA EP N°14;BVARD.BS.AIRES 690;288;348;357
2;3;36;INSTITUTO EDUCACIONAL MODELO;DR.ANACLETO ROJAS 274;288;358;365
2;3;36;INST.TECNICO DE MONTE GRANDE;ALVEAR 480;288;366;369
2;3;36;ESCUELA ES N°1;ALVEAR Y CARDEZA;288;370;379
2;3;36;ESCUELA EP N°24;ORTEGA 929;288;380;388
2;3;36;INST.SUP.DE FORM.DOCENTE N°35;AMAT 279;288;389;397
2;3;36;ESCUELA EP N°16;ASCASUBI 317;288;327;333
2;3;36;NUESTRA SRA.DE MONTE GRANDE;ALTE.BROWN 559;288;398;401
2;3;36;ESCUELA EP N°6;M.ALEGRE 570;288A;402;410
2;3;36;COLEGIO SAN MARCOS;BENAVIDEZ 323;288A;411;414
2;3;36;ESCUELA ES N°12/ES N°14;NUESTRAS MALVINAS 850;288A;415;426
2;3;36;ESCUELA EP N°21;FRAY M.ESQUIU 950;288A;439;446
2;3;36;ESCUELA EP N°15;BRUZZONE 725;288A;427;438
2;3;36;ESCUELA PRIMARIA PABLO NERUDA;SAN MARTIN 938;288A;447;449
2;3;36;ESCUELA EP N°41/SB N°16;NUESTRAS MALVINAS 2000;288B;450;461
2;3;36;ESCUELA EP N°32/ES N°25;9 DE JULIO 1600;288B;510;516
2;3;36;ESCUELA EP N°46;SARMIENTO 2351;288B;474;483
2;3;36;ESCUELA EP N°7/SB N°24;AV.VERNET 3450;288B;484;491
2;3;36;ESCUELA ES N°5;BENAVIDEZ 3445;288B;492;502
2;3;36;COLEGIO NUESTRAS MALVINAS(EP);AV.LUIS VERNET 1826;288B;462;470
2;3;36;ESCUELA ES N°13;I.MARTIN GARCIA N°1233;288B;503;509
2;3;36;ESCUELA INTI HUASI;AV.FAIR 119;288B;517;524
2;3;36;COLEGIO NUESTRAS MALVINAS(ES);AV.LUIS VERNET 1622;288B;471;473
2;3;36;INSTITUTO ARGENTINA;JORGE NEWBERY 559;291;525;532
2;3;36;ESCUELA EP N°19;L.DE LA TORRE 1549;291;536;547
2;3;36;INSTITUTO MARIANO MORENO (EP);INTENDENTE GALVAN 1678;291;548;557
2;3;36;ESCUELA ES N°6;LISANDRO DE LA TORRE N°1583;291;558;564
2;3;36;INSTITUTO MARIANO MORENO (ES);F.AMEGHINO 1949;291;565;568
2;3;36;COLEG.NUEVOS HORIZONTES ECHEVE;RECONQUISTA 1239;291;533;535
2;3;36;INSTITUTO NTRA.SRA.DE LA PAZ;LAGOS GARCIA 2117;291A;569;572
2;3;36;ESCUELA EP N°47/ES N°18;SARDI 1830;291A;573;582
2;3;36;ESCUELA EP N°8;INDEPENDENCIA 1749;291A;583;590
2;3;36;ESCUELA ES N°3;INDEPENDENCIA 1753;291A;604;607
2;3;36;ESCUELA EP N°18;COLONIA MONTE GRANDE N°2409;291A;608;611
2;3;36;JARDIN DE INFANTES N°909;ALMAFUERTE 990;291A;621;624
2;3;36;COLEGIO LA ANUNCIACION;URBANO GONZALEZ 351;291A;612;620
2;3;36;COLEGIO VICENTA VIDAL;INDEPENDENCIA 1532;291A;591;599
2;3;36;ESCUELA ES N°28;MAXER 1238;291A;625;628
2;3;36;JARDIN DE INFANTES N°930;DE SARRO 179;291A;600;603
2;3;132;ESCUELA EP N°1/ES N°12 ANEXO;FRENCH 630;289;1;12
2;3;132;ESCUELA EP N°25/EMS N° 3011;RACEDO 400;289;17;26
2;3;132;ESCUELA EP N°10;T.FELDS 250;289;27;39
2;3;132;ESCUELA EP N°11;J.M.EZEIZA 616;289;40;50
2;3;132;ESCUELA EP N°9/EMS N°ANEXO;MALV.ARGENTINAS N°1020;289;62;72
2;3;132;ESCUELA EP N°21/ES N°20;AV.MAIPU 752;289;73;85
2;3;132;INSTITUTO TECNICO J.B.PEÑA;RAMOS MEJIA 390;289;86;92
2;3;132;ESCUELA ES N°1;DIEGO LAURE 769;289;93;99
2;3;132;ESCUELA ES N°4;DERQUI N°658;289;100;109
2;3;132;ESCUELA EP N°26/ES N°12;FLORENCIO VARELA 446;289;110;118
2;3;132;ESCUELA EP N°15/ES N°15;J.V.GONZALEZ 48;289;119;128
2;3;132;CTRO.EDUC.COMPLEMENTARIO N°801;LIBERTAD 586;289;13;16
2;3;132;COLEGIO SAN IGNACIO (EP/ES);E.MITRE 277;289;51;61
2;3;132;ESCUELA EP N°4/ES N°17;LOS ROBLES N°6006;289;129;132
2;3;132;ESCUELA EP N°16/ES N°10;GUILARTE 1776;290;133;146
2;3;132;ESCUELA EP N°14/ES N°18;LAS TIPAS 1500;290;153;162
2;3;132;ESCUELA DE EDUC.ESPECIAL N°501;LAS CASUARINAS 745;290;169;174
2;3;132;ESCUELA EP N°13/ES N°21;FORMOSA 484;290;175;180
2;3;132;ESCUELA EST N°1;GOYA 668;290;181;189
2;3;132;ESCUELA EP N°20;RAWSON 468;290;190;200
2;3;132;ESCUELA ES N°6;ZAPALA 453;290;147;152
2;3;132;ESCUELA ES N°8;LOS RAULIES 800;290;163;168
2;3;132;ESCUELA EP N°5;S.BOLIVAR Y LOS PINOS;290;201;210
2;3;132;INSTITUTO JESUS NIÑO EP;PRESBITERO E.E.NATTA 241;290A;211;220
2;3;132;ESCUELA EP N°2/ES N°9;CANALE 480;290A;221;230
2;3;132;ESCUELA EP N°17;LAS HERAS 177;290A;235;245
2;3;132;ESCUELA EP N°23/ES N°7;LAVALLE ESQ BRASIL;290A;246;256
2;3;132;ESCUELA EP N°19/ES N°16;LOS GIRASOLES 301;290A;257;267
2;3;132;ESCUELA EP N°22/ES N°11;HERNANDARIAS 1450;290A;278;287
2;3;132;INSTITUTO MANUEL BELGRANO ES;PRESBITERO E.E.NATTA 241;290A;268;277
2;3;132;INST.SUP.E.J.R.DE VOGLINO;BRANCOLI 530;290A;231;234
2;3;132;ESCUELA EP N°12/ES N°13;CARLOS TEJEDOR 444;290A;288;292
2;3;132;ESCUELA EP N°18/ES N°19;RIO TURBIO E/LAS ANTILLAS/CARABELAS;290B;293;303
2;3;132;ESCUELA EP N°7/EPA N°703;VIGIL 225;290B;313;321
2;3;132;ESCUELA EP N°8/ES N°14;CHACABUCO 1522;290B;322;330
2;3;132;ESCUELA ES N°2;LARREA 640;290B;331;339
2;3;132;ESCUELA EP N°3/ES N°14;ROMA N° 188;290B;304;312
2;3;132;INSTITUTO NIÑO DE BELEN EP/ES;LAS HERAS 632;290B;340;348
2;3;132;ESCUELA DE EDUC.AGRARIA N°1;ROMA 20;290B;349;352
2;3;38;ESCUELA EP N°16;JUAN BARO N°3280;302;1;11
2;3;38;COLEG.N.S.DEL SAGRADO CORAZON;MAIPU 152;302;12;21
2;3;38;INSTITUTO SANTA LUCIA;AV. EVA PERON 3750;302;22;33
2;3;38;ESCUELA EP N°11;AV.SAN MARTIN 3272;302;34;42
2;3;38;ESCUELA ES N°8;AV.SAN MARTIN 2860;302;43;52
2;3;38;ESCUELA EP N°20;VILLAR 3580;302;60;67
2;3;38;ESCUELA EP N°22/ES N°50;PASO DE LOS LIBRES 2299;302;68;77
2;3;38;ESCUELA EP N°1/ES N°24;CHACABUCO 80;302;86;97
2;3;38;INSTITUTO WILLIAMS MORRIS;ESPAÑA N°3056;302;98;107
2;3;38;ESCUELA EP N°13;LAS AMERICAS 453;302;272;278
2;3;38;ESCUELA EP N°15/ES N°28;NEUQUEN 1751;302;121;129
2;3;38;INSTITUTO JESUS MARIA;SUB TTE.OMAR ABRAHAM 2491;302;130;135
2;3;38;ESCUELA EST N°2;PARRILLO N°3023;302;136;144
2;3;38;ESCUELA ES N°23/EP N°21;GUARDIA NACIONAL Y LARREA;302;145;152
2;3;38;ESCUELA EP N°23/ES N°58;GORRITI 258;302;266;271
2;3;38;ESCUELA EP N°28;G. MISTRAL 1725;302;161;167
2;3;38;ESCUELA EP N°32;LA ARGENTINA 589;302;168;179
2;3;38;ESCUELA EP N°37;35 N°707;302;180;186
2;3;38;ESCUELA EP N°40/ES N°52;PILAR 1601;302;108;114
2;3;38;ESCUELA EP N°12/ES N°38;SARRATEA 1260;302;187;196
2;3;38;INSTITUTO SANTO TOMAS;MAGDALENA 2464;302;197;201
2;3;38;ESCUELA EP N°33/ES N°16;BARADERO N° 2402;302;211;220
2;3;38;INSTITUTO MODELO EMMANUEL (EP);ESPOSOS CURIE 635;302;221;226
2;3;38;INSTITUTO SAN JUAN BAUTISTA;BATALLA DE MAIPU 132;302;227;231
2;3;38;ESCUELA ES N°6;H.YRIGOYEN 97;302;289;294
2;3;38;ESCUELA EP N°48/ES N°30;56 N°926;302;232;239
2;3;38;ESCUELA EP N°2;SALLARES N°1800;302;240;249
2;3;38;ESCUELA EP N°67;AV.NOVAK 1019;302;252;259
2;3;38;COLEGIO STO.DOMINGO DE GUZMAN;JUJUY 40;302;260;265
2;3;38;COLEGIO DEL CENTENARIO;LAVALLE 542;302;78;85
2;3;38;COLEGIO SAN MARTIN;ISLAS ORCADAS 1570;302;202;210
2;3;38;INSTITUTO SANTA CATALINA;DARRAGUEIRA 610 ESQ.12;302;153;160
2;3;38;ESCUELA EP N°53/ES N°48;V.DE LA PLAZA 263;302;279;288
2;3;38;INSTITUTO MANUEL BELGRANO(EP);BERUTI 902;302;250;251
2;3;38;ESCUELA ES N°22;A.DIAZ E/BASUALDO Y VILLAR;302;53;59
2;3;38;ESCUELA EP N°14;AV.SAN MARTIN 1571;302;295;302
2;3;38;ESCUELA EP N°51;ITUZAINGO 2704 Y ALEM;302;115;120
2;3;38;ESCUELA EP N°9;EL ZONDA 1506;302A;312;316
2;3;38;ESCUELA EP N°27/ES N°39;515 N°3303;302A;317;327
2;3;38;ESCUELA EP N°30/ES N°32;LOS LAURELES N°2306;302A;328;340
2;3;38;ESCUELA EP N°44/ES N°34;LA PALOMA 1441;302A;341;353
2;3;38;ESCUELA EP N°49/ES N°45;552 N°1022 E/519 Y 521;302A;354;366
2;3;38;ESCUELA EP N°60/ES N°44;EL APERO 810;302A;367;378
2;3;38;ESCUELA ES N°11;LA TRANQUERA 1622;302A;379;388
2;3;38;ESCUELA EP N°52;MONTEVERDE 5849;302A;389;397
2;3;38;ESCUELA EP N°62;LA TRANQUERA N°1674;302A;398;410
2;3;38;ESCUELA EP N°68;447 E/MONTEVERDE Y 400 N°41;302A;411;415
2;3;38;INSTITUTO SAN JORGE;B.PARERA N°816;302A;303;311
2;3;38;ESCUELA EP N°43;ROMA 664;302B;441;446
2;3;38;ESCUELA EP N°19/ES N°31;ANDORRA 137;302B;416;427
2;3;38;ESCUELA EP N°41;SICILIA 1742;302B;428;440
2;3;38;ESCUELA ES N°3;MADRID 961;302B;447;456
2;3;38;ESCUELA EP N°63;GRAN CANARIAE/BUDAPEST Y BONN 136;302B;457;463
2;3;38;ESCUELA ES N°10;SICILIA 1820;302B;464;473
2;3;38;ESCUELA EP N°69;BRUSELAS E/GRECIA Y CHEC. N° 2008;302B;474;480
2;3;38;COLEGIO SANTA LUCIA;FLORIDA 240;302C;481;490
2;3;38;ESCUELA EP N°3/EES N°45;AV.EVA PERON Y NICASIO OROÑO;302C;491;504
2;3;38;ESCUELA EP N°10/EES N°59;FLORIDA 309;302C;505;514
2;3;38;ESCUELA EP N°25/ES N°18;RIO BERMEJO 1110;302C;551;559
2;3;38;ESCUELA EP N°47/ES N°43;SAN PABLO 1791;302C;515;524
2;3;38;ESCUELA EP N°46/ES N°27;RIO BERMEJO 1839;302C;525;537
2;3;38;ESCUELA EP N°6/ES N°7;RIO TRAFUL Y ROSARIO S/N°;302C;538;550
2;3;38;ESCUELA EP N°58;107 N°3181;302C;560;568
2;3;38;INST.PRIV.MALVINAS ARGENTINAS;AV.CARIBONI 1098;302C;569;571
2;3;38;INST.SUP.FORMAC.DOCENTE N°54;BULNES 30;302D;572;583
2;3;38;ESCUELA EP N°17;SAN JOSE 1374;302D;594;609
2;3;38;COLEGIO JULIO CORTAZAR;SGO.DEL ESTERO N°1045;302D;610;615
2;3;38;ESCUELA ES N°4;LEON XIII N°960;302D;584;593
2;3;38;ESCUELA ES N°26;NUEVA DELHI 1373;302D;616;621
2;3;38;ESCUELA EP N°38/ES N°63;D'ANNUNCIO 772;302E;622;632
2;3;38;ESCUELA EP N°26/ESB N°14;CONCORDIA Y OLAVARRIA N°1262;302E;633;646
2;3;38;ESCUELA EP N°29/ES N°35;RUTA PROVINCIAL 36 KM.31,500;302E;717;726
2;3;38;ESCUELA EP N°34/ES N°13;BRANDSEN S/N;302E;647;655
2;3;38;ESCUELA EP N°18;HUGO WAST 502;302E;656;667
2;3;38;ESCUELA EP N°39;PERDRIEL 499;302E;673;685
2;3;38;ESCUELA EST N°1;LUGONES 2149;302E;686;698
2;3;38;ESCUELA EP N°50/ES N°16;BATALLA DE ONCATIVO 2691;302E;699;708
2;3;38;ESCUELA EP N°24/ES N°63;NAVARRO N°1075;302E;709;716
2;3;38;ESCUELA ES N°2/EP N°66;CONCORDIA 1290;302E;733;742
2;3;38;ESCUELA EP N°57;907 A N°1524;302E;668;672
2;3;38;ESCUELA EP N°55;J.HERNANDEZ 924;302E;727;732
2;3;38;ESCUELA EP N°59/ES N°62;L.DE LA TORRE 2646;302E;743;749
2;3;38;ESCUELA EP N°36/ES N°60;1423 N°161;302F;750;764
2;3;38;ESCUELA EP N°8/ES N°15;RUTA 53 Y BS.AIRES S/N°;303;765;772
2;3;38;ESCUELA ES AGRARIA N°1;RUTA 53 KM.13,500;303;773;776
2;3;38;ESCUELA EP N°5/ES N°55;AV.DE LOS INMIGRANTES 3574;303A;777;785
2;3;38;ESCUELA EP N°61/ESB N°17;1323 N°2435;303A;786;796
2;3;38;COLEGIO LELOIR;AV.EVA PERON 14500;303A;797;801
2;3;38;ESCUELA EP N°35;1209 E/1274 Y 1276;303B;802;814
2;3;38;ESCUELA EP N°31;CIUDADELA 1105;303B;821;831
2;3;38;JARDIN DE INFANTES N°906;AV.ANTARTIDA ARGENTINA 1512;303B;815;820
2;3;38;ESCUELA EST N°3;1201 N°4401;303B;832;843
2;3;38;ESCUELA EP N°7;(1148A)SALTA E/PERU Y BOLIVIA;303B;844;855
2;3;38;ESCUELA EP N°45/ESB N°341;1280 N°699;303B;856;868
2;3;38;ESCUELA ES N°17;OLIVOS 2565;303B;869;874
2;3;61;COLEGIO EVANGELICO ARGENTINO;DR. ARIETA 1787;626;107;113
2;3;61;ESCUELA MODELO D.E.V.O.N;ARIETA 1175;626;12;17
2;3;61;ESCUELA ES N°49/EP N°192/ISFD N°106;ILLIA 2430;626;18;27
2;3;61;ESCUELA EP N°1/ES N°11 ANEXO;H.YRIGOYEN 2462;626;28;39
2;3;61;ESCUELA EP N°142;SALTA 2309;626;40;49
2;3;61;ESCUELA PARROQUIAL SAN JUSTO;PICHINCHA 3040;626;59;68
2;3;61;COLEGIO SANTA ROSA DE LIMA;VILLEGAS 2471;626;69;75
2;3;61;INSTITUTO EDUCAC.ALMAFUERTE;GRAL.OCAMPO 3052;626;83;89
2;3;61;ESC.EVANG. BAUTISTA J.FORIO;JUJUY 3026;626;90;94
2;3;61;ESCUELA EST N°4;VILLEGAS 2231;626;102;106
2;3;61;ESCUELA EST N°3;SALTA 2487;626;114;121
2;3;61;ESCUELA ES N°20;SALTA 2433;626;127;134
2;3;61;ESCUELA EP N°48/ESB N°139;RAMON L.FALCON 2705;626;135;144
2;3;61;ESCUELA EP N°79/ES N° 63;ENTRE RIOS 1915;626;145;149
2;3;61;ESCUELA EP N°101;MIRO 1834;626;150;154
2;3;61;ESCUELA EP N°140/ESM N°5;RIVERA INDARTE 968;626;76;82
2;3;61;ESCUELA EP N°16/ESB N°185;GARIBALDI 2449;626;50;58
2;3;61;ESCUELA ES N°5;BERMUDEZ 2936;626;1;4
2;3;61;ESCUELA EP N°104;CARRASCO 1476;626;5;11
2;3;61;ESCUELA ES N°11;ALMAFUERTE 3254;626;95;101
2;3;61;ESCUELA EP N°53/ES N°97;CERVIÑO 3497;626;122;126
2;3;61;INSTITUTO LA PAZ (EP Y ES);LEZICA 3384;626A;155;161
2;3;61;ESCUELA ES N°148/EP N°65;LISBOA 1929;626A;162;173
2;3;61;ESCUELA EP N°44;COLONIA 2587;626A;180;189
2;3;61;ESCUELA EP N°15/ES N°165;LASCANO 6213;626A;190;201
2;3;61;COLEGIO LA INDEPENCIA ARGENTIN;JEAN JAURES 5776;626A;202;205
2;3;61;INSTITUTO CATAMARCA;CARRILLO 5925;626A;206;209
2;3;61;INST.PARRQ. STA.MARIA(EP Y ES);MADRID 2742;626A;210;212
2;3;61;ESCUELA EP N°89;FITZ ROY 4227;626A;217;225
2;3;61;ESCUELA EP N°73;CENTENERA 2871;626A;226;233
2;3;61;ESCUELA EP N°170;PUJOL 1985;626A;234;237
2;3;61;ESCUELA EP N°35/ES N°198;DOLORES 3950;626A;238;247
2;3;61;ESCUELA EP N°100;FIGUEROA ALCORTA 3396;626A;248;256
2;3;61;ESCUELA EP N°176;PEDRO LEON GALLO 1765;626A;213;216
2;3;61;ESCUELA ES N°31;COLONIA 2135;626A;257;262
2;3;61;COLEG. DEL LIBERTADOR(EP Y ES);BRUSELAS 2157;626A;174;179
2;3;61;ESCUELA EST N°6;CENTENARIO Y RUTA NAC.3 N°3385;626A;263;266
2;3;61;ESCUELA EP N°52;SALALA 1388;627;267;274
2;3;61;ESCUELA EP N°45/ES N°107;J.INDART 998;627;275;281
2;3;61;INSTITUTO PABLO VI;ALVEAR 3168;627;282;289
2;3;61;ESCUELA EP N°143/ES N°57;VENANCIO FLORES 556;627;290;298
2;3;61;JARDIN DE INFANTES N°916;LINIERS 551;627;299;302
2;3;61;ESCUELA ES N°13;AV.BRIG.J.M.DE ROSAS 1313;627;303;313
2;3;61;INST.MOD.S.M.DE LOS ANDES (ES);AV.BRIG.J.M.DE ROSAS 2447;627;314;317
2;3;61;ESCUELA EP N°42/ES N°99;RINCON 2401;628;318;323
2;3;61;ESCUELA ES N°19/EP N°4;AV.DE MAYO 262;628;324;336
2;3;61;ESCUELA EP N°12;URQUIZA 1028;628;337;344
2;3;61;ESCUELA EP N°62;LAMADRID 299;628;345;352
2;3;61;COLEGIO VILFRID BARON;AV.DE MAYO 1902;628;353;364
2;3;61;COLEGIO PARROQ.JUAN XXIII(ES);9 DE JULIO 151;628;458;463
2;3;61;COLEGIO PARROQ.JUAN XXIII(EP);GUEMES 65;628;365;377
2;3;61;ESCUELA ES N°36;MEDRANO 90;628;378;391
2;3;61;COLEGIO RAMOS MEJIA(EP Y ES);ALVARADO 824;628;392;399
2;3;61;ESCUELA EP N°114;F.DE ARANA 750;628;400;407
2;3;61;ESCUELA EP N°29;ONCATIVO 250;628;408;413
2;3;61;COLEGIO NTRA.SRA.DE FATIMA;CERRITO 2345;628;414;425
2;3;61;ESCUELA EP N°86;PRINGLES 2271;628;426;433
2;3;61;ESCUELA JEAN PIAGET (EP);AZCUENAGA 49;628;434;441
2;3;61;ESCUELA SAN MIGUEL (EP);BERON DE ASTRADA 1753;628;442;449
2;3;61;COLEGIO SANTISIMO REDENTOR(EP);TACUARI 449;628;454;457
2;3;61;ESCUELA ES N°126;FELIPE DE ARANA N°728;628;450;453
2;3;61;ESCUELA EST N°12;ITUZAINGO 4089;629;464;469
2;3;61;ESCUELA EP N°82;SEGUNDO SOMBRA 737;629;470;477
2;3;61;ESCUELA EP N°47/ES N°18;FACUNDO 239;629;542;546
2;3;61;ESCUELA EP N°123/ES N°126;SANTANDER 5953;629;488;499
2;3;61;ESCUELA EP N°1;BERNA 1373;629;500;510
2;3;61;ESCUELA M.MAZZARELLO;DON BOSCO 4654;629;511;520
2;3;61;ESCUELA ES N°33;ATENAS 205;629;521;531
2;3;61;ESCUELA ES N°29;LOS ANDES 396;629;478;487
2;3;61;ESCUELA CIUDAD DE BRAGADO;AMBATO 757;629;532;541
2;3;61;COLEGIO BONAERENSE LA PAZ;LA PAZ 4747;629;547;550
2;3;61;ESCUELA EP N°102;TORNQUIST 1258;629A;551;556
2;3;61;ESCUELA EP N°96;ALBARELLOS 2229;629A;557;568
2;3;61;ESCUELA EP N°64;CHAVARRIA 500;629A;569;578
2;3;61;ESCUELA EP N°131;M T DE ALVEAR N°1755;629A;579;587
2;3;61;ESCUELA EP N°37/ESB N°132;LARRAYA 450;629A;588;592
2;3;61;ESCUELA EP N°91/ES N°112;EDISON 2164;629A;593;603
2;3;61;ESCUELA EP N°154;SETTINO 3480;629A;612;619
2;3;61;ESCUELA EP N°50;LLERENA 1420;629A;620;633
2;3;61;INSTITUTO P.PIZZURNO;S.OLIVIERI 466;629A;634;642
2;3;61;COLEGIO JUAN DE GARAY;CRISTIANIA 1569;629A;643;646
2;3;61;ESCUELA EP N°158/ES N°121;DEL BAÑADO 10;629A;647;660
2;3;61;ESCUELA EP N°109;BAZURCO 212;629A;661;666
2;3;61;INST.PRIV.AMERICA LATINA (EP);CRISTIANIA 3133;629A;667;670
2;3;61;ESCUELA EP N°117/EM N°151;LUIS M.DRAGO N°1218;629A;671;682
2;3;61;ESCUELA MODELO NUEVA ARGENTINA;JORGE DE KAY 1273;629A;683;695
2;3;61;ESCUELA ES N°76;SETTINO 3576;629A;604;611
2;3;61;ESCUELA EP N°180;BOUCHARD 122;629A;696;699
2;3;61;ESCUELA EP N°116/ES N°136;A.ALBARRACIN 4109;629B;790;803
2;3;61;ESCUELA EP N°72/ES N°104;C.VIDAL 1551;629B;707;717
2;3;61;ESCUELA EP N°172;TORNQUIST 6150;629B;718;730
2;3;61;ESCUELA EP N°188/ES N°153;PASAJE CADIZ N°6346;629B;739;751
2;3;61;ESCUELA EP N°94;VIRGILIO 439;629B;752;761
2;3;61;ESCUELA EP N°59/ES N°147;VICTOR MARTINEZ 350;629B;762;775
2;3;61;INST.PRIVADO C.SAAVEDRA LAMAS;MARCONI 4610;629B;776;781
2;3;61;INST.PRIV.AMERICA LATINA (ES);ZINNY 180;629B;782;789
2;3;61;INSTITUTO SANTA CLARA DE ASIS;SALADO 65;629B;700;706
2;3;61;ESC.NTRA.SRA.DE SCHOENSTATT;ANDALGALA 3784;629B;804;809
2;3;61;ESCUELA ES N°96;TORNQUIST 6151;629B;731;738
2;3;61;ESCUELA EP N°3;AV.GAONA 2335;630;810;819
2;3;61;ESCUELA EP N°23;AV.RIVADAVIA 13198;630;820;829
2;3;61;ESCUELA ES N°71;AV.GAONA 1783;630;834;840
2;3;61;ESCUELA ES N°42;FRENCH 127;630;841;852
2;3;61;ESCUELA ES N°18;PIZZURNO 950;630;853;861
2;3;61;ESCUELA EP N°24;PUEYRREDON 913;630;862;873
2;3;61;ESCUELA ES N°6;PUEYRREDON 1250;630;874;883
2;3;61;ESCUELA EP N°10/ES N°82;GRAL.GUIDO 1023;630;891;899
2;3;61;ESCUELA EP N°20;EMILIO MITRE 495;630;900;907
2;3;61;ESCUELA EP N°21;EVA PERON 997;630;908;911
2;3;61;ESCUELA ES N°80;HERNANDARIAS 805;630;884;890
2;3;61;INST.FRENCH DE RAMOS MEJIA;FRENCH 37;630;830;833
2;3;61;ESCUELA EP N°8/ES N°9;AV.CROVARA 3117;631;912;925
2;3;61;ESCUELA EP N°36;LOYOLA 280;631;926;932
2;3;61;ESCUELA EP N°54/ES N°93;CATRIEL 3933;631;933;944
2;3;61;ESCUELA EP N°51;JOSE MARTI 3671;631;945;954
2;3;61;ESCUELA EP N°27;CABRERA 36;631;955;966
2;3;61;ESCUELA EP N°61/ES N°109;IBARROLA 164;631;967;975
2;3;61;COLEGIO CERVANTES;30 DE AGOSTO 27;631;976;981
2;3;61;ESCUELA EP N°43/ES N°109 ANEXO;SAN PEDRO N°510;631;982;986
2;3;61;CLUB ALMAFUERTE;MERLO 1273;631;987;989
2;3;61;"ESCUELA ""EL CEDRO AZUL""";CHICLANA 52;631;994;998
2;3;61;INST.SAN MARTIN DE LOS ANDES;AVELLANEDA 3654;631;990;993
2;3;61;ESCUELA EP N°147;EL JUNCO Y EL BAGRE;631A;999;1003
2;3;61;ESCUELA EP N°164/ES N°86;AV CENTRAL E/300 Y 200;631A;1004;1014
2;3;61;ESCUELA EP N°168/ES N°61;AV.17 DE OCTUBRE N°2025;631A;1015;1029
2;3;61;ESCUELA EP N°150;EL TIMBO E/LA VIUDITA Y M.WALKO;631A;1030;1038
2;3;61;ESCUELA EP N°152/ES N°8 ANEXO;EL CEDRO 549;631A;1039;1048
2;3;61;ESCUELA EP N°171/ES N°69;AV. 17 DE OCTUBRE Y CALLE 1000;631A;1091;1104
2;3;61;ESCUELA EP N°151;EL AVELLANO 531;631A;1061;1068
2;3;61;ESCUELA ES N°8;SEC.4-MZ.25;631A;1069;1077
2;3;61;ESCUELA EP N°190;SILVIA TOLEDO 936;631A;1078;1084
2;3;61;ESCUELA EP N°177/ES N°58;EL RAULI N°788;631A;1085;1090
2;3;61;ESCUELA ES N°21;CASTILLA Y EL TIBURON;631A;1105;1115
2;3;61;ESCUELA EP N°186;600 Y LAS ORQUIDEAS S/N°;631A;1052;1060
2;3;61;ESCUELA EDUC.ESPECIAL N°508;AV.17 DE OCTUBRE Y CALLE 900 S/N;631A;1049;1051
2;3;61;ESCUELA EP N°173;TIBURON 300;631A;1116;1117
2;3;61;ESC. NORMAL SUP. ETCHEGARAY;EL LEÑATERO 1250;631B;1118;1127
2;3;61;ESCUELA EST N°11;AV.M.M.DE GUEMES N° 3860;631B;1128;1137
2;3;61;ESCUELA EP N°149;EL RUISEÑOR 3755;631B;1138;1141
2;3;61;ESCUELA EP N°85/ES N°188;RCA.DE PORTUGAL 3409;631C;1142;1151
2;3;61;ESCUELA EP N°34;PERIBEBUY 5758;631C;1162;1171
2;3;61;COLEG.ISIDRO CASANOVA(EP Y ES);ISLAS MALVINAS 3280;631C;1181;1186
2;3;61;ESCUELA EP N°169/ES N°104;ESPINOSA 4648;631C;1187;1192
2;3;61;INSTITUTO ISLAS MALVINAS;LA HAYA 3257;631C;1172;1180
2;3;61;ESCUELA EP N°22;CANADA 5622;631C;1152;1161
2;3;61;ESCUELA EP N°6;DESEADO 3774;631D;1193;1202
2;3;61;ESCUELA EP N°80/ES N°105;CENTENERA 4041;631D;1203;1212
2;3;61;ESCUELA EP N°118/ES N°79;J.I.RUCCI 4822;631D;1213;1224
2;3;61;ESCUELA EP N°113/ES N°120;PADRE L.GALLO 4590;631D;1234;1245
2;3;61;ESCUELA EP N°132;CANADA 4664;631D;1246;1256
2;3;61;INSTITUTO FUTUROS HORIZONTES;MONTAÑESES 3860;631D;1257;1262
2;3;61;INSTITUTO WILLIAMS C.MORRIS;THAMES 3840;631D;1263;1266
2;3;61;ESCUELA EP N°159/ES N°88;J.I.RUCCI 4450;631D;1225;1233
2;3;61;ESCUELA EP N°162/ES N°53;AVDA.CROVARA 4991;631D;1267;1277
2;3;61;INSTITUTO MODELO R.GUTIERREZ;MADARIAGA 3669;631D;1278;1281
2;3;61;ESCUELA EDUC.ESPECIAL N°511;GUATEMALA 4153;631D;1282;1287
2;3;61;ESCUELA EP N°115;LA RIOJA 115 E/DERQUI Y THAMES;631D;1288;1296
2;3;61;JARDIN DE INFANTES N°915;MADARIAGA 3617;631D;1297;1298
2;3;61;ESCUELA EP N°74;PILCOMAYO 1342;632;1299;1308
2;3;61;COLEGIO SAN JOSE;ANA MARIA JANER 1550;632;1309;1316
2;3;61;ESCUELA ES N°41;DEFENSA 1833;632;1317;1323
2;3;61;ESCUELA EP N°18;J.ALICO N°1070;632;1324;1329
2;3;61;ESCUELA EP N°155;NAZAR 494;632A;1330;1337
2;3;61;ESCUELA EP N°60/ES °83;SARANDI 5171;632A;1338;1350
2;3;61;ESCUELA EP N°87;ALBERTI 1808;632A;1351;1357
2;3;61;ESCUELA MOD.LEONARDO DA VINCI;ARIETA 5467;632A;1358;1363
2;3;61;ESCUELA EP N°38/ES N°118;INCLAN 1856;632B;1364;1371
2;3;61;JARDIN DE INFANTES N°950;INCLAN 1749;632B;1372;1373
2;3;61;ESCUELA EP N°2;HUMAITA 1394;633;1374;1384
2;3;61;ESCUELA EP N°39;DONOVAN 1417;633;1388;1395
2;3;61;ESC.ASOC.CRIST.DE JOVENES MATA;D.MILLAN 1079;633;1396;1403
2;3;61;INSTITUTO JUAN MANUEL DE ROSAS;EVITA 210;633;1479;1485
2;3;61;ESCUELA EP N°9/ES N°92;PEDERNERA 1301;633;1411;1420
2;3;61;ESCUELA EP N°49;BLANCO ENCALADA 942;633;1426;1432
2;3;61;INST. PARROQ. SAN JOSE OBRERO;BLANCO ENCALADA 843;633;1433;1439
2;3;61;COLEGIO HERMANOS AMEZOLA;OLAVARRIA 611;633;1440;1445
2;3;61;COLEGIO NTRA.SRA.DE LOURDES;CONSTITUYENTES 1287;633;1446;1456
2;3;61;ESCUELA EP N°13/ES N°38;TALCAHUANO 893;633;1457;1468
2;3;61;ESCUELA EP N°97/ES N°85;AVELINO DIAZ 500;633;1469;1478
2;3;61;ESCUELA EP N°137;OLAVARRIA 2465;633;1486;1495
2;3;61;ESCUELA EP N°138/ES N°117;AV.SAN MARTIN 7200;633;1496;1505
2;3;61;ESCUELA SAN CARLOS DE BORROMEO;OLAVARRIA 1875;633;1506;1511
2;3;61;ESCUELA EP N°139/ES N°157;UNANUE N°10;633;1512;1515
2;3;61;ESCUELA EP N°63;PASO DE LOS ANDES 571;633;1526;1531
2;3;61;INST. Y COLEG. SAN L. GONZAGA;TUYUTI 1335;633;1404;1410
2;3;61;INSTITUTO SAGRADO CORAZON;OLAVARRIA 2345;633;1516;1525
2;3;61;INSTITUTO NICOLAS REPETTO;AV.DONOVAN 1868;633;1532;1534
2;3;61;ESCUELA EST N°9;TEMPERLEY 945;633;1421;1425
2;3;61;ESCUELA ES N°38/EST N°10;M.SANCHEZ DE THOMPSON 1938;633;1385;1387
2;3;61;ESCUELA EP N°5;O'GORMAN 1550;634;1535;1540
2;3;61;ESCUELA EP N°7/ES N°8;AV.CROVARA 1099;634;1541;1555
2;3;61;ESCUELA EP N°98;PASO 3814;634;1559;1567
2;3;61;ASOC.MUT.DE PROTEC. Y FOM.CABR;SARGENTO CABRAL 3366;634;1615;1616
2;3;61;INSTITUTO M.MORENO (ES);ALTE. BROWN 5263;634;1568;1570
2;3;61;JARDIN DE INFANTES N°913;PANAMA 3295;634;1571;1574
2;3;61;ESCUELA SAGRADA FAMILIA;ALICIA M.DE JUSTO 4325;634;1584;1589
2;3;61;COLEGIO PARROQ.MARIA REINA;TAPALQUE 636;634;1590;1597
2;3;61;INSTITUTO M.MORENO (EP);JUNIN 47;634;1598;1603
2;3;61;ESCUELA EP N°26;BRIG.GRAL J.M.DE ROSAS N°360;634;1575;1583
2;3;61;ESCUELA ES N°90;PASO 3270;634;1604;1606
2;3;61;JARDIN DE INFANTES N°934;PANAMA 3800;634;1607;1610
2;3;61;JARDIN DE INFANTES N°970;CHARLONE 600;634;1611;1612
2;3;61;JARDIN DE INFANTES N°975;O'GORMAN 1550;634;1613;1614
2;3;61;JARDIN DE INF.MARIANO MORENO;ALTE.BROWN 5292;634;1556;1558
2;3;61;INSTITUTO ESC.JUAN PABLO II;MONTEVIDEO 1531;634;1617;1621
2;3;61;ESCUELA EP N°78/ES N°169;ASCASUBI 3491 Y BONDPLAND;635;1622;1631
2;3;61;ESCUELA EP N°175;TOLUCA 1208;635;1841;1850
2;3;61;ESCUELA EP N°166;R.ORTEGA 2505;635;1642;1652
2;3;61;ESCUELA EP N°81;AGUIRRE 2764;635;1653;1662
2;3;61;INSTITUTO ROSARIO V.PEÑALOZA;MARIA PITA 3240;635;1663;1666
2;3;61;ESCUELA EP N°55;BEAZLEY N°1854;635;1667;1676
2;3;61;ESCUELA ES N°1;BEAZLEY 2175;635;1677;1689
2;3;61;ESCUELA EP N°93/ES N°34;SANTA ROSA 204;635;1696;1705
2;3;61;ESCUELA EP N°99/ES N°36;IPIRANGA 2561;635;1706;1717
2;3;61;ESCUELA EP N°174/ES N°161;TERRERO N°1830;635;1718;1726
2;3;61;ESCUELA FRAGATA LIBERTAD;SANTA CRUZ 907;635;1727;1736
2;3;61;ESCUELA EP N°90;SALVIGNY 4197;635;1737;1750
2;3;61;ESCUELA EP N°184;COLEGIALES 2361 ESQ.GAMBOA;635;1827;1840
2;3;61;ESCUELA EP N°191/EE N°520;BLOMBERG Y TITANIC S/N°;635;1751;1764
2;3;61;ESCUELA EP N°14/ES N°138;GRANDVILLE 2040;635;1765;1780
2;3;61;ESCUELA EP N°195;COLEGIALES 2818;635;1781;1786
2;3;61;ESCUELA ES N°26/ES N°36;LANZA Y SUD AMERICA;635;1787;1800
2;3;61;INSTITUTO EDUCATIVO SIGLO XXI;VIRGENES 2755;635;1801;1806
2;3;61;INST.ARGENTINO FAMILIA ESCUELA;VIRGENES 3057;635;1807;1816
2;3;61;ESCUELA EP N°182/ES N°164;C.CORDERO 3656;635;1817;1826
2;3;61;ESCUELA EP N°203/ES N°146;BESARES 4290;635;1851;1862
2;3;61;ESCUELA EP N°196;PEDRO F.RUSSO 1502;635;1632;1641
2;3;61;ESCUELA EP N°201/ES N°137;VTA.DE ROCHA Y ACASSUSO;635;1863;1875
2;3;61;ESCUELA EP N°141/ES N°17;VIRGENES 2728;635;1876;1877
2;3;61;ESCUELA EP N°187;REAÑO 3200;635;1878;1885
2;3;61;ESCUELA ES N°56;EL RESERO Y ALAGON;635;1690;1695
2;3;61;ESCUELA ES N°119;J.NEWBERY 2071;635;1886;1893
2;3;61;ESCUELA EP N°124/ES N°123;AZUL 3535;635A;1894;1907
2;3;61;ESCUELA EP N°41;LIBRES 475;635A;2067;2078
2;3;61;ESCUELA EP N°129;SIMON PEREZ 4486;635A;1908;1920
2;3;61;ESCUELA EP N°128;TUNUYAN 950;635A;1921;1930
2;3;61;ESCUELA ES N°43;BARRIENTOS 4109;635A;1931;1947
2;3;61;COLEGIO SANTO TOMAS DE AQUINO;AV.LASALLE 2650;635A;1948;1956
2;3;61;ESCUELA EP N°127;LEON LARRE 1410;635A;1957;1967
2;3;61;ESCUELA ES N°22;CAXARAVILLE 645;635A;1973;1982
2;3;61;ESCUELA EP N°77;MONTGOLFIER 6720;635A;1983;1991
2;3;61;ESCUELA EP N°95/ES N°67;ACHIRA 6685;635A;1996;2011
2;3;61;ESCUELA EP N°11;MAESTRA CONCEPCION VALLE 498;635A;2012;2022
2;3;61;ESCUELA EP N°40;LLANDERAS 1050;635A;2023;2031
2;3;61;ESCUELA EP N°125/ES N°74;JUAN BUSTOS 5904;635A;2032;2041
2;3;61;COLEGIO HOGAR SAN MAURICIO;LUCIANO TORRENT 1095;635A;2042;2053
2;3;61;ESCUELA EP N°133/ES N°100;ANTEQUERA 4150;635A;2054;2066
2;3;61;INSTITUTO JOSE L.LARRE;CASTAÑARES 4265;635A;2135;2140
2;3;61;ESCUELA EP N°110/ES N°89;COBO 3632;635A;2079;2091
2;3;61;ESCUELA NTRA.SRA.DEL HOGAR;CONDE 5615;635A;2092;2103
2;3;61;INSTITUTO GONZALEZ CATAN;SIMON PEREZ 6053;635A;2141;2143
2;3;61;ESCUELA EP N°178/ES N°173;MANUEL ARIAS 5500;635A;2104;2116
2;3;61;INSTITUTO D.F.SARMIENTO;SENGUEL 7349;635A;2117;2128
2;3;61;ESCUELA RAMON LISTA;J.NEWBERY 5335;635A;2129;2134
2;3;61;ESCUELA EP N°197;ALAGON E/RIGLOS Y CESPEDES S/N;635A;2144;2152
2;3;61;ESCUELA ES N°51;ATALCO 4551;635A;2153;2157
2;3;61;ESCUELA ES N°66;EQUIZA 5296;635A;1968;1972
2;3;61;EXTENSION I ESCUELA ES N°51;ARIAS 4274;635A;1992;1995
2;3;61;ESCUELA EP N°19;MÑOR.LOPEZ MAY 3250;635B;2158;2170
2;3;61;INSTITUTO MADRE LUISA CLARAC;ECHEVERRIA 6009;635B;2171;2178
2;3;61;ESCUELA EP N°75;INCA 2993;635B;2179;2188
2;3;61;ESCUELA EP N°83;SOLDADO SOSA 4697;635B;2189;2197
2;3;61;ESCUELA EP N°84/ES N°150;A.PAREJA 2102;635B;2203;2212
2;3;61;ESCUELA EP N°107/ES N°41;OLEGARIO ANDRADE 6639;635B;2213;2227
2;3;61;COLEGIO CRISTO REY;LOPEZ MAY 3304;635B;2228;2236
2;3;61;ESCUELA EP N°181;TRES CRUCES 5419;635B;2237;2246
2;3;61;ESCUELA PALACIOS;VICTOR MARTINEZ 1955;635B;2247;2255
2;3;61;ESCUELA EP N°68;SANTA ROSA 6300;635B;2256;2265
2;3;61;ESCUELA EP N°156/ES N°159;RAMON FREIRE 2219;635B;2274;2286
2;3;61;ESCUELA EP N°70;JAMACARU 6802;635B;2400;2407
2;3;61;ESCUELA EP N°69;VENTURA BOSCH 2170;635B;2287;2296
2;3;61;ESCUELA EP N°56;REAÑO 6814 B°LA LOM;635B;2297;2308
2;3;61;ESCUELA EP N°167/ES N°103;VICTOR MARTINEZ 1815;635B;2326;2335
2;3;61;ESCUELA EP N°136/ES N°143;CARCARAÑA 5459;635B;2336;2344
2;3;61;ESCUELA ES N°23;STA.CATALINA 5909;635B;2345;2354
2;3;61;ESCUELA ES N°28;J.CRUZ VARELA 4658;635B;2365;2375
2;3;61;ESCUELA EP N°28/ESB N°88;RUTA 3 KM.28 Y EL RESERO;635B;2376;2386
2;3;61;ESCUELA EP N°111/ES N°155;RUIZ DE LOS LLANOS 3608;635B;2387;2399
2;3;61;ESCUELA ES N°16;MAGNASCO 1916;635B;2415;2423
2;3;61;ESCUELA EST N°7;SANTA ROSA 5496;635B;2309;2318
2;3;61;ESCUELA EDUC. MEDIA N° 3;LURO 6669;635B;2408;2414
2;3;61;INSTITUTO ALFONSINA STORNI;MARTIN ZAPATA 6873;635B;2424;2436
2;3;61;ESCUELA ES N°135;ZELADA 2511;635B;2437;2439
2;3;61;ESCUELA EP N°163;DA VINCI 7200;635B;2355;2364
2;3;61;ESCUELA EP N°160/ES N°156;SOBERANIA NACIONAL 3908;635B;2440;2447
2;3;61;ESCUELA EP N°112;SALVIGNY 6100;635B;2266;2270
2;3;61;ESCUELA ES N°144;J.NEWBERY 2966;635B;2319;2325
2;3;61;INSTITUTO ANTONIO MACHADO;JUAN CRUZ VARELA 3088;635B;2448;2454
2;3;61;ESCUELA ES N°158;RUIZ DE LOS LLANOS 2118;635B;2198;2202
2;3;61;JARDIN DE INFANTES N°987;ZELADA Y JAMACURU;635B;2271;2273
2;3;61;ESCUELA EP N°165;ACHUPALLAS 6255;635C;2455;2467
2;3;61;ESCUELA EP N°134/ES N°102;MURGUIONDO 6001;635C;2468;2478
2;3;61;ESCUELA EP N°119;ACHUPALLAS 5891;635C;2479;2486
2;3;61;ESCUELA EP N°121/SB N°125;PAREJA 7053;635C;2487;2495
2;3;61;ESCUELA EP N°46;MÑOR.LOPEZ MAY 2002;635C;2496;2503
2;3;61;ESCUELA EP N°122;LEOPARDI 7239;635C;2509;2519
2;3;61;ESCUELA EP N°31;BALBOA 7028;635C;2532;2543
2;3;61;INSTITUTO JESUS M.PLAZA;BENJAMIN MATIENZO 6255;635C;2544;2549
2;3;61;ESCUELA EST N°14;BARILOCHE 6615;635C;2550;2561
2;3;61;ESCUELA ES N°27;VARELA 6451;635C;2562;2572
2;3;61;ESCUELA ES N°30;SIMON PEREZ Y LAZARO DE VENIALBO;635C;2573;2583
2;3;61;ESCUELA EP N°161/ES N° 30 ANEXO;PUERTO ARGENTINO 7337;635C;2520;2531
2;3;61;ESCUELA EP N°204;DUNGENES 816;635C;2584;2592
2;3;61;ESCUELA ES N°12;BARRAGAN 6774;635C;2593;2602
2;3;61;ESCUELA EP N°105;BARRIENTOS 6711;635C;2504;2508
2;3;61;ESCUELA EP N°130/ES N°116;CAÑUELAS 3074;635D;2611;2618
2;3;61;ESCUELA EP N°76;HORTIGUERA 6981;635D;2619;2626
2;3;61;ESCUELA EP N°148;CIRILO CORREA N° 7108;635D;2627;2636
2;3;61;ESCUELA EP N°145;CONCORDIA N° 7918;635D;2637;2646
2;3;61;ESCUELA EP N°66/ES N°97;EL NARANJO 7220;635D;2647;2660
2;3;61;ESCUELA EP N°88;SAN IGNACIO 5897;635D;2671;2682
2;3;61;ESCUELA EP N°194;ISRAEL Y CAÑUELAS;635D;2683;2695
2;3;61;ESCUELA EP N°202;VILLARROEL 1950;635D;2661;2670
2;3;61;ESCUELA ES N°15;CORREA Y GIRARDOT;635D;2603;2610
2;3;61;INSTITUTO JOSE DE SAN MARTIN;RUTA 3 Y QUERANDIES-KM.42;635D;2709;2712
2;3;61;ESCUELA EP N°210;SOLOM 2218;635D;2696;2703
2;3;61;ESCUELA ES N°73;ESPERANZA 5780;635D;2704;2708
2;3;61;ESCUELA EP N°157;AV.CALIFORNIA N° 8305;635E;2713;2722
2;3;61;ESCUELA EP N°67/ES N°120;MALTA 1562;635E;2723;2734
2;3;61;ESCUELA EP N°103;H.WAST N° 318;635E;2735;2746
2;3;61;ESCUELA EP N°57/ES N°163;J.ESTIVAO Y SAN LUIS;635E;2758;2769
2;3;61;ESCUELA ES N°9;DOMINGO CASTRO 8333;635E;2779;2782
2;3;61;ESCUELA EP N°108;M.GARCIA N° 7997;635E;2783;2792
2;3;61;ESCUELA ES N°50;CURUMALAL 8050;635E;2793;2804
2;3;61;ESCUELA EP N°144/ES N°134;BUERAS N° 8530;635E;2805;2815
2;3;61;ESCUELA EP N°198/ES N°158;CUENCA N° 8071;635E;2816;2826
2;3;61;ESCUELA EP N°208/ES N°168;APENINOS N° 520;635E;2747;2757
2;3;61;ESCUELA ES N°91;MANZANARES 1671;635E;2770;2778
2;3;61;ESCUELA ES N°78;CAÑADA DE GOMEZ 3345;635E;2827;2833
2;3;61;ESCUELA EP N°33/ES N°59;CONDOR 1452;635F;2834;2836
2;3;62;ESCUELA EP N°23;BOLAÑOS 820;259;1;8
2;3;62;SOC.DE FOMENTO VILLA ANGELICA;RCA.DEL LIBANO 363;259;9;10
2;3;62;COLEGIO LA ASUNCION;PTE.SARMIENTO 468;259;11;23
2;3;62;CENTRO DE EDUC. N °11;ONCATIVO 713;259;24;26
2;3;62;JARDIN DE INFANTES N°922;BOLAÑOS 850;259;27;28
2;3;62;ESCUELA EP N°1;EVA PERON 2412;260;29;39
2;3;62;ESCUELA EP N°6/ES N°28;ITUZAINGO 1762;260;47;53
2;3;62;ESCUELA EP N°7;CTE.MAMBERTI 1217;260;57;63
2;3;62;ESCUELA EP N°10/ES N°49;A.FRANCE 1660;260;64;72
2;3;62;ESCUELA EP N°22/ES N°31;RAUL ALFONSIN N° 1758;260;73;83
2;3;62;ESCUELA EP N°18;MADARIAGA 1960;260;84;89
2;3;62;ESCUELA ES N°2;AV.9 DE JULIO 1788;260;96;104
2;3;62;ESCUELA EP N°27;GRAL.FERRE 2180;260;105;112
2;3;62;ESCUELA EP N°58;PERGAMINO Y BOUCHARD;260;113;118
2;3;62;INSTITUTO SANTO CRISTO;PERGAMINO 1749;260;40;46
2;3;62;ESCUELA ES N°3;ITUZAINGO 1769/70;260;90;95
2;3;62;ESCUELA ES N°7;JUNCAL 2436;260;54;56
2;3;62;ESCUELA ES N°22;PERGAMINO Y EVA PERON N°1460;260;119;124
2;3;62;ESCUELA EP N°25/ES N°46;GRAL.PICO 2002;261;125;135
2;3;62;ESCUELA EP N°62;PICHINCHA N° 3821;261;136;144
2;3;62;ESCUELA EP N°53;MAURE 3360;261;145;156
2;3;62;ESCUELA EP N°34/ESB N°45;EVA PERON 3800;261;167;177
2;3;62;ESCUELA EDUC.ESPECIAL N°507;TUCUMAN 3750;261;178;182
2;3;62;ESCUELA CRISTO REY;LUJAN 1538;261;183;186
2;3;62;COLEGIO JACARANDA;GRAL.PICO 537;261;187;192
2;3;62;ESCUELA EP N°33;PASAJE ROSSI N°3909;261;193;194
2;3;62;ESCUELA EP N°50/ES N°32;POSADAS 319;261;195;202
2;3;62;COLEGIO DEL MONTE;9 DE JULIO 3831;261;209;213
2;3;62;ESCUELA ES N°20;BURELAS 3353;261;157;166
2;3;62;ESC.BENITO QUINQUELA MARTIN;HEROES DE MALVINAS 1938;261;214;219
2;3;62;ESCUELA ES N°36;BVARD.DE LOS ITALIANOS 1140;261;203;208
2;3;62;ESCUELA MEDALLA MILAGROSA;ROMA 4250;262;220;225
2;3;62;INSTITUTO DEL ESP.SANTO(EP/ES);ACHAVAL 3670;262;226;232
2;3;62;ESCUELA EP N°66;CONDARCO 2332;262;233;242
2;3;62;ESCUELA EP N°52;CNEL.PRINGLES 4200;262;243;248
2;3;62;ESCUELA EP N°46/ES N°40;BOUCHARD 4491;262;249;259
2;3;62;ESCUELA EP N°63/ES N°42;YAPEYU 1155;262;260;275
2;3;62;ESCUELA EP N°37;DR. KLOOSTERMAN 1757;262;276;286
2;3;62;INSTITUTO 9 DE JULIO;CAVIA 2041;262;287;294
2;3;62;J.DE INF.N.S.DE LA CONSOLACION;RONDEAU 509;262;295;298
2;3;62;ESCUELA EP N°30/ES N°5;AGUAPEY 3864;262;299;310
2;3;62;SOC.DE FOMENTO SANTA MARIA;VICTOR HUGO 440;262;311;317
2;3;62;CLUB MONTE CHINGOLO;CHORROARIN 1600;262;377;378
2;3;62;SOC.DE FOM.VILLA GRAL.URQUIZA;MAURE 4307;262;318;321
2;3;62;JARDIN DE INFANTES N°917;CENT.URUGUAYO 2800- MZ.19;262;322;324
2;3;62;ESCUELA EP N°39/ES N°37;BUERAS 4800;262;325;338
2;3;62;CTRO.EDUC.COMPLEMENTARIO N°801;DE LA PEÑA 3257;262;343;346
2;3;62;ESCUELA ES N°5;AGUAPEY 3864;262;347;354
2;3;62;ESCUELA EDUC.ESPECIAL N°508;GRAL. PINTO N°4761;262;358;362
2;3;62;SOC.DE FOMENTO M.M.GUEMES;MARGARITA WEILD 5309;262;355;357
2;3;62;ESCUELA ES N°11;CAZON N° 1936;262;363;374
2;3;62;JARDIN DE INFANTES N°928;MAURE 4562;262;375;376
2;3;62;SOC.DE FOMENTO VILLA UNION;BVARD.DE LOS ITALIANOS 2452;262;379;382
2;3;62;ESCUELA ES N°54;CNEL.PRINGLES 4290;262;339;342
2;3;62;COLEGIO GUSTAVO ADOLFO BECQUER;BERON DE ASTRADA 4323;262;383;387
2;3;62;ESCUELA EP N°36;VILLA DE LUJAN 2389;263;388;393
2;3;62;ESCUELA EST N°5;GRAL.ARIAS 1751;263;394;399
2;3;62;ESCUELA EP N°24;SUIPACHA 3098;263;400;405
2;3;62;ESCUELA EST N°3;ACEVEDO 2778;263;406;410
2;3;62;ESCUELA EP N°42/ES N°45;ROMA 2757;263;411;420
2;3;62;ESCUELA ES N°8;ARIAS 1935;263;421;434
2;3;62;INST.MODERNO DE EDUC.INTEGRAL;H.YRIGOYEN 5302;263;435;439
2;3;62;ESCUELA EST N°6;AV.H.YRIGOYEN 5982;263;440;447
2;3;62;ESCUELA EP N°16;DR.MELO 4453;264;448;456
2;3;62;SOC.FOMENT.Y CULT.J.J.ALBERDI;DR.MELO 3951;264;457;460
2;3;62;INSTITUTO SAN AGUSTIN;AV.ROSALES 1036;264;461;465
2;3;62;ESCUELA CHARLES CHAPLIN;CNEL. BELTRAN 319;264;466;469
2;3;62;ESCUELA EP N°44;CASTRO 644;265;470;479
2;3;62;ESCUELA EP N°45;M.AVELLANEDA 1253;265;480;485
2;3;62;ESCUELA ES N°39/EP N°40;VILLEGAS 363;265;486;496
2;3;62;ESCUELA EP N°43;DON ORIONE 1251;265;503;511
2;3;62;ESCUELA EP N°74/ES N°63;LOS PATOS 4140;265;512;520
2;3;62;INSTITUTO SAN AGUSTIN(ES);PASTOR FERREYRA 3339;265;521;527
2;3;62;ESC.ES N°10 HEROES DE MALVINAS;AV.ROSALES 1132;265;535;543
2;3;62;ESCUELA ES N°44;3 DE FEBRERO 4127;265;497;502
2;3;62;ESCUELA ES N°27;TIMOTE 3859;265;528;534
2;3;62;ESCUELA EP N°8/ESB N°29;BOUCHARD 370;271;544;553
2;3;62;ESCUELA EP N°21;COLOMBIA 1153;271;554;562
2;3;62;ESCUELA EP N°38;JEAN JAURES 1502;271;563;571
2;3;62;ESCUELA EST N°8;JEAN JAURES 749;271;572;579
2;3;62;JARDIN DE INFANTES N°910;ALFREDO PALACIOS 711;271;580;581
2;3;62;ESCUELA EP N°20/ES N°1;JOSE I.RUCCI 958;272;582;590
2;3;62;ESCUELA EP N°3/EST N°2;PERON 3018;272;591;599
2;3;62;ESCUELA EP N°13/ES N°33;R.DE ESCALADA 4231;272;605;612
2;3;62;ESCUELA EP N°4/ES N°30;UCRANIA 815;272;613;624
2;3;62;ESCUELA PRIV. CULTURAL ARMENIA;CHOELE CHOEL 555;272;625;627
2;3;62;INSTITUTO SAN JUAN BAUTISTA;JUAN D.PERON 2998;272;628;630
2;3;62;ESCUELA EP N°2;RIVADAVIA 151;272;600;604
2;3;62;ESCUELA ES N°9;CNEL.EREZCANO 3240;273;631;638
2;3;62;ESCUELA EP N°67/ES N°33 ANEXO;MADERO 1650;273;639;643
2;3;62;ESCUELA EP N°57/ESB N°21;MOLINEDO 1900;273;769;780
2;3;62;ESCUELA EP N°70;MURGUIONDO 2221;273;647;653
2;3;62;ESCUELA EP N°60/ES N°5 ALMAFUERTE;MOLINEDO 3200;273;654;663
2;3;62;INST.PIZZURNO DE ENS.INTEGRAL;WARNES 3178;273;664;668
2;3;62;ESCUELA ES N°6;WARNES 3493;273;669;677
2;3;62;ESCUELA EP N°64/ES N°61;FARREL 3334;273;678;687
2;3;62;ESCUELA EP N°5;RIVADAVIA 1847;273;688;694
2;3;62;COLEGIO SAN MIGUEL ARCANGEL;MOLINEDO 2406;273;695;698
2;3;62;ESCUELA ES N°12;LINIERS 3225;273;699;709
2;3;62;ESCUELA SAGRADO CORAZON ALCAL;WARNES 3870;273;781;783
2;3;62;ESCUELA EP N°49;J.M.MORENO 2608;273;714;720
2;3;62;ESCUELA EP N°72/ESB N°62;POTOSI 2651;273;724;728
2;3;62;ESCUELA EST N°4;J.M.MORENO 2660;273;729;738
2;3;62;ESCUELA EP N°59/ESB N°58;YATAY 2850;273;743;749
2;3;62;ESCUELA EP N°77/ESB N°25;VILLEGAS 4551;273;750;761
2;3;62;COLEGIO ALEMAN DE LANUS (EP);M.MAZA 2650;273;721;723
2;3;62;JARDIN DE INFANTES N°921;SAN VLADIMIRO 5462;273;766;768
2;3;62;JARDIN DE INFANTES N°926;E.MADERO 1654;273;787;790
2;3;62;INSTITUTO MARIANO MORENO;MURGUIONDO 3237;273;762;765
2;3;62;COLEGIO ALEMAN DE LANUS (ES);GDOR.OLIDEN 2444;273;784;786
2;3;62;"ESCUELA ESPEC.""SAN FRANCISCO""";WARNES 3966;273;710;713
2;3;62;INST.SAGRADO CORAZON ALCAL;POTOSI 2055;273;644;646
2;3;62;ESCUELA ES N°23;AV RIVADAVIA N°1847;273;739;742
2;3;62;ESCUELA EP N°54/ES N°29;SANTIAGO PLAUL 1832;274;791;799
2;3;62;ESCUELA EP N°12/ES N°52;R.DE ESCALADA 1480;274;800;809
2;3;62;CENTRO EDUCATIVO JUANA MANSO;CORONEL D'ELIA 1369;274;893;897
2;3;62;ESCUELA EP N°48/ES N°34;J.L.SUAREZ 3942;274;810;820
2;3;62;ESCUELA SANTA FAZ;E.FERNANDEZ 1960;274;821;827
2;3;62;COLEGIO DEL CASTILLO;YERBAL 4321;274;828;831
2;3;62;ESCUELA EP N°56;1° DE MAYO 3640;274;844;854
2;3;62;ESCUELA EP N°35;1° DE MAYO 4171;274;857;866
2;3;62;COLEGIO JUAN XXIII;HERNANDARIAS 3970;274;879;884
2;3;62;ESCUELA EP N°32;PILCOMAYO ESQ WARNES N° 2591;274;885;892
2;3;62;ESCUELA EP N°26;DEAN FUNES 4436;274;901;908
2;3;62;INSTITUTO MAGDALENA ABRAIN(EP);CASTRO 3327;274;875;878
2;3;62;INSTITUTO REMEDIOS DE ESCALADA;PILCOMAYO 3967;274;909;913
2;3;62;CTRO.EDUC.COMPLEMENTARIO N°802;J.L.SUAREZ 3988;274;898;900
2;3;62;ESCUELA ES N°18;TAGLE 3868;274;867;874
2;3;62;ESCUELA ES N°19;CANADA 3947;274;832;839
2;3;62;ESCUELA ES N°25;GRAL.HORNOS 3979;274;914;916
2;3;62;INST.DE FORMAC.DOC. I.A.P.E;TACUARI 2255;274;855;856
2;3;62;CENTRO EDUC.N°10;MURATURE 4136;274;840;843
2;3;62;ESCUELA EP N°41;MÑOR.J.HLADNIK 3949;275;917;920
2;3;62;ESCUELA EP N°9;H.YRIGOYEN 5005;275;921;926
2;3;62;ESCUELA EP N°17/ES N°35;MSTRO.BRIN 3024;275;927;938
2;3;62;COLEGIO NTRA.SRA.DE FATIMA;HNA.MARIA O.ZALOZNIK 3572;275;942;947
2;3;62;ESCUELA EP N°55/ESB N°56;DERQUI 1665;275;948;956
2;3;62;ESCUELA EP N°28/ES N°41;CARLOS GARDEL 1011;275;957;962
2;3;62;ESCUELA EP N°31/EES N°43;ANDRADE 740;275;963;970
2;3;62;COLEGIO MARIA REINA(EP/ES);HERNANDARIAS 2530;275;971;981
2;3;62;INST.SAN FRANCISCO DE ASIS;LITUANIA 3144;275;982;990
2;3;62;INST. G.N.S. DE LOURDES(EP/ES);G.SPANO N° 1038;275;991;994
2;3;62;ESCUELA ES N°21;MÑOR.HLADNIK 3850;275;939;941
2;3;62;ESCUELA EP N°11/ESB N°31;A.DEL VALLE 1503;276;995;1004
2;3;62;ESCUELA EP N°15;M.PAZ 702;276;1005;1010
2;3;62;ESCUELA EP N°19/ES N°48;C.TEJEDOR 1091;276;1011;1020
2;3;62;ESCUELA EP N°29/ES N°16 ANEXO;RAMOS N° 64;276;1021;1026
2;3;62;ESCUELA EP N°69;MINISTRO BRIN 2475;276;1027;1035
2;3;62;ESCUELA ES N°4;20 DE SETIEMBRE 2432;276;1078;1081
2;3;62;INST.INMACULADA CONCEPCION;H.YRIGOYEN 4355;276;1059;1065
2;3;62;COLEGIO JOSE M.ESTRADA;JUAN PIÑEIRO 441;276;1066;1072
2;3;62;COLEGIO ECCLESTON;25 DE MAYO 793;276;1076;1077
2;3;62;JARDIN DE INFANTES J.M.ESTRADA;JUAN PIÑEIRO 433;276;1044;1046
2;3;62;ESCUELA RECONOC.SANTA TERESA;DR.MELO 2763;276;1073;1075
2;3;62;ESCUELA EP N°14;F.J.LAGOS 2113;276;1036;1043
2;3;62;ESCUELA ES N°16/EP N°15;MAXIMO PAZ 750;276;1050;1058
2;3;62;ESCUELA EM N°15/ESB N°6;J.V.GONZALEZ 2875;276;1047;1049
2;3;69;ESCUELA EST N°1;CARDONER 951;574;1;9
2;3;69;ESCUELA EP N°37;ALBERDI Y LIBERTAD;574;14;23
2;3;69;COLEGIO FASTA NIÑO JESUS;PTE.PERON 235;574;24;29
2;3;69;ESCUELA EP N°6;PRESIDENTE PERON N° 600;574;30;36
2;3;69;ESCUELA EP N°11/ESB N°4;BALCARCE Y SOLDADO AZCARATE;574;37;42
2;3;69;ESCUELA ES N°1;LIBERTAD 150;574;43;51
2;3;69;ESCUELA EP N°1/ESB N°6;RIVADAVIA E IRIART S/N°;574;52;60
2;3;69;INST.PRESBITERO JOSE ALBERTINI;CARDONER N° 1653;574;61;68
2;3;69;ESCUELA EP N°9/ES N°4;H.YRIGOYEN 1405;574;10;13
2;3;69;ESCUELA EP N°2;AV.ZAPIOLA 120;575;69;76
2;3;69;ESCUELA EP N°19;E.CASTRO Y 124;575;77;80
2;3;69;ESCUELA EP N°14;RT.PCIAL.41 KM.181;576;81;82
2;3;69;ESCUELA EP N°13;CNO.MUNICIPAL A AREVALO;576A;83;83
2;3;69;ESCUELA EP N°15;8 Y 7 S/N;577;84;85
2;3;69;ESCUELA EP N°21/ES N°2;AVDA. G.TOPA 138;578;86;88
2;3;69;JARDIN DE INFANTES N°908;7 N°163;579;89;90
2;3;69;ESCUELA EP N°17;CUARTEL 8°;580;91;91
2;3;69;ESCUELA EP N°8/ES N°3;CUARTEL 9°;581;92;93
2;3;70;CTRO.EDUC.COMPLEMENTARIO N°801;LAS HERAS 2203;583;1;4
2;3;70;ESCUELA EP N°5;CASTELLI 1710;583;5;13
2;3;70;ESCUELA EST N°8;PIO BAROJA Y QUESADA;583;25;35
2;3;70;ESCUELA EP N°76/ES N°40;L.SICILIANO 1551;583;36;45
2;3;70;ESCUELA ES N°11/EP N°79;AZAMOR 297;583;46;55
2;3;70;ESCUELA EP N°18/ES N°342;RAWSON Y ESPRONCEDA;583;64;73
2;3;70;ESCUELA EP N°68;LA HAYA 2195;583;74;83
2;3;70;ESCUELA EP N°39/ES N°36;CARAZA 1760;583;84;94
2;3;70;ESCUELA EP N°77;BUCAREST 1780;583;95;103
2;3;70;ESCUELA EP N°12/ESB N°374;QUESADA 2610;583;104;114
2;3;70;INSTITUTO GRAL.SAN MARTIN;EJERCITO DE LOS ANDES 648;583;121;130
2;3;70;ESCUELA EP N°81;CELINA L.DE MINETTO 1455;583;140;151
2;3;70;ESCUELA EP N°84/ES N°74;NUÑEZ DE ARCE 1296;583;152;165
2;3;70;ESCUELA EP N°63/ES N°67;CAMPANA 360;583;166;177
2;3;70;ESCUELA EP N°70/ES N°361;G.MIRO 944;583;178;189
2;3;70;COLEGIO SIDNEY SOWELL;MURATURE 756;583;190;195
2;3;70;ESCUELA EP N°82/ES N°24;R.PALMA 2351;583;196;205
2;3;70;ESCUELA SAN JOSE DE VA.URBANA;CAMPANA 1230;583;214;223
2;3;70;ESCUELA EP N°58/ES N°76;CAMPOAMOR 2890;583;230;241
2;3;70;ESCUELA EP N°62/ES N°48;BELLO 2763;583;242;250
2;3;70;ESCUELA EP N°88/ES N°30;BUCAREST Y CAMPOAMOR;583;259;268
2;3;70;ESCUELA EP N°43/ES N°9;QUESADA 2672;583;439;452
2;3;70;ESCUELA EP N°86/ES N°73;PILAR 120;583;269;278
2;3;70;ESCUELA EP N°57;ESPRONCEDA 297;583;279;287
2;3;70;ESCUELA EP N°41/ES N°55;V.BARBIERI 1605;583;288;296
2;3;70;ESCUELA CABRINI DE VA.AMELIA;LABARDEN 2472;583;297;305
2;3;70;CTRO.EDUC.COMPLEMENTARIO N°804;MACHADO 2546;583;453;459
2;3;70;ESCUELA EP N°85;PEREZ GALDOS 1998;583;306;318
2;3;70;ESCUELA EP N°67;PIO BAROJA 2098;583;319;328
2;3;70;ESCUELA EP N°87/ES N°72;VUCETICH 4834;583;342;354
2;3;70;ESCUELA EP N°93;CIPOLLETI 2202;583;355;363
2;3;70;ESCUELA ES N°22;G.MIRO N°2480;583;364;372
2;3;70;INST.TECNICO NTRA.SRA.DE ITATI;FILARDI 830;583;464;470
2;3;70;ESCUELA EP N°19;G.MISTRAL 312;583;373;380
2;3;70;ESCUELA ES N°26;R.PALMA 195;583;381;394
2;3;70;ESCUELA EP N°46/ES N°33;HOMERO Y CAFAYATE;583;404;417
2;3;70;ESCUELA EP N°53/ES N°46;LAS TROPAS Y VERNET;583;14;24
2;3;70;ESCUELA DR.FRANCISCO J.MUÑIZ;NECOL 2306;583;460;463
2;3;70;COLEGIO BARTOLOME MITRE(EP/ES);MARSELLA 1246;583;418;429
2;3;70;INST.DR.ENRIQUE ROMERO BREST;AYOLAS 1978;583;395;403
2;3;70;ESCUELA EP N°94/ES N°388;J.F.QUIROGA 1370;583;471;478
2;3;70;CTRO.EDUC.COMPLEMENTARIO N°805;LARRAZABAL Y AZAMOR;583;514;517
2;3;70;ESCUELA EP N°90/ES N°22 ANEXO;G.MIRO 2450;583;329;341
2;3;70;ESCUELA EP N°98/ES N°389;LARRAZABAL 2879;583;504;513
2;3;70;ESCUELA ES N°9;QUESADA 2690;583;518;524
2;3;70;ESCUELA EP N°95/ES N°33 ANEXO;HOMERO 3870;583;430;438
2;3;70;ESCUELA EP N°89/ES N°70;A.MAGALDI N°3954;583;479;491
2;3;70;INSTITUTO MARIO MADEDDU;ALFREDO PALACIOS 1776;583;115;120
2;3;70;COLEGIO NTRA.SRA.DE COPACABANA;BARCELONA 1957;583;224;229
2;3;70;ESCUELA EP N°97/ES N°50;VERNET N° 281;583;492;503
2;3;70;ESC.EDUC.MEDIA N°4/ESB N°352;LARROQUE 2175;583;56;63
2;3;70;ESCUELA EP N°83/ES N°49;ORAN 599;583;206;213
2;3;70;ESCUELA EP N°64/ES N°78;FIGUEREDO 1525;583;251;258
2;3;70;ESCUELA ES N°56;AYOLAS 1135;583;131;139
2;3;70;ESCUELA EP N°49;LARROQUE 1231;584;525;533
2;3;70;ESCUELA EP N°33/ES N°53;MENTRUYT 1825;584;534;543
2;3;70;ESCUELA EP N°31;AV.YRIGOYEN 7672;584;544;548
2;3;70;COLEGIO BALMORAL LTDA.;M.CASTRO 1536;584;549;557
2;3;70;ESCUELA ES N°21/EP N°91;MANUEL CASTRO 990;584;565;572
2;3;70;ESCUELA EST N°7;ACEVEDO 1864;584;573;579
2;3;70;INSTITUTO MODELO BANFIELD;H.YRIGOYEN 7897;584;558;564
2;3;70;INSTITUTO NTRA.SRA.DE LOURDES;VIAMONTE 1624;585;580;589
2;3;70;ESCUELA ES N°6;VIAMONTE 1567;585;600;609
2;3;70;ESCUELA EP N°10/ES N°6 ANEXO;PUEYRREDON 1840;585;590;599
2;3;70;COLEGIO INMACULADA CONCEPCION;BOEDO 265;586;610;619
2;3;70;ESCUELA EP N°1/ES N°7;SAENZ 450;586;620;629
2;3;70;ESCUELA EP N°14/ES N°59;CASTELLI 816;586;638;647
2;3;70;INST.PBRO.DR.ANTONIO SAENZ;AZARA 368;586;648;655
2;3;70;ESCUELA EST N°1;MANUEL CASTRO 161;586;630;637
2;3;70;ESCUELA EP N°38;CHOPIN N°350;587;656;661
2;3;70;ESCUELA EDUC.ESPECIAL N°502;GARIBALDI 253;587;900;907
2;3;70;ASOCIACION CULTURAL BARKER;BARTOLOME MITRE 131;587;667;678
2;3;70;ESCUELA EP N°51/ES N°62;MUZZILLI 163;587;679;687
2;3;70;ESCUELA EP N°27/ES N°60;LAPRIDA 1650;587;688;697
2;3;70;ESCUELA EP N°8/ES N°80;PIAGGIO N°402/406 Y GARONA;587;698;707
2;3;70;ESCUELA EP N°9/EE N°507;AV.YRIGOYEN 9243;587;708;716
2;3;70;ESCUELA EP N°26;LOS ROBLES 108;587;717;727
2;3;70;ESCUELA EP N°11/ES N°31;OLMOS 530;587;884;888
2;3;70;INST.TECNOLOGICO SAN BONIFACIO;SIRITTO 370;587;737;746
2;3;70;ESCUELA EP N°48;L.DE LA TORRE 2264;587;747;752
2;3;70;ESCUELA EP N°59/ES N°38;CHAMPALANE 2608;587;753;762
2;3;70;ESCUELA ES N°13;AV.H.YRIGOYEN 9428;587;763;768
2;3;70;INSTITUTO LOMAS DE ZAMORA;AV.MEEKS 654;587;769;778
2;3;70;ESCUELA ES N°23;FLORENCIO SANCHEZ 1270;587;779;783
2;3;70;ESCUELA ES N°10;LOS PALOS BORRACHOS 185;587;788;796
2;3;70;COLEGIO JOSE HERNANDEZ;LAPRIDA 2380;587;797;804
2;3;70;SAN ALBANO SCHOOL;RAMON L.FALCON 250;587;805;813
2;3;70;COLEGIO CORAZON INMAC.DE MARIA;13 857;587;814;825
2;3;70;INST.TECNICO EMILIO LAMARCA;ROSSI 2591;587;826;830
2;3;70;INSTITUTO BARKER (ES);AV.MEEKS 441;587;831;838
2;3;70;ESCUELA EP N°29/ES N°80;MOLINA ARROTEA 1505;587;849;860
2;3;70;ESCUELA ES N°39/EP N°65;VOLTAIRE 1660;587;861;873
2;3;70;COLEG.SEC.EVAN.PRINCIPE DE PAZ;GORRITI 665/7;587;662;666
2;3;70;COLEGIO SUPERIOR DE LOMAS;ITALIA 470;587;728;730
2;3;70;COLEGIO MODELO PARQUE BARON;POTOSI 45;587;889;895
2;3;70;ESCUELA EP N°60/ES N°23 ANEXO;CID GUIDY DE FRANCE 2520;587;839;848
2;3;70;ESCUELA ES N°23 ANEXO 1;LOPE DE VEGA 1483;587;896;899
2;3;70;COLEGIO SAN ALBERTO MAGNO;ALFONSINA STORNI 2430;587;731;736
2;3;70;INSTITUTO PCIA.DE SAN JUAN;AV.JUAN XXIII 2664;587;908;910
2;3;70;INSTITUTO PTE.MANUEL QUINTANA;BRUNO TAVANO 1835;587;874;883
2;3;70;JARDIN DE INFANTES N°937;BUSTOS N°890;587;911;913
2;3;70;ESC.MUNICIPAL ARTES VISUALES;MÑOR.PIAGGIO 168;587;784;787
2;3;70;ESCUELA EP N°20/ES N°63;VIAMONTE 423;588;914;922
2;3;70;INSTITUTO NTRA.SRA.DEL CARMEN;FONROUGE 855;588;923;926
2;3;70;ESCUELA EP N°13/ES N°68;ALTE.BROWN 2153;588;927;938
2;3;70;COLEGIO MODELO LOMAS;BELGRANO 55;588;939;941
2;3;70;COLEGIO COLINAS VERDES;PIROVANO 271;588;942;945
2;3;70;ESCUELA EP N°24/ES N°79;QUINTANA 266;589;946;955
2;3;70;ESCUELA EP N°28;BOULOGNE SUR MER 240;589;964;968
2;3;70;ESCUELA EP N°73/ES N°327;CAMPOS 145;589;969;981
2;3;70;ESCUELA EP N°30;MIGUEL CANE 1264;589;982;990
2;3;70;ESCUELA EP N°17/ES N°310;MEJICO Y BARILARI;589;993;1001
2;3;70;INSTITUTO SAN MIGUEL;BARILARI 3346;589;991;992
2;3;70;CTRO.EDUC.COMPLEMENTARIO N°803;MEXICO 163;589;956;963
2;3;70;INSTITUTO SAN JUAN DE LA CRUZ;PINTOS 1450;589;1002;1004
2;3;70;ESCUELA EP N°36/ES N°42;A.GALLARDO 170;590;1005;1015
2;3;70;ESCUELA EP N°40/ES N°44;PERITO MORENO 260;590;1035;1045
2;3;70;ESCUELA ES N°14;FRAY J.STA.MARIA DE ORO N°44 44;590;1022;1034
2;3;70;ESCUELA EP N°2/ES N°305;ALBARRACIN 911;590;1046;1057
2;3;70;ESCUELA EP N°45/ES N°350;ALLEMANDRI 1501;590;1058;1067
2;3;70;COLEGIO ECLESTON;ALMIRANTE BROWN 3342;590;1085;1088
2;3;70;ESCUELA EP N°69/ES N°57;B.DE IRIGOYEN 750;590;1089;1098
2;3;70;ESCUELA EP N°32/ES N°390;I.GOMEZ 502;590;1099;1107
2;3;70;ESCUELA EP N°47/ ES N°66;EL ZORZAL N° 2093;590;1068;1080
2;3;70;ESCUELA SOLES DE EDUC.ESPECIAL;MALVINAS ARGENTINAS 1154;590;1081;1084
2;3;70;COLEGIO TOMAS JEFFERSON (EP);TARIJA 1850;590;1016;1021
2;3;70;ESCUELA EP N°52;DE HEREDIA N°250;590A;1108;1117
2;3;70;ESCUELA EP N°61;AV EVA PERON N° 4687;590A;1122;1133
2;3;70;ESCUELA EP N°78;MOCTECZUMA 400;590A;1134;1145
2;3;70;COLEGIO SANTA MARIA GORETTI;ARMESTI 2969;590A;1146;1151
2;3;70;ESCUELA EP N°80/ES N°47;EL HORNERO N°4975;590A;1152;1160
2;3;70;ESCUELA EP N°56;EL TORDO 233;590A;1161;1172
2;3;70;ESCUELA EP N°50/ES N°28;EL TREBOL 3785;590A;1173;1180
2;3;70;ESCUELA EP N°54/ES N°54;LA MADRESELVA N°2250;590A;1181;1190
2;3;70;ESCUELA EP N°25/ESB N°382;EL ZORZAL 2793;590A;1191;1196
2;3;70;COLEGIO ASUNCION DE MARIA;LUIS AGOTE 33;590A;1197;1201
2;3;70;ESCUELA ES N°15;PIO COLLIVADINO N°267;590A;1202;1211
2;3;70;ESCUELA EST N°3;EL TORDO 459;590A;1212;1221
2;3;70;COLEGIO SANTA ROSA;ACHERAL 36;590A;1222;1230
2;3;70;ESCUELA ES N°75;LA CALANDRIA 4654;590A;1118;1121
2;3;70;COLEGIO TEMPERLEY;AV.FERNANDEZ 27;591;1231;1238
2;3;70;COLEGIO WILLIAMS SHAKESPEARE;LAVALLE 109;591;1239;1242
2;3;70;COLEGIO NTRA.SRA.DEL HUERTO;9 DE JULIO 82;591;1243;1250
2;3;70;ESCUELA EP N°3;AV.YRIGOYEN 10361;591;1251;1258
2;3;70;ESCUELA EP N°6/ES N°65;GARIBALDI 1298;591;1259;1266
2;3;70;COLEGIO SARMIENTO;M.MORENO E/BRANDSEN Y SUAREZ;591;1267;1269
2;3;70;ESCUELA EST N°2;LAVALLE 801;591;1270;1274
2;3;70;ESCUELA EP N°72/ES N°41;AV.YRIGOYEN 11518;592;1285;1290
2;3;70;COLEGIO SANTA INES;AV H YRIGOYEN 11660;592;1291;1295
2;3;70;INSTITUTO VICENTE PALLOTTI;ZAPIOLA 550;592;1280;1284
2;3;70;ESCUELA EP N°22/ES N°41 ANEXO;SANTA TERESA 90;592;1275;1279
2;3;70;ESCUELA EP N°4;A.ARGENTINA Y SANTA CATALINA;593;1296;1301
2;3;70;INSTITUTO EUSKAL-ECHEA;ANTARTIDA ARGENTINA 1910;593;1308;1317
2;3;70;ESCUELA EP N°34;DR MELBER 2050;593;1318;1325
2;3;70;ESCUELA EST N°4;ANTARTIDA ARGENTINA 2750;593;1326;1336
2;3;70;ESCUELA EP N°66/EM N°2 ANEXO;MERCEDES N°110;593;1337;1343
2;3;70;ESCUELA EP N°74;PAREJA Y SANTOS VEGA;593;1344;1349
2;3;70;ESCUELA ES N°2;ALAZAN Y STOS.VEGA;593;1302;1307
2;3;70;ESCUELA ES N°372/EP N°23;DR MELBER 2070;593;1350;1357
2;3;70;ESCUELA EP N°71/ES N°58;9 DE FEBRERO 390;593A;1358;1363
2;3;70;ESCUELA EP N°55;DE LA PEÑA 654;593A;1364;1368
2;3;70;ESCUELA EP N°42;ARAGON 950;593A;1369;1374
2;3;70;COLEGIO SAN FRANCISCO DE ASIS;MOLDES Y AGRELO;593A;1375;1381
2;3;70;COLEGIO LA MILAGROSA;CNEL.MOLDES 620;593A;1382;1386
2;3;70;COLEGIO PRIMARIO AGAPITO OTERO;FRIEDRICHS N°183;593A;1387;1390
2;3;72;ESCUELA EP N°16/ES N°9;BVARD.BME.BAVIO S/N°;604;5;8
2;3;72;ESCUELA ES N°6;CASTELLI ESQ. LIBERTAD;604;1;4
2;3;72;ESCUELA EP N°6/ES N°5;AV.MITRE E/BORZAMI Y TERRAROSA;605;9;11
2;3;72;ESCUELA ES N°1;GOENAGA ESQ.VIEDMA;606;12;17
2;3;72;ESCUELA EP N°12;CASTELLI 1290;606;18;23
2;3;72;INST.DE FORMAC.DOC.Y TEC.N°58;BRENAN Y J.D.PERON S/N°;606;24;29
2;3;72;ESC.RECONOCIDA SAGRADA FAMILIA(EP/ES);GOENAGA 775;606;36;41
2;3;72;ESCUELA EST N°1;BRENAN 1511;606;30;35
2;3;72;ESCUELA EP N°10;S/C S/N°;607;42;42
2;3;72;ESCUELA EP N°24;FLIA MONTES DE OCA S/N°;608;43;43
2;3;72;ESCUELA EP N°11/ES N°3;20 E/31 Y 33;609;44;45
2;3;72;ESCUELA EP N°26;RUTA 20 Y CAMINO RURAL;610;46;46
2;3;128;ESCUELA EP N°2/ES N°310;AV. CENTENARIO 339;304;1;10
2;3;128;ESCUELA EP N°8;106 N°39;304;15;24
2;3;128;ESCUELA EP N°7;SANTA ELENA 603;304;30;38
2;3;128;ESCUELA MEDIA N°2;CATAMARCA 223;304;41;50
2;3;128;JARDIN DE INFANTES N°913;LUIS TESTA 498;304;39;40
2;3;128;JARDIN DE INFANTES N°915;SANTA FE 304;304;25;26
2;3;128;JARDIN DE INFANTES N°912;FCO. BAÑO Y CATAMARCA S/N;304;11;14
2;3;128;JARDIN DE INFANTES N°903;L.N.ALEM 390;304;27;29
2;3;128;ESCUELA ESB N°4;E.PARADA E/97 Y AZURDUY;304;51;52
2;3;128;ESCUELA EP N°3;L.N.ALEM 1848;304A;53;64
2;3;128;ESCUELA EP N°11;117 N°455;304A;93;102
2;3;128;ESCUELA DE EDUC.ESPECIAL N°501;133 N°471;304A;103;108
2;3;128;ESCUELA ES N°1;EVA PERON 1403;304A;109;116
2;3;128;ESCUELA EST N°1;35 N° 1021;304A;86;92
2;3;128;COLEGIO MARTHA SALLOTTI(EP/ES);LEONOR C.VIVANO DE ALONSO 1881;304A;82;85
2;3;128;ESCUELA EP N°1;MARIA C.GONZALEZ DEL CORRAL 580;304A;72;81
2;3;128;ESCUELA EP N°13/ES N°8;126 N°2397;304A;117;122
2;3;128;ESCUELA ES N°311;NAVARRO 1789;304A;123;127
2;3;128;ESCUELA ES N°3;19 N°757;304A;65;71
2;3;128;ESCUELA EP N°6/ES N°302;38 BIS N°545;304B;128;136
2;3;128;ESCUELA EP N°10;GODOY CRUZ 800 Y R.DE ESCALADA;304B;137;146
2;3;128;ESCUELA EP N°9;MEXICO 2330;304B;150;156
2;3;128;JARDIN DE INFANTES N°914;PLACIDO BAJO 844;304B;157;160
2;3;128;ESCUELA ESB N°5;PARAMARIBO 199;304B;147;149
2;3;128;ESCUELA ESB N°6;R.DE ESCALADA Y GODOY CRUZ;304B;161;164
2;3;128;ESCUELA EP N°12;DISCEPOLO 4037;304C;165;169
2;3;128;ESCUELA ES N°12;FILIBERTO S/N;304C;170;174
2;3;131;ESCUELA EP N°1/ES N°5;RUTA 20-PARAJE LA VIRUTA;611;1;1
2;3;131;ESCUELA EP N°3;FRENTE ESTACION;612;2;2
2;3;131;ESCUELA EP N°6;27 N°1631;613;3;12
2;3;131;ESCUELA EP N°12/ES N°4;30 E/39 Y DIAG.49-B°LA MARCONI;613;13;19
2;3;131;ESCUELA ES N°2;31 Y CIRCUNV.12;613;20;23
2;3;131;ESCUELA EP N°4/ES N°1;11 E/ 6 Y 8;613A;24;26
2;3;131;ESCUELA EP N°8/ES N°3;RUTA 11 Y BALCARCE;613B;27;28
2;3;92;ESCUELA EP N°7/ES N°31;ALBERDI 130;783;1;9
2;3;92;COLEGIO NAZARETH;GRAL.CONESA 406;783;10;13
2;3;92;ESCUELA ES N°20;MITRE 364;783;14;21
2;3;92;ESCUELA EST N°4;VIDELA 226;783;29;35
2;3;92;ESCUELA INCORP.MANUEL BELGRANO;RIVADAVIA 460;783;36;45
2;3;92;COL.BRUZZONE/INS.N.S.GUADALUPE;SAN MARTIN Y SAAVEDRA N°260;783;46;50
2;3;92;COLEGIO E.HOLMBERG;SARMIENTO 679;783;51;54
2;3;92;INSTITUTO SAN JOSE;MITRE 460;783;22;28
2;3;92;ESCUELA EP N°79/SB N°76;MARINERO LOPEZ 575;783A;60;68
2;3;92;ESCUELA EDUC.ESPECIAL N°506;ALSINA N°1625;783A;69;74
2;3;92;ESCUELA EP N°39/ES N°86;MOZART N°950;783A;75;83
2;3;92;CTRO.EDUC.COMPLEMENTARIO N°801;OTAMENDI 1504;783A;55;59
2;3;92;ESCUELA EP N°10/ES N°27;HUMBERTO I N°887;783A;84;89
2;3;92;INSTITUTO SAN JORGE;GUIDO 800;783A;90;94
2;3;92;ESCUELA EP N°19/ES N°7;ORTIZ DE OCAMPO 335;784;101;111
2;3;92;ESCUELA EP N°9;MORENO 932;784;112;120
2;3;92;ESCUELA ES N°15;A.BOTTARO 1125;784;121;130
2;3;92;ESCUELA EP N°38/ES N°48;ECHEVERRIA 192;784;95;100
2;3;92;ESCUELA EP N°73/ESB N°71;AGRIGENTO E/CEVALLOS Y MONROE;784;154;158
2;3;92;ESCUELA EP N°28;HILARIO ASCASUBI N°475;784;137;145
2;3;92;ESCUELA ES N°33;PRINGLES 1621;784;146;149
2;3;92;COLEGIO PAPA EUGENIO PACELLI;JUAN CRUZ VARELA 271;784;150;153
2;3;92;ESCUELA ES N°7/EP N°19;MITRE 1019;784;131;136
2;3;92;ESCUELA EP N°1/ES N°7;RIVADAVIA 373;784;159;162
2;3;92;ESCUELA EP N°30/ES N°30;OTTO BEMBERG 293;785;163;171
2;3;92;ESCUELA EP N°17;ENTRE RIOS 580;785;179;188
2;3;92;ESCUELA EP N°22;RCA.DEL LIBANO N°426;785;189;194
2;3;92;ESCUELA EP N°16/ES N°37;R.LOPEZ 533;785;195;203
2;3;92;ESCUELA EP N°83;URQUIZA 1197;785;245;254
2;3;92;ESCUELA EP N°13/ESB N°35;12 DE OCTUBRE 758;785;210;219
2;3;92;TALLER DIVINA PROVIDENCIA;SAENZ PEÑA 1407;785;220;223
2;3;92;ESCUELA ES N°3;CORRIENTES 587;785;224;229
2;3;92;ESCUELA EP N°12/ES N°49;F.AMOEDO 1256;785;236;244
2;3;92;INSTITUTO N.S.DE FATIMA(EP/ES);CONDARCO 2489;785;255;258
2;3;92;ESCUELA EP N°58;CONDARCO 2711;785;264;270
2;3;92;COLEGIO SAN FELIPE BENIZI;SAENZ PEÑA 1446;785;230;235
2;3;92;INSTITUTO MODELO JEAN PIAGET;BERUTI 1355;785;204;209
2;3;92;INSTITUTO SAN MARCO;PTE.PERON 1033;785;259;261
2;3;92;ESCUELA EP N°36;RCA.DEL LIBANO 1532;785;172;178
2;3;92;INSTITUTO ENRICO FERMI;LA RIOJA 397;785;262;263
2;3;92;ESCUELA EST N°6;AV.CALCHAQUI 1894;785A;280;289
2;3;92;ESCUELA EP N°81/ES N°25;ENTRE RIOS 2812;785A;302;311
2;3;92;ESCUELA EP N°26/ES N°81;J.V.GONZALEZ 751;785A;312;319
2;3;92;ESCUELA EP N°3/ES N°28;AV.LA PLATA 1751;785A;320;327
2;3;92;ESCUELA ES N°16;AV.CALCHAQUI 840;785A;271;279
2;3;92;ESCUELA SECUND.MIGUEL CANE;MIGUEL CANE Y LAPRIDA;785A;290;301
2;3;92;INST.EDUC.DR.ALEXANDER FLEMING;ESTANISLAO DEL CAMPO 1825;785A;328;332
2;3;92;ESCUELA EP N°62/ES N°31;LA RIOJA 1637;785B;333;343
2;3;92;INSTITUTO SAGRADA FAMILIA;PELLEGRINI 3106;785B;344;352
2;3;92;ESCUELA SAN CLEMENTE;SAN MAURO CASTELVERDE 4044;785B;353;359
2;3;92;ESCUELA EP N°27/ESB N°41;SAN LUIS 4016-B°LA PRIMAVERA;785B;360;367
2;3;92;INST.N.S.DEL PERPETUO SOCORRO;AV.CALCHAQUI 4949;785B;368;377
2;3;92;ESCUELA EP N°71/ES N°25;339 DR. LUIS AGOTE N°3550;785B;384;395
2;3;92;COLEGIO NTRA.SRA.DE LOURDES;AV.CALCHAQUI 1371;785B;415;419
2;3;92;ESCUELA EP N°8/ES N°32;381 N°2323;785B;404;414
2;3;92;ESCUELA EP N°75;DR. AUYERO (395) N°2409;785B;420;428
2;3;92;ESCUELA EP N°37;RCA.DEL LIBANO 5070;785B;435;441
2;3;92;INSTITUTO CRISTO REY;389 N°1964;785B;378;383
2;3;92;ESCUELA EP N°41/ES N°51;387 N°2831;785B;396;403
2;3;92;ESCUELA EP N°56;ANIBAL TROILO N°1253;785B;429;434
2;3;92;COLEGIO SANTO DOMINGO;344 N°3202;785B;444;451
2;3;92;JARDIN DE INFANTES N°941;SAN LUIS 3998;785B;452;454
2;3;92;JARDIN DE INFANTES N°954;CATAMARCA 4749;785B;442;443
2;3;92;ESCUELA EP N°31/ES N°84;DARDO ROCHA 1343;786;459;465
2;3;92;ESCUELA EP N°42;LOS ANDES 175;786;479;489
2;3;92;ESCUELA EP N°46/ES N°8;CHICLANA 1019;786;490;497
2;3;92;ESCUELA MODELO M.ACOSTA;A.ALVAREZ 64;786;498;499
2;3;92;COLEGIO JUAN XXIII;MAIPU 1056;786;500;503
2;3;92;INSTITUTO BENITO GONZALEZ;MISIONES 1024;786;504;506
2;3;92;ESCUELA ES N°1;LOS ANDES 173;786;466;478
2;3;92;JARDIN DE INFANTES N°911;RIVADAVIA 248;786;455;458
2;3;92;ESCUELA EP N°61;CASEROS 1586;786;507;510
2;3;92;ESCUELA EP N°15;167 Y CERRITO;786A;511;520
2;3;92;ESCUELA ES N°6;ALEM 1545 BIS;786A;521;533
2;3;92;ESCUELA EP N°48;ALEM 1545;786A;534;545
2;3;92;ESCUELA EP N°78/ES N°23;CHACO 1540;786A;546;553
2;3;92;JARDIN DE INFANTES N°943;FORMOSA 1555;786A;554;555
2;3;92;ESCUELA EP N°24/ES N°29;CRAMER 721;787;556;564
2;3;92;ESCUELA EP N°47/ES N°4;J.LOPEZ 342;787;565;573
2;3;92;ESCUELA EST N°2;ESPORA N°101;787;574;584
2;3;92;COLEGIO ALMAFUERTE;ESTRADA 20;787;591;593
2;3;92;INST.SUP.FORMAC.DOCENTE N°24;CRAMER 471;787;585;590
2;3;92;INST.SUP.FORMAC.DOCENTE N°24;CRAMER 471;787;594;597
2;3;92;ESCUELA EP N°6/ESB N°30;LUIS M.DRAGO 375;787A;598;607
2;3;92;ESCUELA EP N°18/ES N°38;AVELLANEDA 177;787A;613;622
2;3;92;ESCUELA EP N°23;AV.SAN MARTIN 38;787A;623;632
2;3;92;ESCUELA EP N°82/ES N°77;YAPEYU 555;787A;633;643
2;3;92;INSTITUTO MARIA AUXILIADORA;CNEL.PRINGLES 604;787A;644;646
2;3;92;ESCUELA EP N°21;DARDO ROCHA N°802;787A;647;656
2;3;92;ESCUELA EP N°20/ES N°8;ZAPIOLA 1170;787A;661;671
2;3;92;COLEGIO DEL ALTO SOL;COMODORO RIVADAVIA 188;787A;608;612
2;3;92;ESCUELA ES N°21;AV.SAN MARTIN 32;787A;657;660
2;3;92;ESCUELA EP N°65;LOS ANDES 4325;788;672;682
2;3;92;ESCUELA EP N°63/ES N°36;187 N°609;788;685;693
2;3;92;ESCUELA ES N°13;LA PAMPA 4324;788;694;705
2;3;92;ESCUELA EP N°60/ESB N°61;190 N°988;788;706;712
2;3;92;ESCUELA EP N°33;CABO SESSA 1101;788;713;724
2;3;92;SOCIEDAD DE FOMENTO 25 DE MAYO;CISTERNA 3441;788;725;728
2;3;92;ESCUELA EP N°72/ES N°70;BOEDO 1253;788;729;740
2;3;92;ESCUELA EP N°70/ES N°32;AV.DONATO ALVAREZ 190;788;741;749
2;3;92;CENTRO FORMACION PROFES.N°403;174 N°1909;788;683;684
2;3;92;ESCUELA EST N°8;175 BIS E/PILCOMAYO Y PAMPA;788;750;758
2;3;92;CENTRO INTEG.COMUNIT.STA.MARIA;PAMPA Y 173;788;759;763
2;3;92;ESCUELA EP N°53;844 N°2288;788A;764;775
2;3;92;ESCUELA EP N°64/ES N°65;AV.PROVINCIAL Y 848;788A;776;785
2;3;92;ESCUELA EP N°4;827 N°2525;788A;786;797
2;3;92;INSTITUTO JOSE MANUEL ESTRADA;892 N°4051 E/840 Y 841;788A;810;820
2;3;92;ESCUELA ES N°2;844 N°2257 E/893 Y 894;788A;821;828
2;3;92;ESCUELA EP N°11;895 E/835 Y 836;788A;844;853
2;3;92;ESCUELA EP N°32/ES N°26;844 N°2270 E/893 Y 894;788A;860;865
2;3;92;ESCUELA EP N°57/ES N°18;865 N°2737;788A;883;887
2;3;92;ESCUELA EP N°50;826 N°2540;788A;898;906
2;3;92;ESCUELA EP N°59;898 N°6351;788A;829;836
2;3;92;INSTITUTO JOSE HERNANDEZ;DONATO ALVAREZ N°2338;788A;837;843
2;3;92;INSTITUTO ALFONSINA STORNI;851 N°2251 E/893 Y 894;788A;888;897
2;3;92;ESCUELA EM N°10;899 Y AV. MONTEVERDE N°5838;788A;854;859
2;3;92;ESCUELA EST N°3;844 N°2135;788A;866;878
2;3;92;INSTITUTO SAN JUAN BAUTISTA;835 N°1789 ESQ.888;788A;879;882
2;3;92;ESCUELA ES N°37;835 N°2450;788A;798;809
2;3;92;ESCUELA ESB N°19;898 N°6355;788A;907;910
2;3;92;ESCUELA EP N°45/ES N°54;846 N°1202;788B;982;986
2;3;92;ESCUELA EP N°51/ES N°57;874 N°4983 E/850 Y 852;788B;921;934
2;3;92;ESCUELA EP N°43/ES N°24;880 N°1254;788B;935;946
2;3;92;COLEGIO SAN JOSE OBRERO;873 N°4518 E/844 Y 846;788B;947;955
2;3;92;ESCUELA EP N°40/ES N°23;839 N°546 E/876 Y 877;788B;958;969
2;3;92;ESCUELA EP N°86/ES N°79;849 ESQ.883 N°1250;788B;970;981
2;3;92;INSTITUTO SAN GABRIEL;877 N°4728;788B;956;957
2;3;92;ESCUELA EP N°68/ES N°67;819 N°920;788B;911;920
2;3;92;INSTITUTO TAP QUI;875 N°4464;788B;987;989
2;3;92;JARDIN DE INFANTES N°961;817 E/877 Y 878 N°732;788B;990;992
2;3;92;ESCUELA EP N°25/ES N°11;802 Y 897;788C;993;1007
2;3;92;COLEGIO MADRE TERESA;SANTA FE 1865 E/888 Y 889;788C;1017;1026
2;3;92;ESCUELA EP N°2/ES N°2;806 N°2374 E/893 Y 894;788C;1027;1041
2;3;92;ESCUELA EP N°77/ES N°75;820 ESQ. 893 N°2300;788C;1075;1083
2;3;92;ESCUELA EP N°76/ES N°74;809 N°1890 Y 889;788C;1054;1064
2;3;92;INSTITUTO MALVINAS ARGENTINAS;816 N°2409;788C;1065;1074
2;3;92;ESCUELA ES N°9;810 N°1828;788C;1042;1053
2;3;92;ESCUELA EP N°87;889 N°1881;788C;1008;1016
2;3;92;ESCUELA EP N°14;CARBONARI 379;791;1084;1095
2;3;92;JARDIN DE INFANTES N°920;SALTA 1359;791;1096;1098
2;3;92;ESCUELA EP N°67;EMILIO ZOLA N°4799;791;1099;1104
2;3;92;ESCUELA EP N°5;MENDOZA 167;791;1105;1110
2;3;92;ESCUELA ES N°5;RIO SALADO 5150;791;1128;1134
2;3;92;ESCUELA EP N°49/ES N°56;RIO DESAGUADERO 5180;791;1111;1118
2;3;92;INSTITUTO Y JARD. J.V.GONZALEZ;LA GUARDA 234;791;1119;1123
2;3;92;INST.ENS.PRIVADA J.B.ALBERDI;LAVALLE 5056;791;1124;1127
2;3;92;ESCUELA ES N°6;BROWN 5233;791;1135;1139
2;3;92;JARDIN DE INFANTES N°938;MENDOZA 332;791;1140;1141
2;3;92;ESCUELA EP N°44/ES N°53;PANAMA 420;791A;1142;1148
2;3;92;ESCUELA EP N°69/ES N°68;LARREA 3922;791A;1151;1160
2;3;92;COLEGIO S.T.DEL NIÑO JESUS(EP);AV.SAN MARTIN 5455;791A;1161;1172
2;3;92;ESCUELA EP N°52;MINUTO 4703;791A;1173;1184
2;3;92;ESCUELA EP N°74/ES N°72;V.LOPEZ 3980;791A;1191;1201
2;3;92;INSTITUTO ESTEBAN ECHEVERRIA;BRASIL 1450;791A;1185;1190
2;3;92;COLEGIO S.T.DEL NIÑO JESUS(ES);DOMINGO SOBRAL 213;791A;1202;1209
2;3;92;ESCUELA EST N°1;ANDRADE 800;791A;1210;1216
2;3;92;ESCUELA ESB N°17;ECUADOR 938;791A;1217;1221
2;3;92;ESC.SEC.TECN.U.DE QUILMES;RCA.DE FRANCIA 1714 Y DR.KENNY;791A;1149;1150
2;3;92;ESCUELA EP N°55/ES N°59;J.B.JUSTO 3402;791B;1222;1231
2;3;92;INSTITUTO CONSTANCIO C.VIGIL;J.B. JUSTO 3761;791B;1238;1248
2;3;92;ESCUELA EP N°85/ESB N°78;CONDARCO 5350;791B;1249;1261
2;3;92;ESCUELA EP N°66/ES N°21;J.B.JUSTO 4851;791B;1262;1275
2;3;92;ESCUELA EP N°34/ES N°45;NICARAGUA 2200;791B;1280;1289
2;3;92;ESCUELA EP N°54/ES N°22;BRASIL Y E.DEL CAMPO;791B;1290;1299
2;3;92;ESCUELA EP N°35;CRAVIOTTO N°2630;791B;1232;1237
2;3;92;INSTITUTO BLAS PASCAL;AV.CALCHAQUI 4948;791B;1276;1279
2;3;109;ESCUELA EP N°1;SAN MARTIN 101;924;1;14
2;3;109;ESCUELA ES N°1;25 DE MAYO 379;924;27;31
2;3;109;ESCUELA EP N°29/ES N°307;DIRECTORIO Y PTE ILIA;924;32;41
2;3;109;INSTITUTO SAN JOSE;ALTE.BROWN Y 9 DE JULIO;924;42;46
2;3;109;ESCUELA EP N°6;ESPAÑA 115;924;47;54
2;3;109;ESCUELA EP N°22;SANTA FE 117;924;55;60
2;3;109;ESCUELA EP N°16;GUERRIERI 33;924;61;66
2;3;109;ESCUELA EST N°2;QUINTANA 154;924;15;26
2;3;109;ESCUELA EP N°9;URQUIZA 164;925;67;77
2;3;109;ESCUELA EP N°12/ES N°301;ESMERALDA 105;925;78;86
2;3;109;ESCUELA ES N°4;MITRE 400;925;95;103
2;3;109;ESCUELA EP N°15;S. ARCURI E/ VIDAL Y PALACIOS N° 102;925;107;114
2;3;109;COLEGIO MONSEÑOR A.SCHELL;SAN VICENTE Y SEGUI S/N°;925;115;116
2;3;109;ESCUELA EP N°25;BOMPLAND 462;925;117;122
2;3;109;ESCUELA EP N°23/ES N°301 ANEXO;ASCASUBI 218;925;123;128
2;3;109;ESCUELA EP N°26;ISABEL LA CATOLICA N°792;925;87;94
2;3;109;ESCUELA EP N°27;BUENOS AIRES 1310;925;129;134
2;3;109;ESCUELA ES N°7;C.LORENZINI 1050;925;135;138
2;3;109;ESCUELA ES N°5;LIBERTAD 283;925;139;145
2;3;109;ESCUELA ES N°12/ES N°312;BONPLAND 446;925;104;106
2;3;109;ESCUELA EP N°4;BELGRANO 32;926;146;152
2;3;109;ESCUELA EP N°7;RUTA 16 PASAJE SAMBOROMBON;927;153;153